loccode,x,y,prek_type,name,address,borough,zip,phone
K001,980985,175780,DOE,P.S. 001 The Bergen,309 47 St,K,11220,718-567-7661
K003,996604,187904,DOE,P.S. 003 The Bedford Village,50 Jefferson Ave,K,11216,718-622-2960
K005,1005773,189031,DOE,P.S. 005 Dr. Ronald Mcnair,820 Hancock St,K,11233,718-574-2333
K007,1019458,190490,DOE,P.S. 007 Abraham Lincoln,858 Jamaica Ave,K,11208,718-647-3600
K009,993700,186368,DOE,P.S. 009 Teunis G Bergen,80 Underhill Ave,K,11238,718-638-3260
K011,993685,189033,DOE,P.S. 011 Purvis J Behan,419 Waverly Ave,K,11238,718-638-2661
K012,1006488,184472,DOE,Dr. Jacqueline Peek - Davis School,430 Howard Ave,K,11233,718-953-4569
K013,1013831,181130,DOE,P.S. 013 Roberto Clemente,557 Pennsylvania Ave,K,11207,718-498-3717
K015,981053,185943,DOE,P.S. 015 Patrick F Daly,71 Sullivan St,K,11231,718-330-9280
K016,994790,196466,DOE,P.S. 016 Leonard Dunkly,157 Wilson St,K,11211,718-782-5352
K017,996201,199850,DOE,P.S. 017 Henry D Woodworth,208 North 5 St,K,11211,718-387-2929
K018,998970,198249,DOE,P.S. 018 Edward Bush,101 Maujer St,K,11206,718-387-3241
K020,992270,190980,DOE,P.S. 020 Clinton Hill,225 Adelphi St,K,11205,718-834-6744
K021,1004755,187212,DOE,P.S. 021 Crispus Attucks,180 Chauncey St,K,11233,718-493-9681
K023,998775,192219,DOE,P.S. 023 Carter G Woodson,545 Willoughby Ave,K,11206,718-387-0375
K024,982972,177112,DOE,P.S. 024,427 38 St,K,11232,718-832-9366
K025,1000753,191155,DOE,P.S. 025 Eubie Blake School,787 Lafayette Ave,K,11221,718-574-2336
K026,1003289,191351,DOE,P.S. 026 Jesse Owens,1014 Lafayette Ave,K,11221,718-919-5707
K028,1006403,186449,DOE,P.S. 028 The Warren Prep Academy,1001 Herkimer St,K,11233,718-467-2865
K029,984883,189545,DOE,P.S. 029 John M Harrigan,425 Henry St,K,11201,718-330-9277
K031,996979,204091,DOE,P.S. 031 Samuel F Dupont,75 Meserole Ave,K,11222,718-383-8998
K032,986550,187189,DOE,P.S. 032 Samuel Mills Sprole,317 Hoyt St,K,11231,718-222-6400
K034,998184,203901,DOE,P.S. 034 Oliver H Perry,131 Norman Ave,K,11222,718-389-5842
K038,988968,188868,DOE,P.S. 038 The Pacific,450 Pacific St,K,11217,718-330-9305
K039,988958,182905,DOE,P.S. 039 Henry Bristow,417 6 Ave,K,11215,718-330-9310
K040,1005913,187134,DOE,P.S. 040 George W Carver,265 Ralph Ave,K,11233,718-574-2353
K044,1000624,189327,DOE,P.S. 044 Marcus Garvey,432 Monroe St,K,11221,718-834-6939
K045,1009081,189447,DOE,P.S. 045 Horace E Greene,84 Schaefer St,K,11207,718-642-5360
K046,992161,192247,DOE,P.S. 046 Edward C Blum,100 Clermont Ave,K,11205,718-834-7694
K048,987776,165729,DOE,P.S. 048 Mapleton,6015 18 Ave,K,11204,718-232-3873
K052,1000858,153397,DOE,P.S. 052 Sheepshead Bay,2675 East 29 St,K,11235,718-648-0882
K054,997373,191615,DOE,P.S. 054 Samuel C Barnes,195 Sanford St,K,11205,718-834-6752
K056,995211,188782,DOE,P.S. 056 Lewis H Latimer,170 Gates Ave,K,11238,718-857-3149
K058,985512,187171,DOE,P.S. 058 The Carroll,330 Smith St,K,11231,718-330-9322
K059,999930,193336,DOE,P.S. 059 William Floyd,211 Throop Ave,K,11206,718-443-3600
K066,1010047,175668,DOE,P.S. 66,845 East 96 St,K,11236,718-922-3505
K067,990385,192610,DOE,P.S. 067 Charles A Dorsey,51 Saint Edwards St,K,11205,718-834-6756
K075,1006134,191822,DOE,P.S. 075 Mayda Cortiella,95 Grv St,K,11221,718-574-0244
K081,1002239,191774,DOE,P.S. 081 Thaddeus Stevens,990 Dekalb Ave,K,11221,718-574-2365
K084,994436,199724,DOE,P.S. 084 Jose De Diego,250 Berry St,K,11211,718-384-8063
K089,1015669,186210,DOE,P.S. 089 Cypress Hills,265 Warwick St,K,11207,718-964-1180
K090,989819,149880,DOE,P.S. 90 Edna Cohen School,2840 West 12 St,K,11224,718-787-3333
K091,1000834,180404,DOE,P.S. 091 The Albany Avenue School,532 Albany Ave,K,11203,718-756-0243
K092,996990,178353,DOE,P.S. 092 Adrian Hegeman,601 Parkside Ave,K,11226,718-462-2087
K093,999087,186633,DOE,P.S. 093 William H Prescott,31 New York Ave,K,11216,718-604-7363
K095,991224,156323,DOE,P.S. 095 The Gravesend,345 Van Sicklen St,K,11223,718-449-5050
K097,988205,158329,DOE,P.S. 97 The Highlawn,1855 Stillwell Ave,K,11223,718-372-1800
K099,993722,165704,DOE,P.S. 099 Isaac Asimov,1120 East 10 St,K,11230,718-338-9201
K100,992317,149702,DOE,P.S. 100 The Coney Island School,2951 West 3 St,K,11224,718-266-9477
K106,1008466,192021,DOE,P.S. 106 Edward Everett Hale,1328 Putnam Ave,K,11221,718-574-0261
K108,1016343,187503,DOE,P.S. 108 Sal Abbracciamento,200 Linwood St,K,11208,718-277-7010
K109,1002852,171265,DOE,P.S. 109,1001 East 45 St,K,11203,718-693-3426
K110,1000314,202930,DOE,P.S. 110 The Monitor,124 Monitor St,K,11222,718-383-7600
K112,983812,164596,DOE,P.S. 112 Lefferts Park,7301 15 Ave,K,11228,718-232-0685
K114,1009741,173411,DOE,P.S. 114 Ryder Elementary,1077 Remsen Ave,K,11236,718-257-4428
K115,1012677,170592,DOE,P.S. 115 Daniel Mucatel School,1500 East 92 St,K,11236,718-241-1000
K118,987659,183768,DOE,The Maurice Sendak Community School,211 8th St,K,11215,718-840-5660
K119,1001254,167364,DOE,P.S. 119 Amersfort,3829 Ave K,K,11210,718-377-7696
K120,1001511,194534,DOE,P.S. 120 Carlos Tapia,18 Beaver St,K,11206,718-455-1000
K121,990132,166212,DOE,P.S. 121 Nelson A Rockefeller,5301 20 Ave,K,11204,718-377-8845
K123,1005736,195753,DOE,P.S. 123 Suydam,100 Irving Ave,K,11237,718-821-4810
K124,986830,182462,DOE,P.S. 124 Silas B Dutcher,515 4 Ave,K,11215,718-788-0246
K129,986088,188932,CHARTER,Success Academy Charter School - Cobble Hill Pre - Kindergarten,284 Baltic St,K,11201,718-704-1460
K130,990932,175699,DOE,P.S. 130 The Parkside,70 Ocean Pkwy,K,11218,718-686-1940
K131,986096,172731,DOE,P.S. 131 Brooklyn,4305 Ft Hamilton Pkwy,K,11219,718-431-1960
K132,999251,199688,DOE,P.S. 132 The Conselyea School,320 Manhattan Ave,K,11211,718-599-7301
K133,989651,187141,DOE,P.S. 133 William A Butler,610 Baltic St,K,11217,718-398-5320
K135,1002848,177315,DOE,P.S. 135 Sheldon A Brookner,684 Linden Blvd,K,11203,718-693-4363
K137,1007348,187847,DOE,P.S. / I.S. 137 Rachel Jean Mitchell,121 Saratoga Ave,K,11233,718-453-2926
K138,997749,184891,DOE,P.S. 138 Brooklyn,760 Prospect Pl,K,11216,718-467-0800
K139,993758,172958,DOE,P.S. 139 Alexine A Fenty,330 Rugby Rd,K,11226,718-282-5254
K145,1003047,194870,DOE,P.S. 145 Andrew Jackson,100 Noll St,K,11206,718-821-4823
K146,983782,186982,DOE,P.S. 146,610 Henry St,K,11231,718-923-4750
K147,1001203,196190,DOE,P.S. 147 Isaac Remsen,325 Bushwick Ave,K,11206,718-497-0326
K149,1013999,183181,DOE,P.S. 149 Danny Kaye,700 Sutter Ave,K,11207,718-385-8666
K151,1009676,191905,DOE,P.S. 151 Lyndon B Johnson,763 Knickerbocker Ave,K,11207,718-326-6360
K152,996920,169771,DOE,School Of Science & Technology,725 East 23 St,K,11210,718-434-5222
K153,995364,158309,DOE,P.S. 153 Homecrest,1970 Homecrest Ave,K,11229,718-375-4484
K155,1009570,186160,DOE,P.S. / I.S. 155 Nicholas Herkimer,1355 Herkimer St,K,11233,718-495-7751
K156,1006944,181831,DOE,P.S. 156 Waverly,104 Sutter Ave,K,11212,718-498-2811
K157,995355,192637,DOE,P.S. 157 Benjamin Franklin,850 Kent Ave,K,11205,718-622-9285
K158,1016131,184337,DOE,P.S. 158 Warwick,400 Ashford St,K,11207,718-277-6116
K161,998338,181915,DOE,P.S. 161 The Crown,330 Crown St,K,11225,718-756-3100
K164,988177,171416,DOE,P.S. 164 Caesar Rodney,4211 14 Ave,K,11219,718-854-4100
K165,1008949,178732,DOE,P.S. 165 Ida Posner,76 Lott Ave,K,11212,718-495-7759
K172,984158,178921,DOE,P.S. 172 Beacon School Of Excellence,825 4 Ave,K,11232,718-965-4200
K177,991336,160937,DOE,P.S. 177 The Marlboro,346 Ave P,K,11204,718-375-9506
K178,1007728,185292,DOE,P.S. 178 St. Clair Mckelway,2163 Dean St,K,11233,718-495-7768
K179,990551,172548,DOE,P.S. 179 Kensington,202 Ave C,K,11218,718-438-4010
K180,987136,167594,DOE,The Seeall Academy,5601 16 Ave,K,11204,718-851-8070
K181,999237,175436,DOE,P.S. 181 Brooklyn,1023 New York Ave,K,11203,718-462-5298
K182,995368,198597,CHARTER,Success Academy Charter School - Williamsburg Pre - Kindergarten,183 South 3rd St,K,11211,718-704-1419
K184,1010622,179822,DOE,P.S. 184 Newport,273 Newport St,K,11212,718-495-7775
K186,985747,161927,DOE,P.S. 186 Dr. Irving A Gladstone,7601 19 Ave,K,11214,718-236-7071
K188,984106,149472,DOE,P.S. 188 Michael E Berdy,3314 Neptune Ave,K,11224,718-265-7580
K190,1013461,180625,DOE,P.S. 190 Sheffield,590 Sheffield Ave,K,11207,718-346-8780
K191,1005274,184040,DOE,P.S. 191 Paul Robeson,1600 Park Pl,K,11233,718-756-1206
K192,989832,168445,DOE,P.S. 192 - The Magnet School For Math And Science Inquiry,4715 18 Ave,K,11204,718-633-3061
K193,998056,165816,DOE,P.S. 193 Gil Hodges,2515 Ave L,K,11210,718-338-9011
K194,1002569,156858,DOE,P.S. 194 Raoul Wallenberg,3117 Ave W,K,11229,718-648-8804
K195,999917,150530,DOE,P.S. 195 Manhattan Beach,131 Irwin St,K,11235,718-648-9102
K196,1000961,197506,DOE,P.S. 196 Ten Eyck,207 Bushwick Ave,K,11206,718-497-0139
K197,997690,162462,DOE,P.S. 197 - The Kings Highway Academy,1599 East 22 St,K,11210,718-377-7890
K198,1001725,171434,DOE,P.S. 198 Brooklyn,4105 Farragut Rd,K,11210,718-282-4920
K199,994497,163891,DOE,P.S. 199 Frederick Wachtel,1100 Elm Ave,K,11230,718-339-1422
K200,983788,158980,DOE,P.S. 200 Benson School,1940 Benson Ave,K,11214,718-236-5466
K202,1018510,181996,DOE,P.S. 202 Ernest S Jenkyns,982 Hegeman Ave,K,11208,718-649-7880
K203,1004878,165792,DOE,P.S. 203 Floyd Bennett School,5101 Ave M,K,11234,718-241-8488
K204,982425,162902,DOE,P.S. 204 Vince Lombardi,8101 15 Ave,K,11228,718-236-2906
K205,987836,163315,DOE,P.S. 205 Clarion,6701 20 Ave,K,11204,718-236-2380
K206,998543,156874,DOE,P.S. 206 Joseph F Lamb,2200 Gravesend Nck Rd,K,11229,718-743-5598
K207,1003637,162866,DOE,P.S. 207 Elizabeth G Leary,4011 Fillmore Ave,K,11234,718-645-8667
K208,1003436,173291,DOE,P.S. 208 Elsa Ebeling,4801 Ave D,K,11203,718-629-1670
K209,994897,153044,DOE,P.S. 209 Margaret Mead,2609 East 7 St,K,11235,718-743-1954
K212,988250,153341,DOE,P.S. 212 Lady Deborah Moody,87 Bay 49 St,K,11214,718-266-4841
K213,1014692,179849,DOE,P.S. 213 New Lots,580 Hegeman Ave,K,11207,718-257-4034
K214,1022233,185689,DOE,P.S. 214 Michael Friedsam,2944 Pitkin Ave,K,11208,718-647-1740
K215,992559,158723,DOE,P.S. 215 Morris H Weiss,415 Ave S,K,11223,718-339-2464
K216,992663,154348,DOE,P.S. 216 Arturo Toscanini,350 Ave X,K,11223,718-645-2862
K217,993573,170160,DOE,P.S. 217 Colonel David Marcus School,1100 Newkirk Ave,K,11230,718-434-6960
K219,1005716,179426,DOE,P.S. 219 Kennedy - King,1060 Clarkson Ave,K,11212,718-342-0493
K221,1001983,181168,DOE,P.S. 221 Toussaint L'Ouverture,791 Empire Blvd,K,11213,718-756-0122
K222,1001227,162862,DOE,P.S. 222 Katherine R Snyder,3301 Quentin Rd,K,11234,718-998-4298
K224,1021434,181544,DOE,P.S. 224 Hale A Woodruff,757 Wortman Ave,K,11208,718-235-3600
K225,996443,150554,DOE,P.S. K225 - The Eileen E Zaglin,1075 Ocean Vw Ave,K,11235,718-743-9793
K226,990693,163416,DOE,P.S. 226 Alfred De Bmason,6006 23 Ave,K,11204,718-234-4940
K229,980558,161737,DOE,P.S. 229 Dyker,1400 Benson Ave,K,11228,718-236-5447
K230,989675,174378,DOE,P.S. 230 Doris L Cohen,1 Albemarle Rd,K,11218,718-437-6135
K233,1008110,176607,DOE,P.S. 233 Langston Hughes,9301 Ave B,K,11236,718-346-8103
K235,1000654,177895,DOE,P.S. 235 Lenox School,525 Lenox Rd,K,11203,718-773-4869
K236,1008520,163671,DOE,P.S. 236 Mill Basin,6302 Ave U,K,11234,718-444-6969
K238,994024,161069,DOE,P.S. 238 Anne Sullivan,1633 East 8 St,K,11223,718-339-4355
K241,995237,183023,DOE,P.S. 241 Emma L Johnston,976 President St,K,11225,718-636-4725
K243,1002118,185508,DOE,P.S. 243k - The Weeksville School,1580 Dean St,K,11213,718-604-6909
K244,1004881,175443,DOE,P.S. 244 Richard R Green,5404 Tilden Ave,K,11203,718-346-6240
K245,994541,174249,DOE,P.S. 245,249 East 17th St,K,11226,718-284-2330
K247,987819,162329,DOE,P.S. 247 Brooklyn,7000 21 Ave,K,11204,718-236-4205
K249,993590,175985,DOE,P.S. 249 The Caton,18 Marlborough Rd,K,11226,718-282-8828
K250,999425,196814,DOE,P.S. 250 George H Lindsay,108 Montrose Ave,K,11206,718-384-0889
K251,1005337,169271,DOE,P.S. 251 Paerdegat,1037 East 54 St,K,11234,718-251-4110
K253,994847,150547,DOE,P.S. 253,601 Oceanview Ave,K,11235,718-332-3331
K254,997727,154490,DOE,P.S. 254 Dag Hammarskjold,1801 Ave Y,K,11235,718-743-0890
K255,996523,159403,DOE,P.S. 255 Barbara Reing School,1866 East 17 St,K,11229,718-376-8494
K256,998224,190889,DOE,P.S. 256 Benjamin Banneker,114 Kosciusko St,K,11216,718-857-9820
K257,1000436,195288,DOE,P.S. 257 John F Hylan,60 Cook St,K,11206,718-384-7128
K261,987504,189641,DOE,P.S. 261 Philip Livingston,314 Pacific St,K,11201,718-330-9275
K262,1003788,188160,DOE,P.S. 262 El Hajj Malik El Shabazz Elementary School,500 Macon St,K,11233,718-453-0780
K268,1004308,178698,DOE,P.S. 268 Emma Lazarus,133 East 53 St,K,11203,718-773-5332
K269,998729,171624,DOE,P.S. 269 Nostrand,1957 Nostrand Ave,K,11210,718-941-2800
K270,994945,191064,DOE,P.S. 270 Johann Dekalb,241 Emerson Pl,K,11205,718-623-5280
K272,1015842,170884,DOE,P.S. 272 Curtis Estabrook,101 - 24 Seaview Ave,K,11236,718-241-1300
K273,1017806,179114,DOE,P.S. 273 Wortman,923 Jerome St,K,11207,718-649-5739
K274,1004250,192316,DOE,P.S. 274 Kosciusko,800 Bushwick Ave,K,11221,718-574-0273
K276,1009786,170188,DOE,P.S. 276 Louis Marshall,1070 East 83 St,K,11236,718-241-5757
K277,1004239,156389,DOE,P.S. 277 Gerritsen Beach,2529 Gerritsen Ave,K,11229,718-743-6689
K279,1014049,173991,DOE,P.S. 279 Herman Schreiber,1070 East 104 St,K,11236,718-444-4316
K280,989077,178398,DOE,Pre - K Center At Bishop Ford School Site,500 19th St,K,11215,718-965-1190
K282,990423,185765,DOE,P.S. 282 Park Slope,180 6 Ave,K,11217,718-622-1626
K284,1009894,182254,DOE,P.S. 284 Lew Wallace,213 Osborn St,K,11212,718-495-7791
K287,989554,193596,DOE,P.S. 287 Bailey K Ashford,50 Navy St,K,11201,718-834-4745
K288,986399,148501,DOE,P.S. 288 The Shirley Tanyhill,2950 West 25 St,K,11224,718-382-2100
K289,1000334,185025,DOE,P.S. 289 George V Brower,900 St Marks Ave,K,11213,718-493-3824
K290,1014898,186364,DOE,P.S. 290 Juan Morel Campos,135 Schenck Ave,K,11207,718-647-1113
K295,987330,180120,DOE,P.S. 295,330 18 St,K,11215,718-965-0390
K297,998786,193431,DOE,P.S. 297 Abraham Stockton,700 Park Ave,K,11206,718-388-4581
K298,1009797,183759,DOE,P.S. 298 Dr. Betty Shabazz,85 Watkins St,K,11212,718-495-7793
K299,1007012,191023,DOE,P.S. 299 Thomas Warren Field,88 Woodbine St,K,11221,718-574-0301
K305,999466,189159,DOE,P.S. 305 Dr. Peter Ray,344 Monroe St,K,11216,718-789-3962
K306,1015725,178099,DOE,P.S. 306 Ethan Allen,970 Vermont St,K,11207,718-649-3155
K307,989287,194892,DOE,P.S. 307 Daniel Hale Williams,209 York St,K,11201,718-834-4748
K308,1002040,190109,DOE,P.S. 308 Clara Cardwell,616 Quincy St,K,11221,718-574-2373
K309,1005259,190031,DOE,P.S. 309 The George E Wibecan Preparatory Academy,794 Monroe St,K,11221,718-574-2381
K312,1009549,165828,DOE,P.S. 312 Bergen Beach,7103 Ave T,K,11234,718-763-4015
K315,996903,169868,DOE,P.S. K315,2310 Glenwood Rd,K,11210,718-421-9560
K316,995204,185072,DOE,P.S. 316 Elijah Stroud,750 Classon Ave,K,11238,718-638-4043
K319,996991,197833,DOE,P.S. 319,360 Keap St,K,11211,718-388-1588
K323,1008890,182134,DOE,P.S. / I.S. 323,210 Chester St,K,11212,718-495-7781
K325,1013506,177584,DOE,The Fresh Creek School,875 Williams Ave,K,11207,718-272-1843
K326,1004192,168228,DOE,P.S. 326,1800 Utica Ave,K,11234,718-241-4828
K327,1008639,182807,DOE,P.S. 327 Dr. Rose B English,111 Bristol St,K,11212,718-495-7801
K328,1012561,182536,DOE,P.S. 328 Phyllis Wheatley,330 Alabama Ave,K,11207,718-345-9393
K329,985385,148644,DOE,P.S. 329 Surfside,2929 West 30 St,K,11224,718-996-3800
K335,1004167,184956,DOE,P.S. 335 Granville T Woods,130 Rochester Ave,K,11213,718-493-7736
K345,1017530,185678,DOE,P.S. 345 Patrolman Robert Bolden,111 Berriman St,K,11208,718-647-8387
K346,1017065,175010,DOE,P.S. 346 Abe Stark,1400 Pennsylvania Ave,K,11239,718-642-3000
K361,998959,172556,DOE,P.S. 361 East Flatbush Early Childhood School,3109 Newkirk Ave,K,11226,718-856-0600
K362,986446,180808,CHARTER,Hellenic Classical Charter School,646 5th Ave,K,11215,718-499-0957
K375,995449,181484,DOE,P.S. 375 Jackie Robinson School,46 Mckeever Pl,K,11225,718-693-6655
K377,1007847,192076,DOE,P.S. 377 Alejandrina B De Gautier,200 Woodbine St,K,11221,718-574-0325
K380,997157,195047,DOE,P.S. 380 John Wayne Elementary,370 Marcy Ave,K,11206,718-388-0607
K384,1010671,190713,DOE,P.S. / I.S. 384 Frances E Carter,242 Cooper St,K,11207,718-574-0382
K394,1004137,184405,DOE,M.S. K394,188 Rochester Ave,K,11213,718-756-3164
K397,999116,179285,DOE,P.S. 397 Foster - Laurie,490 Fenimore St,K,11203,718-774-5200
K398,1004231,181212,DOE,P.S. 398 Walter Weaver,60 East 94 St,K,11212,718-774-4466
K401,1010248,184196,DOE,Christopher Avenue Community School,51 Christopher Ave,K,11212,718-495-5761
K414,996862,197921,DOE,Brooklyn Arbor Elementary School,325 South 3 St,K,11211,718-963-0393
K446,1008226,179691,DOE,Riverdale Avenue Community School,76 Riverdale Ave,K,11212,718-485-1679
K506,978839,173228,DOE,P.S. 506 : The School Of Journalism & Technology,330 59 St,K,11220,718-492-0087
K516,981893,176359,DOE,Sunset Park Avenues Elementary School,4222 4th Ave,K,11232,718-369-8330
K532,1002508,183178,DOE,New Bridges Elementary,1025 Eastern Pkwy,K,11213,718-363-8200
K557,1012718,181795,DOE,Brooklyn Gardens Elementary School,574 Dumont Ave,K,11207,718-495-7012
K599,1009065,187213,DOE,Brooklyn Landmark Elementary School,251 Mcdougal St,K,11233,718-443-2747
K627,1000626,192069,DOE,Brighter Choice Community School,280 Hart St,K,11206,718-574-2378
K628,1002154,187659,DOE,Brooklyn Brownstone School,272 Macdonough St,K,11233,718-573-2307
K636,1000728,192084,DOE,Young Scholars' Academy For Discovery And Exploration,280 Hart St,K,11206,718-453-4081
K651,982340,184973,CHARTER,Pave Academy Charter School,76 Lorraine St,K,11231,917-803-0380
K676,982876,186241,DOE,Red Hook Neighborhood School,27 Huntington St,K,11231,718-330-2238
K677,1017717,183231,DOE,East New York Elementary School Of Excellence,605 Shepherd Ave,K,11208,718-272-6075
K702,994928,191061,CHARTER,Community Partnership Charter School Pre - Kindergarten,241 Emerson Pl,K,11205,718-399-3824
K705,995436,185886,DOE,Brooklyn Arts And Science Elementary School,443 St Marks Ave,K,11238,718-230-0851
K748,982228,160397,DOE,P.S. 748 Brooklyn School For Global Scholars,1664 Benson Ave,K,11214,718-382-3130
K770,1004164,181298,DOE,P.S. 770 New American Academy,60 East 94 St,K,11212,718-221-5837
KAAE,975045,166820,NYCEEC,Adelphi Academy Of Brooklyn,8515 Rdg Blvd,K,11209,718-238-3308
KAAS,999262,180626,NYCEEC,Associated Beth Rivkah School - UPK,470 Lefferts Ave,K,11225,718-735-0400
KABC,986288,166574,NYCEEC,Bais Sarah School,6101 16 Ave,K,11204,718-871-7571
KABD,989033,171984,NYCEEC,Bais Tziporah,1449 39th St,K,11218,718-436-8336
KABE,990426,166877,NYCEEC,Bais Yaakov D'chassidei Gur,1975 51st St,K,11204,718-338-5600
KABF,994745,164146,NYCEEC,Bais Yaakov Academy UPK,1213 Elm Ave,K,11230,718-339-4747
KABG,994502,196556,NYCEEC,Yeshiva Jesode Hatorah,563 Bedford Ave,K,11211,718-302-7500
KABN,990677,165898,NYCEEC,Barkai Yeshivah,5302 21 Ave,K,11204,718-998-7473
KABP,1002608,177682,NYCEEC,Battalion Christian Academy,780 Schenectady Ave,K,11203,718-774-5447
KABU,1016772,174547,NYCEEC,Be - Er Hagolah Institutes,671 Louisiana Ave,K,11239,718-642-6800
KACI,995495,158326,NYCEEC,Bambi Day Care,1981 Homecrest Ave,K,11229,718-645-7010
KADG,1001380,180668,NYCEEC,Bnos Menachem,739 East New York Ave,K,11203,718-493-1100
KADN,986785,169923,NYCEEC,Zion Day Care,5000 14th Ave,K,11219,718-438-2862
KADP,988683,171061,NYCEEC,Gan DCC,4206 - 10 15th Ave,K,11219,718-435-2812
KADW,1003138,153054,NYCEEC,Brooklyn Amity School,3867 Shr Pkwy,K,11235,718-891-6100
KAET,974876,166906,NYCEEC,Dimitrios & Georgia Kaloidis P.S. Of Holy Cross Goc,8502 Rdg Blvd,K,11209,718-836-8096
KAFB,997555,183743,NYCEEC,Epiphany Lutheran School,721 Lincoln Pl,K,11216,718-773-7200
KAFO,1000793,159493,NYCEEC,Good Shepherd School,1943 Brown St,K,11229,718-339-2745
KAFZ,994623,167956,NYCEEC,HIDEC,1401 Ave I,K,11230,718-377-7507
KAHA,996304,168211,NYCEEC,Masores Bais Yaakov,1395 Ocean Ave,K,11230,718-692-2424
KAHX,976810,171036,NYCEEC,Gateway City Academy,257 Bay Rdg Ave,K,11220,718-921-3737
KAIN,999883,174969,NYCEEC,Phyl's Academy,3520 Tilden Ave,K,11203,718-469-9400
KAIT,996376,160135,NYCEEC,Prospect Park Yeshiva,1784 East 17 St,K,11229,718-376-5959
KAJD,976536,167089,NYCEEC,St. Anselm Catholic Academy,365 83 St,K,11209,212-929-0839
KAJE,989910,163686,NYCEEC,St. Athanasius School,6120 Bay Pkwy,K,11204,718-236-4791
KAJR,982809,159201,NYCEEC,Heartshare Human Services Of New York,1825 Bath Ave,K,11214,718-238-4637
KAJT,1004723,194266,NYCEEC,St. Frances Cabrini Catholic Academy,181 Suydam St,K,11221,718-386-9277
KAJW,998382,180267,NYCEEC,St. Francis Of Assisi,400 Lincoln Rd,K,11225,718-778-3700
KAKF,997939,153520,NYCEEC,St. Mark School,2602 East 19th St,K,11235,718-332-9304
KAKI,986936,158403,NYCEEC,St. Peter Catholic Academy,8401 23rd Ave,K,11214,718-372-0025
KALL,997022,176227,NYCEEC,St. Gregory The Great Catholic Academy,2520 Church Ave,K,11226,917-972-9673
KALT,991104,167799,NYCEEC,"Cheder, The",129 Elmwood Ave,K,11230,718-252-6333
KANO,986737,172123,NYCEEC,Yeshivas Boyan Tifereth Mordechai Shlomo,1205 44 St,K,11219,718-435-6060
KANX,988679,166928,NYCEEC,Yeshiva Karlin Stolin,1801 55th St,K,11204,718-232-7800
KAOA,988545,171886,NYCEEC,Yeshiva Headstart 40th Street,1402 40th St,K,11218,718-633-2232
KAOP,993607,167603,NYCEEC,Yeshivah Of Flatbush,919 East 10 St,K,11230,718-377-4040
KAOQ,1000029,154006,NYCEEC,Yeshiva Of Kings Bay,2611 Ave Z,K,11235,718-646-8500
KAOV,994249,165097,NYCEEC,Yeshiva Ohr Shraga,1102 Ave L,K,11230,718-252-7777
KAPB,991215,174025,NYCEEC,Yeshivat Shaare Torah,222 Ocean Pkwy,K,11218,718-437-6101
KAPM,996604,163668,NYCEEC,Yeshiva Toras Emes,1904 Ave N,K,11230,718-375-0900
KAPR,1008464,163862,NYCEEC,Talmud Torah Crown Heights Yeshivah,6363 Ave U,K,11234,718-444-5800
KARQ,1005130,175370,NYCEEC,Parkway School,5566 Kings Hwy,K,11203,718-346-0369
KARS,985283,172619,NYCEEC,Action Nursery,1019 46th St,K,11219,718-854-7777
KASC,1005435,187319,NYCEEC,Brevoort Children's Center,250 Ralph Ave,K,11233,718-778-1069
KASG,1001328,184557,NYCEEC,Edwards L Cleaveland,1185 Park Pl,K,11213,718-623-9803
KASI,994095,172679,NYCEEC,Cortelyou ECC,386 Marlborough Rd,K,11226,718-282-6077
KASJ,989371,191718,NYCEEC,BCS Duffield Children's Center,101 Fleet Pl,K,11201,718-522-5296
KASR,998938,170343,NYCEEC,Glennwood Avenue Head Start,3017 Glenwood Rd,K,11210,718-859-7720
KASZ,996742,166085,NYCEEC,East Midwood Hebrew Day School,1256 East 21st St,K,11210,718-253-1555
KATG,1000019,199974,NYCEEC,Ahrc Francis Of Paola ELC,201 Conselyea St,K,11211,718-782-1462
KATR,992605,150820,NYCEEC,Warbasse Nursery School,2785 West 5th St,K,11224,718-266-5585
KATZ,994173,151073,NYCEEC,Neptune Avenue Head Start,293 Neptune Ave,K,11235,718-332-8524
KAUK,995048,162397,NYCEEC,NYL / WOC Midwood,1520 East 13th St,K,11230,718-382-1060
KAVQ,1014511,169772,NYCEEC,Hebrew Educational Society,9502 Seaview Ave,K,11236,718-241-3000
KAWC,989158,190182,NYCEEC,"Hanover Place CCC, LLC",15 Hanover Pl,K,11201,347-916-0333
KAWQ,998505,183018,NYCEEC,Macademy,1313 Un St,K,11225,718-221-5566
KAWX,1010003,180674,NYCEEC,PAL World Of Creative Experiences Head Start,280 Livonia Ave,K,11212,718-345-5219
KAXC,1005748,186420,NYCEEC,Bishop Sexton,933 Herkimer St,K,11233,718-778-0292
KAXU,1013032,181436,NYCEEC,University Settlement Children's Corner,565 Livonia Ave,K,11207,212-453-4595
KAXW,1003224,182225,NYCEEC,"Highlights Academy, Inc.",1688 President St,K,11213,718-953-5555
KAYF,983647,147886,NYCEEC,PAL La Puerta Abierta,3001 West 37 St,K,11224,718-373-1100
KAYL,995872,197144,NYCEEC,"Puerto Rican Family Institute, Inc.",185 Marcy Ave,K,11211,718-388-6060
KAYS,996233,178733,NYCEEC,Hawthorne Corners DCC,1950 Bedford Ave,K,11225,718-282-7200
KAYU,997056,181950,NYCEEC,"Bambi DCC, Inc.",300 Rogers Ave,K,11225,718-771-1603
KAZC,988008,166331,NYCEEC,Talmud Torah Ohr Moshe,1774 58th St,K,11204,718-234-6100
KAZM,990715,184947,NYCEEC,St. Francis Xavier,763 President St,K,11215,718-857-2559
KAZQ,1003046,188799,NYCEEC,Bedford Stuyvesant ECDC,281 Stuyvesant Ave,K,11221,718-455-5565
KAZT,1005666,193610,NYCEEC,Bushwick United HDFC 1,136 Stanhope St,K,11221,718-443-0134
KAZZ,1002163,189190,NYCEEC,Cornerstone DCC,289 Lewis Ave,K,11221,718-574-8300
KBAE,987750,154384,NYCEEC,Block Institute,133 27th Ave,K,11214,347-649-3601
KBAI,985107,169091,NYCEEC,Guild For Exceptional Children,1273 57 St,K,11219,718-435-2554
KBAW,994613,163502,NYCEEC,Bet Yaakov Ohr Sarah,1123 Ave N,K,11230,718-627-8758
KBAY,994746,159360,NYCEEC,Bet Yaakov Ateret Torah,2166 Coney Is Ave,K,11223,718-375-7100
KBAZ,1010873,182961,NYCEEC,Nat Azarow Children's Center,232 Powell St,K,11212,718-346-0924
KBBB,976957,167477,NYCEEC,Bambi Day Care IV,405 81st St,K,11209,718-332-8656
KBBE,987018,148546,NYCEEC,PAL Carey Gardens,2964 West 23rd St,K,11224,718-372-4044
KBBL,1017187,188019,NYCEEC,St. Peter's Preschool,109 Highland Pl,K,11208,718-647-1014
KBBO,1011999,173864,NYCEEC,Khyle Brenaj Kiddie Daycare Inc.,9718 Flatlands Ave,K,11236,718-896-8108
KBBY,1003622,173410,NYCEEC,Be Above #27,779 East 49 St,K,11203,347-997-2488
KBCV,997107,190731,NYCEEC,"Tabernacle Church Of God DCC, Inc.",34 Kosciuszko St,K,11205,718-638-3209
KBCZ,1020888,181987,NYCEEC,Pine Street Day Care,872 - 874 Cres St,K,11208,718-235-1150
KBDA,1018065,184170,NYCEEC,Urban Strategies 1,1091 Sutter Ave,K,11208,718-235-6151
KBDC,1019317,188487,NYCEEC,Cypress Hills CCC,108 Pne St,K,11208,718-647-5005
KBDJ,997245,170999,NYCEEC,Cortelyou Academy,2739 Bedford Ave,K,11210,718-421-9581
KBDN,1010240,173314,NYCEEC,"Raven's ECC, Inc.",1102 East 92nd St,K,11236,718-927-2316
KBDT,998081,179139,NYCEEC,Mary Bobb Learning Academy,1187 Nostrand Ave,K,11225,718-604-4400
KBDX,984552,173372,NYCEEC,BAbove Worldwide Institute - Tomer Devorah,4500 9 Ave,K,11220,347-402-5734
KBEB,1006606,193748,NYCEEC,New Life CDC 4,1307 Greene Ave,K,11237,718-366-1668
KBEP,983895,174718,NYCEEC,Brooklyn Chinese American Assoc. Day Care,713 43rd St,K,11232,718-851-0869
KBEQ,1021619,178530,NYCEEC,Brooklyn Developmental Center,888 Fountain Ave,K,11208,718-235-8800
KBES,1004804,193693,NYCEEC,Bushwick United HDFC 6,200 Central Ave,K,11221,718-453-5500
KBEZ,996138,182583,NYCEEC,Friends Of Crown Heights Educational Center #11,995 Carroll St,K,11225,929-234-5010
KBFC,1008674,186600,NYCEEC,Shirley Chisholm CCC Site 4 Somers,33 Somers St,K,11233,718-498-6200
KBFD,995491,174312,NYCEEC,St. Marks,2017 Beverley Rd,K,11226,718-287-7300
KBFN,988821,184821,NYCEEC,Strong Place For Hope DCC - 2nd Street,333 2nd St,K,11215,718-499-0747
KBFQ,980895,174833,NYCEEC,St. Andrews CDC,4917 Fourth Ave,K,11220,718-492-9678
KBGB,1006823,189849,NYCEEC,Traditional Educational Center,1469b Broadway,K,11221,718-443-2577
KBGC,988159,171649,NYCEEC,Yeled V'Yalda,1377 42nd St,K,11219,718-514-8930
KBGI,988054,173072,NYCEEC,Yeled V'Yalda 1257,1257 38th St,K,11218,718-514-8712
KBGJ,991727,170485,NYCEEC,Mevakshei Hashem,550 Ocean Pkwy,K,11226,718-435-8900
KBGP,1003385,171412,NYCEEC,Great Oaks Academy,4718 Farragut Rd,K,11203,718-915-3015
KBGS,1021389,184414,NYCEEC,Urban Strategies 5 - Georgia L Mcmurray ECDC,675 Lincoln Ave,K,11208,718-235-1215
KBGU,1008316,192998,NYCEEC,New Life CDC 1,295 Woodbine St,K,11237,718-821-3432
KBGY,1008189,193091,NYCEEC,"Kreative Kare DCC, Inc.",292 Palmetto St,K,11237,718-386-3242
KBIE,1001497,180679,NYCEEC,All My Children Day Care Site 16,739 East New York Ave,K,11203,718-493-1100
KBIS,989993,172288,NYCEEC,"Yeled V'Yalda ECC, Inc.",600 Mcdonald Ave,K,11218,718-514-8980
KBIZ,986780,170117,NYCEEC,Shalva UPK I,1363 50 St,K,11219,718-438-0060
KBJE,1001038,181711,NYCEEC,Be Above 37,570 Crown St,K,11213,718-774-4131
KBJF,1000976,201113,NYCEEC,Cooper Park CCC,292 Frost St,K,11222,718-389-5959
KBJH,998876,180599,NYCEEC,All My Children Day Care 10,420 Lefferts Ave,K,11225,718-576-6812
KBJI,998055,193639,NYCEEC,Marcy Children's Center,494 Marcy Ave,K,11206,718-855-7252
KBJJ,1001191,190131,NYCEEC,LSSMNY : Early Life Children's Center 8,265 Marcus Garvey Blvd,K,11221,347-689-8303
KBJL,1007616,180367,NYCEEC,Saratoga - Morris Koppelman Center,774 Saratoga Ave,K,11212,718-345-6666
KBJO,986692,170199,NYCEEC,"Yeled V'Yalda ECC, Inc.",1349 / 53 50th St,K,11219,718-854-6922
KBJP,1013469,181965,NYCEEC,PAL Arnold And Marie Schwartz Early Learn Center,452 Pennsylvania Ave,K,11207,718-342-4724
KBJQ,1017772,181780,NYCEEC,Friends Of Crown Heights Educational Center,921 Hegeman Ave,K,11208,929-234-2866
KBJR,1013858,180317,NYCEEC,Friends Of Crown Heights 19,370 New Lots Ave,K,11207,929-234-2838
KBJS,996876,183970,NYCEEC,Friends Of Crown Heights 10,1491 Bedford Ave,K,11216,929-234-2821
KBJU,1007906,187363,NYCEEC,Shirley Chisholm DCC Site 5 Advent Center,265 Sumpter St,K,11233,718-452-1200
KBJW,1009505,184191,NYCEEC,YWCA - NYC Brownsville ELC,1592 East New York Ave,K,11212,718-342-2905
KBJZ,1007192,188674,NYCEEC,Saratoga II - Shirley Chisholm Center,69 Saratoga Ave,K,11233,718-443-4100
KBKB,988947,189201,NYCEEC,Strong Place For Hope DCC - Atlantic,460 Atlantic Ave,K,11217,718-522-1351
KBKC,1018892,183179,NYCEEC,Friends Of Crown Heights 16,668 Logan St,K,11208,929-234-2870
KBKE,1006405,191310,NYCEEC,LSSMNY : Early Life Children's Center 9,1175 Gates Ave,K,11221,718-443-4500
KBKF,994313,196216,NYCEEC,Williamsburg CCC,110 Taylor St,K,11249,347-943-7682
KBKH,1000023,194589,NYCEEC,Bushwick United HDFC 9,741 Flushing Ave,K,11206,347-497-3676
KBKJ,983837,185141,NYCEEC,Strong Place For Hope DCC - Clinton St.,595 Clinton St,K,11231,718-624-2993
KBKK,1003982,184593,NYCEEC,Friends Of Crown Heights 29,1435 Prospect Pl,K,11213,718-778-1498
KBKP,997157,181800,NYCEEC,All My Children # 11,317 Rogers Ave,K,11225,718-576-6812
KBKQ,996498,178302,NYCEEC,Parkside ECDC,525 Parkside Ave,K,11226,718-722-6236
KBKU,1017610,185022,NYCEEC,Friends Of Crown Heights 15,2505 Pitkin Ave,K,11208,718-638-8686
KBKV,994869,194894,NYCEEC,United Academy - Wythe Avenue,722 Wythe Ave,K,11249,718-935-9848
KBKW,986662,172538,NYCEEC,Baais Yaakov Faigeh Of Schonberger Of Adas Yereim,1169 43rd St,K,11219,718-435-5111
KBKY,997762,178269,NYCEEC,"Infant And Child Learning Center, The",670 Parkside Ave,K,11226,718-675-1249
KBLA,998366,175635,NYCEEC,"The Little Darlings DCC, Inc.",1531 Nostrand Ave,K,11226,718-469-6207
KBLB,1018073,186044,NYCEEC,Friends Of Crown Heights 18,851 Liberty Ave,K,11208,929-234-2955
KBLF,998021,187871,NYCEEC,"Bambi DCC, Inc.",138 Hancock St,K,11216,718-771-1603
KBLI,994766,187859,NYCEEC,Young Minds DCC,972 Fulton St,K,11238,718-622-8622
KBLJ,1004240,180994,NYCEEC,"Community Parents, Inc.",60 East 93rd St,K,11212,718-221-2531
KBLK,995035,189232,NYCEEC,Bedford Stuyvesant ECDC 5Q,5 Quincy St,K,11238,718-453-0788
KBLL,989926,190175,NYCEEC,Northside Center For Child Development,44 - 60 Rockwell Pl,K,11201,347-505-5517
KBLM,997939,190854,NYCEEC,"Salvation Army, Bedford",110 Kosciusko St,K,11216,718-552-2690
KBLP,1006862,195405,NYCEEC,Grand Street Settlement Dual #3,319 Stanhope St,K,11237,718-381-8900
KBLS,1000711,193640,NYCEEC,Sumner Children's Center,860 Park Ave,K,11206,718-455-3471
KBLT,999230,193457,NYCEEC,Tompkins Children's Center,730 Park Ave,K,11206,718-782-9140
KBLU,998837,197692,NYCEEC,Stagg Street Center For Children,77 Stagg St,K,11206,718-388-1395
KBLW,998991,198004,NYCEEC,Bushwick United HDFC 4,178 Leonard St,K,11206,347-269-8152
KBLY,999969,197833,NYCEEC,Graham CCC,222 Graham Ave,K,11206,718-387-9482
KBMA,996008,192887,NYCEEC,Tiferes Bnos,80 Skillman St,K,11205,718-599-2900
KBMB,1010815,190492,NYCEEC,Audrey Johnson DCC,272 Moffat St,K,11207,718-574-0130
KBMC,999340,199081,NYCEEC,Small World,211 Ainslie St,K,11211,718-963-0330
KBME,995956,198655,NYCEEC,Nuestros Ninos DCC II,243 South 2nd St,K,11211,718-218-8275
KBMG,997350,199773,NYCEEC,Williamsburg Northside Pre - School,299 North 7th St,K,11211,718-599-7300
KBMM,982644,171900,NYCEEC,Brooklyn Chinese - American Assoc.,812 54th St,K,11220,718-438-0008
KBMN,989580,184175,NYCEEC,Brooklyn Free Space,298 Sixth Ave,K,11215,718-965-3135
KBMO,988487,180754,NYCEEC,Chick Peas Child Care,451 7th Ave,K,11215,347-878-8732
KBMP,981212,176356,NYCEEC,Bay Ridge CCC,314 - 44th St,K,11220,718-768-5030
KBMQ,990971,189050,NYCEEC,"Hanson Place CDC, Inc.",55 Hanson Pl,K,11217,718-237-4303
KBMU,986915,182329,NYCEEC,A.C.E. ECC,199 14th Street2nd Floor,K,11215,718-439-0450
KBMX,986644,190766,NYCEEC,A Fantis Parochial School,195 State St,K,11201,718-624-0501
KBMZ,986956,188923,NYCEEC,Warren Street Center,343 Warren St,K,11201,718-237-9578
KBNA,981214,175525,NYCEEC,Sunset Park Children's School,4616 4th Ave,K,11220,718-439-3323
KBNB,988465,179376,NYCEEC,"Therapy And Learning Center, Inc.",1723 8th Ave,K,11215,718-290-2750
KBNC,985463,172802,NYCEEC,Nesivos Bais Yaakov,1021 45th St,K,11219,718-972-0804
KBNG,1001199,189969,NYCEEC,Bedford - Stuyvesant ECDC,275 Marcus Garvey Blvd,K,11221,718-453-0500
KBNI,1002766,189860,NYCEEC,Bedford - Stuyvesant ECDC,214 Stuyvesant Ave,K,11221,718-453-0605
KBNJ,998867,188269,NYCEEC,Bedford Stuyvesant ECDC 260,260 Jefferson Ave,K,11216,718-453-0722
KBNK,997668,189692,NYCEEC,Bedford Stuyvesant ECDC 262,262 Lexington Ave,K,11216,718-453-0760
KBNL,1005651,189151,NYCEEC,Bedford Stuyvesant ECDC 265,813 Hancock St,K,11233,718-455-5565
KBNN,1001863,191894,NYCEEC,Bedford - Stuyvesant ECDC,971 Dekalb Ave,K,11221,718-453-0681
KBNO,995371,190628,NYCEEC,Billy Martin CDC,333 Classon Ave,K,11205,718-857-5630
KBNP,1003712,187088,NYCEEC,Community Parents Head Start,90 Chauncey St,K,11233,718-771-4002
KBNR,1001889,191976,NYCEEC,Mary McLeod Bethune CDC,360 Pulaski St,K,11206,718-455-5137
KBNT,1006160,185664,NYCEEC,Shirley Chisholm DCC Site 1,2023 Pacific St,K,11233,718-756-1721
KBNU,988971,178479,NYCEEC,Stanley S Lamm Institute Preschool,500 19th St,K,11215,718-237-8833
KBNV,999342,184615,NYCEEC,Friends Of Crown Heights #16,963 Park Pl,K,11213,718-778-8558
KBOA,987728,192587,NYCEEC,Our Children's Center,300 Jay St Room G309,K,11201,718-260-5192
KBOB,1001112,184847,NYCEEC,196 Albany Avenue DCC,196 Albany Ave,K,11213,718-773-0071
KBOF,996962,185166,NYCEEC,Friends Of Crown Heights 2,671 Prospect Pl,K,11216,718-638-8686
KBOI,999222,176394,NYCEEC,Joan Watkins Corp. D / B / A Pre - School Minds DCC,3316 - 18 Church Ave,K,11203,718-284-9392
KBOL,994507,177625,NYCEEC,"Phebeana Preschool, Inc.",160 Parkside Ave,K,11226,718-284-8147
KBON,999615,177570,NYCEEC,The Children's Center @ SUNY Brooklyn,440 Lenox Rd,K,11203,718-221-6160
KBOP,1005645,180421,NYCEEC,Traditional DCC,1112 Winthrop St,K,11212,917-306-2070
KBOQ,1004501,175992,NYCEEC,Yeled V'Yalda 407,407 East 53rd St,K,11203,718-514-8712
KBOS,1009103,188988,NYCEEC,John Coker DCC,1375 Bushwick Ave,K,11207,718-452-1414
KBOW,1000942,176919,NYCEEC,Friends Of Crown Heights,141 East 40th St,K,11203,718-284-2184
KBOZ,1018537,183743,NYCEEC,Blake & Milford DCC,334 Milford St,K,11208,718-277-2003
KBPA,1016595,180222,NYCEEC,Boulevard Nursery School,2150 Linden Blvd,K,11207,718-649-2295
KBPB,1013270,175635,NYCEEC,Breukelen ECDC,717 East 105th St,K,11236,718-649-1463
KBPC,1021815,182930,NYCEEC,Marie Durdin CCC,2700 Linden Blvd,K,11208,718-647-4730
KBPD,1019855,183139,NYCEEC,Sylvia Klein CCC,720 Euclid Ave,K,11208,718-647-2274
KBPG,1011979,182425,NYCEEC,Help I,515 Blake Ave,K,11207,718-498-4002
KBPI,1013260,175749,NYCEEC,Breukelen Head Start,715 East 105th St,K,11236,718-649-2960
KBPJ,1017280,175475,NYCEEC,Recreation Rooms And Settlement Starrett Early Learning,125 Schrooeders Ave,K,11239,718-642-8724
KBPK,1015693,181520,NYCEEC,United Community DCC,613 New Lots Ave,K,11207,718-385-1201
KBPL,1017012,175603,NYCEEC,Recreation Rooms And Settlement Starrett Early Learning,1325 Pennsylvania Ave,K,11239,718-642-8724
KBPN,987427,170925,NYCEEC,Beth Jacob DCC,1363 46th St,K,11219,718-435-5755
KBPO,977227,161359,NYCEEC,"Brooklyn Child Care, Inc.",800 Poly Pl Building 2,K,11209,718-630-2831
KBPP,977969,174172,NYCEEC,Georgia L Mcmurray Bat Kids Center,140 58th St,K,11220,718-567-0818
KBPQ,987214,163824,NYCEEC,Generation21 Day Care,6709 19th Ave,K,11204,718-621-9321
KBPR,982328,171307,NYCEEC,"Long Xing DCC, Inc.",825 57th St Fl 3,K,11220,718-853-8989
KBPS,988846,168799,NYCEEC,Mother Love,"1681 49 St, #1f",K,11204,718-853-1408
KBPT,975747,163419,NYCEEC,NYL - William O'Connor,420 95th St,K,11209,718-680-9751
KBPU,976961,167660,NYCEEC,Our Saviour's Lutheran Preschool,414 80th St,K,11209,718-745-0020
KBPV,982762,166091,NYCEEC,Ring Around The Rosie,7104 13th Ave,K,11228,718-492-7464
KBPY,977839,165548,NYCEEC,Smart Start ECC,8411 Ft Hamilton Pkwy,K,11209,718-921-1868
KBPZ,982127,170308,NYCEEC,"Star America, Inc.",880 60th St,K,11220,718-431-2545
KBQA,975123,166067,NYCEEC,"Tiny Tots Playhouse, LLC, The",243 88 St,K,11209,718-745-4509
KBQB,981579,171103,NYCEEC,"Long Xing DCC, Inc.","762 59th St, 2 / F & 3 / F",K,11220,718-853-8989
KBQE,993473,150264,NYCEEC,Buratino International Day Care,2962 Brighton 1st St,K,11235,718-368-2113
KBQF,995871,150512,NYCEEC,Cinderella Day Care,130 Brighton 11th St,K,11235,718-743-1841
KBQG,994935,149503,NYCEEC,M.S. Sunshine DCC,3096 Brighton 6th St,K,11235,718-648-8786
KBQH,991725,157710,NYCEEC,Magen David Yeshivah,2170 Mcdonald Ave,K,11223,718-676-0215
KBQI,995420,164264,NYCEEC,"Red Hat DCC, Inc.",1317 East 15th St,K,11230,718-336-1480
KBQK,993771,158685,NYCEEC,Sephardic Community Center,1901 Ocean Pkwy,K,11223,718-627-4300
KBQL,995417,148981,NYCEEC,Shorefront YM - YWHA,3300 Coney Is Ave,K,11235,718-646-1444
KBQN,989171,154925,NYCEEC,Friends Of Crown Heights 6,49 Ave W,K,11223,718-372-8189
KBQP,986901,154500,NYCEEC,Shore Parkway Head Start,8885 26th Ave,K,11214,718-265-2359
KBQQ,1000882,157918,NYCEEC,Bambi Day Care III,2114 Brown St,K,11229,718-368-1817
KBQU,996250,160871,NYCEEC,Keshet Learning Center,1612 Quentin Rd,K,11229,718-376-6958
KBQV,998090,155851,NYCEEC,Fantasia DCC,2743 Ocean Ave,K,11229,718-646-6738
KBQW,1002127,177457,NYCEEC,Get Set Kindergarten School - Linden,623 Linden Blvd,K,11203,718-856-4646
KBQX,995253,173640,NYCEEC,Get Set Kindergarten School Site - Cortelyou,1919 Cortelyou Rd,K,11226,718-856-4646
KBQY,996625,175651,NYCEEC,Get Set Kindergarten School Site - Snyder,2301 Snyder Ave,K,11226,718-856-4646
KBRA,1004161,193357,NYCEEC,Bushwick United HDFC 7,600 Hart St,K,11221,718-443-0134
KBRB,1002772,161157,NYCEEC,Infinity UPK,1972 East 34th St,K,11234,718-336-1981
KBRD,1000562,157414,NYCEEC,"Kingsbay YM - YWHA, Inc.",3495 Nostrand Ave,K,11229,718-648-7703
KBRH,993554,170338,NYCEEC,Nayema Universal Child Center,1107 Newkirk Ave,K,11230,718-462-3688
KBRI,1001586,165017,NYCEEC,Rainbow DCC,3846 Flatlands Ave,K,11234,718-377-2918
KBRL,1000484,164353,NYCEEC,"Tiny Tots Express, Inc.",3321 Ave N,K,11234,718-338-9561
KBRP,998493,172268,NYCEEC,Friends Of Crown Heights Educational Center #5,1886 Nostrand Ave,K,11226,718-284-9194
KBRT,1010265,180170,NYCEEC,Salvation Army - Brownsville DCC,280 Riverdale Ave 1,K,11212,718-345-2488
KBRZ,1006609,192524,NYCEEC,Bushwick United HDFC 3,331 Central Ave,K,11221,718-453-9040
KBSA,1004288,195057,NYCEEC,Bushwick United HDFC 2,77 Wilson Ave,K,11237,718-821-2345
KBSB,1006406,190170,NYCEEC,"HCHC, Inc.",1419 Broadway,K,11221,718-443-3917
KBSC,1008501,194797,NYCEEC,New Life CDC 3,408 Grv St,K,11237,718-417-4214
KBSD,1007190,190417,NYCEEC,"Salvation Army, Bushwick",1151 Bushwick Ave,K,11221,718-455-0100
KBSI,997721,184380,NYCEEC,Friends Of Crown Heights 9,813 Sterling Pl,K,11216,718-773-7733
KBSL,998137,170247,NYCEEC,Charles R Drew ELC 5,2804 Glenwood Rd,K,11210,718-740-2400
KBTA,1004502,185396,NYCEEC,Bedford Stuyvesant ECDC 133,133 Kings First Walk,K,11233,718-453-0828
KBTB,1016019,181750,NYCEEC,Brightside Academy - Barbey,683 Barbey St,K,11207,718-257-2222
KBTC,1009679,182868,NYCEEC,Brightside Academy - Belmont,50 Belmont Ave,K,11212,718-346-1064
KBTE,1007026,189699,NYCEEC,Brightside Academy - Broadway,1491 Broadway,K,11221,718-455-1612
KBTH,1000255,191478,NYCEEC,Brightside Academy - Dekalb Ave,844 Dekalb Ave,K,11221,718-574-3710
KBTL,989272,171548,NYCEEC,Gan Yisroel,3909 15th Ave,K,11218,718-853-9853
KBUA,1004969,186076,NYCEEC,BCS Atlantic Avenue ELC,1825 Atlantic Ave,K,11233,347-296-4980
KBUF,999521,163428,NYCEEC,Butterfly,2810 Nostrand Ave,K,11229,718-677-9343
KBUJ,984437,174480,NYCEEC,Brooklyn Chinese American Assoc. - Bay Ridge DCC,4202 8th Ave,K,11232,718-438-0008
KBUL,988328,163974,NYCEEC,Brooklyn Chinese American Assoc.,6409 20 Ave,K,11204,718-331-8809
KBUM,998301,171133,NYCEEC,Bumble Bees R Us 3,2813 Farragut Rd,K,11210,718-434-2337
KBUV,990467,185964,NYCEEC,Helen Owen Carey CDC,71 Lincoln Pl,K,11217,718-638-4100
KBUW,1014559,185982,NYCEEC,St. Malachy ECDC,220 Hendrix St,K,11207,718-647-0966
KBVB,1008455,194743,NYCEEC,New Life CDC 2,406 Grv St,K,11237,718-366-1668
KBVC,997413,197193,NYCEEC,Nuestros Ninos DCC I,384 South 4th St,K,11211,718-218-8275
KBVD,994991,198771,NYCEEC,Nuestros Ninos DCC III,161 South 3rd St,K,11211,718-388-5000
KBVE,1019142,178427,NYCEEC,Urban Strategies 3,1152 Elton St,K,11239,718-348-9349
KBVG,983142,172852,NYCEEC,Brooklyn Chinese - American Assoc.,5002 8 Ave,K,11220,718-438-0008
KBVJ,996646,191717,NYCEEC,Bnos Square Of Williamsburg,382 Willoughby Ave,K,11205,718-797-9844
KBVL,997614,182305,NYCEEC,Ella Baker Charles Romain CDC Of Medgar Evers,1150 Carroll St,K,11225,718-270-6018
KBVO,994805,159373,NYCEEC,"Yeled V'Yalda ECC, Inc.",2166 Coney Is Ave,K,11223,718-732-7770
KBVR,983514,174356,NYCEEC,"United Methodist City Society, The",4419 7th Ave,K,11220,718-435-6540
KBVT,996553,196720,NYCEEC,Yeshiva Headstart Keap Street,274 Keap St,K,11211,718-486-6500
KBVV,997316,169422,NYCEEC,"Brooklyn College Child Care Services, Inc.",2900 Bedford Ave,K,11210,718-951-5431
KBVX,999237,183401,NYCEEC,Yeled V'Yalda 667,667 Eastern Pkwy,K,11213,718-514-8712
KBVZ,999090,187012,NYCEEC,Little Sun People,1360 Fulton St,K,11216,718-789-7330
KBWC,980400,171927,NYCEEC,Sunset Park ECC,5902 6 Ave,K,11220,718-722-6236
KBWD,1002717,192915,NYCEEC,Child Prodigy Learning Inc.,1001 Broadway,K,11221,718-574-7558
KBWE,1005522,182307,NYCEEC,Inner Force Tots,1181 East New York Ave,K,11212,718-221-1246
KBWG,984471,149969,NYCEEC,Life - Coney Island,2757 West 33rd St,K,11224,718-942-4494
KBWH,995245,197276,NYCEEC,Jonathan Williams,321 Roebling St,K,11211,718-387-5011
KBWQ,986177,148311,NYCEEC,Family Head Start Coney Island,2960 West 27th St,K,11224,718-265-7760
KBWT,997570,192432,NYCEEC,Our Children The Leaders Of Tomorrow 1,756 Myrtle Ave,K,11206,718-643-8201
KBWV,1005321,183387,NYCEEC,St. Johns Place Family Center Day Care Program,1620 Saint Johns Pl,K,11233,718-771-7720
KBWW,993758,196868,NYCEEC,Williamsburg Y Head Start,64 Division Ave,K,11249,718-387-0229
KBXK,997420,177902,NYCEEC,Brightside Academy - Clarkson,210 Clarkson Ave,K,11226,718-941-1802
KBXL,1006362,190197,NYCEEC,A.C.E. Integration Head Start,1419 - 23 Broadway,K,11221,718-443-3917
KBXQ,998563,169552,NYCEEC,"Gan, Inc. - Gan Jewish Day Care",2901 Campus Rd,K,11210,718-338-7575
KBXS,997465,176822,NYCEEC,"Roger Day Care, Inc.",775 Rogers Ave,K,11226,718-703-4312
KBXT,997026,172434,NYCEEC,"New Generation Learning Center, Inc.",2597 Bedford Ave,K,11226,718-941-0404
KBXU,992520,164995,NYCEEC,Yeled V?yalda,1200 Ocean Pkwy,K,11230,718-514-8928
KBXV,1006863,171572,NYCEEC,Yeled V'Yalda 6012,6002 Farragut Rd,K,11236,718-209-1122
KBYC,983635,147991,NYCEEC,YWCA - NYC Roberta Bright ELC,3001 W 37th St,K,11224,718-373-1100
KBYF,987115,160171,NYCEEC,Edith And Karl Marks JCH Of Bensonhurst,7802 Bay Pkwy,K,11214,718-943-6333
KBYG,981319,171601,NYCEEC,Happy Dragon Children And Family Center,5805 7th Ave,K,11220,347-610-1802
KBYJ,987482,184948,NYCEEC,"Al Madinah School, Inc.",383 3rd Ave,K,11215,718-222-4986
KBYM,1005874,181647,NYCEEC,Friends Of Crown Heights 26,20 Sutter Ave,K,11212,718-467-4270
KBYN,982352,184903,NYCEEC,Bumble Bee R Us - Lorraine Street,76 Lorraine St,K,11231,855-532-9227
KBYQ,980791,172187,NYCEEC,Bumble Bees R Us 8,5721 6th Ave,K,11220,718-676-0080
KBZG,982748,166075,NYCEEC,Ring Around The Rosie,7106 13th Ave,K,11228,718-492-7464
KBZU,1000909,189948,NYCEEC,Bedford Stuyvesant ECDC 510,510 Quincy St,K,11221,718-455-4806
KBZX,999445,165995,NYCEEC,Yeshiva Torah Vodaath Preschool,1192 East 31st St,K,11210,718-941-8000
KCAD,996861,174261,NYCEEC,Higher Level,2401 Beverley Rd,K,11226,718-856-4064
KCAK,984073,163035,NYCEEC,Kindstart Preschool,7702 New Utrecht Ave,K,11214,917-834-4776
KCAP,999360,179703,NYCEEC,"Little Stars Daycare Center, Inc.",588 Brooklyn Ave,K,11203,718-673-3092
KCBR,989006,157299,NYCEEC,Yde,49 Ave T,K,11223,718-232-0100
KCDI,987479,170870,NYCEEC,Beth Jacob Of Borough Park,1371 46 St,K,11219,718-436-7300
KCDM,997337,152095,NYCEEC,Butterfly DCC,2770 East 16th St,K,11235,718-646-6272
KCEB,983756,172508,NYCEEC,Brooklyn Chinese - American Assoc.,871 50th St,K,11220,718-438-0008
KCEC,1008575,191854,NYCEEC,Kreative Kare DCC,455 Wilson Ave ( Ground Floor ),K,11221,718-443-1333
KCED,985130,148137,NYCEEC,Sunshine Center Of Coney Island,2929 W31st St,K,11224,718-996-7200
KCEG,987478,194940,NYCEEC,Imagine Dumbo - Adams,85 Adams St,K,11201,718-522-2263
KCEH,986272,192646,NYCEEC,Imagine Brooklyn Heights,50 Monroe Pl,K,11201,718-624-7520
KCEI,1002078,158034,NYCEEC,Bambi Day Care II,2121 Bragg St,K,11229,718-648-3332
KCFA,1010105,179731,NYCEEC,SCO Family Of Services,225 Newport St,K,11212,929-234-6870
KCFR,982331,184909,NYCEEC,Bubble Bee Day Care,76 Lorraine St,K,11231,718-676-0080
KCFV,1004246,176982,NYCEEC,Magic Kingdom LLC,5215 Church Ave,K,11203,347-793-0180
KCGN,1007553,180354,NYCEEC,SCO Family Of Services,774 Saratoga Ave,K,11212,718-345-6666
KCGO,1002181,150120,NYCEEC,CDC Of Kingsborough,1915 Oriental Blvd,K,11235,718-368-5868
KCGP,1005765,173846,NYCEEC,Birch Family Services Nazareth ECC,475 East 57th St,K,11203,212-616-1851
KCGR,984537,174612,NYCEEC,Brooklyn Chinese American Assoc.,4116 8th Ave,K,11232,718-438-0008
KCGT,987606,160196,NYCEEC,Gold Material Montessori School,105 Kings Hwy,K,11214,718-801-2155
KCHJ,1000435,184294,NYCEEC,"Arista Prep, Inc.",221 Kingston Ave,K,11213,718-756-5550
KCHM,989100,187600,NYCEEC,Alonzo A Daughtry Memorial DCC Inc.,565 Baltic St,K,11217,718-596-1993
KCHN,998107,172467,NYCEEC,Friends Of Crown Heights,2805 Newkirk Ave,K,11226,917-966-4400
KCHP,1002387,185783,NYCEEC,Weeksville Gardens,1640 Pacific St,K,11213,718-623-9803
KCHR,1002981,176464,NYCEEC,"Apple Tree Day Care, Inc.",440 East 48th St,K,11203,718-287-7488
KCHT,1013935,185723,NYCEEC,"Baybee Lounge Daycare, Inc.",2745 Atlantic Ave,K,11207,347-955-4783
KCHU,1006121,153905,NYCEEC,Infinity UPK Of Gerritsen Avenue,2934 - 2936 Gerritsen Ave,K,11229,718-336-1981
KCHV,981943,173649,NYCEEC,"New York Creative Childcare, Inc.",5015 6th Ave,K,11220,718-686-0388
KCHX,983726,149443,NYCEEC,Dezzenterprise LLC,3524 Neptune Ave,K,11224,917-207-2438
KCHZ,1001996,168021,NYCEEC,Little Hands Creative Minds,4111 Ave J,K,11210,718-676-2947
KCIA,1003783,183072,NYCEEC,Effie Bs ECDC Corp.,1171 Eastern Pkwy,K,11213,718-735-5500
KCIC,1010231,170493,NYCEEC,"Little Einstiens Of Canarsie, LLC",8413 Ave K,K,11236,718-251-5000
KCIE,987664,170821,NYCEEC,Bnos Chaya,4511 14th Ave,K,11219,718-851-1212
KCII,996088,199246,NYCEEC,Kings Bay Y At North Williamsburg,14 Hope St,K,11211,718-407-6388
KCIL,1009275,188871,NYCEEC,Urban Strategies Child Care,1405 Bushwick Ave,K,11207,718-235-6151
KCIM,987165,190666,NYCEEC,Brooklyn Explorers Academy,110 Schermerhorn St,K,11201,855-687-6923
KCIO,992888,175116,NYCEEC,Honeydew Drop Playhouse,1113 Church Ave,K,11218,718-941-2177
KCIS,1020571,184512,NYCEEC,Greater Bright Light Learning Center,1320 Sutter Ave,K,11208,917-960-4044
KCIW,983551,172516,NYCEEC,IP Kids Montessori,850 50th St,K,11220,718-633-1178
KCIX,988589,156579,NYCEEC,IP Kids,2631 86 St,K,11223,718-621-7818
KCIY,991295,159431,NYCEEC,"Ronomoza, Inc. / The Learning Experience",412 Kings Hwy,K,11223,718-627-7340
KCIZ,988538,164029,NYCEEC,Al Madinah School Site 2,2015 64 St,K,11204,718-222-4986
KCJC,996273,177158,NYCEEC,Blue Star DCC,2217 Caton Ave,K,11226,718-703-0009
KCJF,1009460,172815,NYCEEC,Clarkson ECC,8801 Glenwood Rd,K,11236,718-649-3488
KCJH,1018271,185021,NYCEEC,"A Castle For Classy Kids Learning Center, Inc.",2570 Pitkin Ave,K,11208,347-750-8154
KCJK,982608,164657,NYCEEC,Lpbc Day Care,7524 14th Ave,K,11228,718-621-5458
KCJM,989394,155744,NYCEEC,"Circle, Triangle, Square Daycare, Inc.",2720 86th St,K,11223,718-373-2234
KCJN,989394,163034,NYCEEC,Stillwell Avenue Prep School,6420 Bay Pkwy,K,11204,718-232-3628
KCJO,993841,175405,NYCEEC,Aim High Childrens Services,83 Marlborough Rd,K,11226,718-509-0630
KCJQ,998809,170336,NYCEEC,Initial Steps CDC,3003 Glenwood Rd,K,11210,718-434-2805
KCJR,1001782,158293,NYCEEC,A To Z DCC,3053 Ave U,K,11229,718-368-1234
KCJS,992643,171495,NYCEEC,Yeshiva Torah Vodaath,452 East 9 St,K,11218,718-941-8000
KCJT,993255,171230,NYCEEC,Kaleidoscope Early Childhood Develepment Center,480 Stratford Rd,K,11218,917-652-4422
KCJX,1012214,182425,NYCEEC,Mohdc - Smart Start,533 Blake Ave,K,11207,718-915-3015
KCJY,984335,166178,NYCEEC,Angel ECDC,1436 67th St 1st Floor,K,11219,718-259-0888
KCJZ,993635,169229,NYCEEC,COPO Prek Program,1083 Coney Is Ave,K,11230,718-434-3266
KCKB,995969,198682,NYCEEC,Bushwick United Development Fund,243 South 2nd St,K,11211,718-443-0685
KCKC,1014150,175485,NYCEEC,Alpha Christian Academy,921 East 107th St,K,11236,718-272-0505
KCKG,1017056,185285,NYCEEC,Rockgate DCC 1,770 - 784 Glenmore Ave,K,11208,718-348-7414
KCKK,1005406,190355,NYCEEC,992 Gates Avenue,992 Gates Ave,K,11221,718-483-9553
KCKU,996885,162953,NYCEEC,Promise World Daycare,1968 Ocean Ave,K,11230,718-743-2828
KCKV,991088,174161,NYCEEC,Little Nest Preschool,511 Church Ave,K,11218,718-484-0033
KCKY,1001486,199184,NYCEEC,Queen Of The Rosary Catholic Academy,11 Catherine St,K,11211,718-388-7992
KCKZ,998531,149742,NYCEEC,"A2z Kidz Center, LLC",190 Exeter St,K,11235,718-758-7729
KCLC,994321,185652,NYCEEC,Sunny Skies Preschool,720 Washington Ave,K,11238,917-337-8003
KCLD,985524,173420,NYCEEC,Sunny Skies Prospect Corp.,969 43rd St,K,11219,718-372-4665
KCLE,1003647,174842,NYCEEC,"Faces Of The Future ELC, LLC",1080 Utica Ave,K,11203,718-618-0061
KCLF,1004738,178086,NYCEEC,"Ira's Daycare And Preschool Inc., III",900 Lenox Rd,K,11203,718-739-6500
KCLH,993304,153043,NYCEEC,Neshama Preschool,723 Ave Z,K,11223,917-804-8284
KCLI,987964,171682,NYCEEC,"Yeshivat Beth Hillel Of Krasna, Inc.",1360 42 St,K,11219,212-929-0839
KCLM,1011694,185198,NYCEEC,Trey Whitfield School,17 Hinsdale St,K,11207,718-342-7722
KCMA,984827,168692,NYCEEC,Seeds Of Unity,5816 13th Ave,K,11219,347-715-6545
KCME,1003343,183392,NYCEEC,Bka Utica,250 Utica Ave,K,11213,718-953-9011
KCMK,985804,181024,NYCEEC,"Brooklyn Treehouse Preeschool, Inc.",639 4th Ave,K,11232,718-499-1234
KCML,1000837,176492,NYCEEC,Bryan's Educational Center,3922 Church Ave,K,11203,718-282-6944
KCMN,991634,177650,NYCEEC,ECDC Kaleidoscope,165 Prospect Park Southwest,K,11218,917-652-4422
KCMT,1000382,190102,NYCEEC,Glorious And Gifted ECC Inc.,421 Throop Ave,K,11221,718-812-0426
KCMV,995544,151828,NYCEEC,ABC Plus,1018 Banner Ave #2,K,11235,347-702-6868
KCMZ,996395,161684,NYCEEC,Free Greek Community Of The Three Hierarchs,1720 Ave P,K,11229,718-339-0280
KCNA,998141,172469,NYCEEC,"The Friends Of Crown Heights Educational Centers, Inc.",2809 Newkirk Ave,K,11226,718-638-8686
KCNF,1003059,161147,NYCEEC,Itty Bitty Adventures Preschool,3416 Ave S,K,11234,718-375-4700
KCNH,981727,161849,NYCEEC,Kiddieprise - 1520 86th Street,1520 86th St,K,11228,718-232-1936
KCNK,993934,150819,NYCEEC,Learn And Explore,330 Neptune Ave,K,11235,718-513-3600
KCNN,989023,165054,NYCEEC,"Little Brilliant Minds, Inc.",5916 20th Ave,K,11204,718-234-6463
KCNP,983845,160708,NYCEEC,Little Sunshine Preschool,1815 85th St,K,11214,347-921-1815
KCNU,1013265,172204,NYCEEC,Learning Zone,1729 Rockaway Pkwy,K,11236,718-820-2442
KCNW,981992,168708,NYCEEC,Okie Dokie Day Care,1002 65th St,K,11219,646-261-0936
KCNY,985816,192521,NYCEEC,NY Preschool Brooklyn Heights,182 Henry St,K,11201,718-228-0800
KCNZ,990177,186542,NYCEEC,NY Preschool Park Slope,125 5th Ave,K,11217,718-228-0800
KCOG,998595,171354,NYCEEC,Stepz 2 Success CCC,1992 Nostrand Ave,K,11210,718-508-2199
KCOH,990640,169321,NYCEEC,Sweet Home DCC,927 Macdonald Ave,K,11218,718-871-4301
KCOI,977131,169485,NYCEEC,Treasure Island,347 74th St,K,11209,718-238-7676
KCOJ,998899,176369,NYCEEC,Candy Kid's DCC,3212 Church Ave,K,11226,718-287-6200
KCOL,983999,162711,NYCEEC,"Happy Scholars, Inc.",7806 New Utrecht Ave,K,11214,917-907-0183
KCOS,992646,174992,NYCEEC,Gated Academy,1019 Church Ave,K,11218,718-693-3699
KCOT,986197,179524,NYCEEC,"Giocare, LLC","279 23rd St, 1st Floor",K,11215,347-827-1372
KCOU,983195,171140,NYCEEC,My Sunshine Kids Inc.,928 55th St,K,11219,718-877-9833
KCOW,988502,159761,NYCEEC,Little Scholars Learning Center,52 Quentin Rd,K,11223,718-373-7046
KCOX,982011,165313,NYCEEC,Little Hands And Feet School,1270 Bay Rdg Pkwy,K,11228,718-680-5437
KCPC,995399,153981,NYCEEC,Wonder Land Pallc,1018 Ave Y,K,11235,718-332-0500
KCPD,987976,162301,NYCEEC,Little Sunshine Child Development,2102 70th St,K,11204,347-673-7239
KCPE,992545,150381,NYCEEC,Little Scholars II,448 Neptune Ave,K,11224,917-774-6505
KCPF,993251,149815,NYCEEC,Sarah Winner Daycare,2997 Ocean Pkwy,K,11235,917-804-8284
KCPK,995549,200403,NYCEEC,Chabad Of North Brooklyn,132 North 5 St,K,11249,718-388-0748
KCPL,998422,157212,NYCEEC,Brooklyn Star Daycare Inc.,2175 East 22 St,K,11229,718-934-0075
KCPM,998572,177733,NYCEEC,"High Definition Day Care, Inc.",337 Lenox Rd,K,11226,718-240-9300
KCPN,990117,176907,NYCEEC,One World Project - Brooklyn,302 Vanderbilt St,K,11218,212-929-0839
KCPO,978945,165235,NYCEEC,Redeemer St. John's Nursery School,939 83 St,K,11228,718-476-8030
KCPR,995143,151756,NYCEEC,Bam Bam's Playhouse,714 Banner Ave,K,11235,347-613-9475
KCPY,994744,151313,NYCEEC,Tiny Bumblebees,2848 Brighton 7 St,K,11235,718-975-3232
KCQB,996871,163066,NYCEEC,Imaginarium Child,1954 Ocean Ave,K,11230,917-689-3300
KCQE,999853,187459,NYCEEC,Stuyvesant Heights Day Care / New Vision One,69 Macdonough St,K,11216,718-783-5383
M001,984943,198898,DOE,P.S. 001 Alfred E Smith,8 Henry St,M,10038,212-267-4133
M002,986640,199073,DOE,P.S. 002 Meyer London,122 Henry St,M,10002,212-964-0350
M003,982537,206190,DOE,P.S. 003 Charrette School,490 Hudson St,M,10014,212-691-1183
M004,1000514,243409,DOE,P.S. 004 Duke Ellington,500 West 160 St,M,10032,212-928-0739
M005,1005727,252054,DOE,P.S. 005 Ellen Lurie,3703 Tenth Ave,M,10034,212-567-8109
M007,1001046,231035,DOE,P.S. 007 Samuel Stern,160 East 120 St,M,10035,212-860-5827
M008,1001794,245009,DOE,P.S. 008 Luis Belliard,465 West 167 St,M,10032,212-928-4364
M009,991527,225333,DOE,P.S. 009 Sarah Anderson,100 West 84 St,M,10024,212-678-2812
M011,984061,210431,DOE,P.S. 011 William T Harris,320 West 21 St,M,10011,212-929-1743
M015,990123,202281,DOE,P.S. 015 Roberto Clemente,333 East 4 St,M,10009,212-228-8730
M019,988634,205140,DOE,P.S. 019 Asher Levy,185 1 Ave,M,10003,212-533-5340
M020,988025,202056,DOE,P.S. 020 Anna Silver,166 Essex St,M,10002,212-254-9577
M028,1000300,242214,DOE,P.S. 028 Wright Brothers,475 West 155 St,M,10032,212-690-3014
M030,1002179,232850,DOE,P.S. 030 Hernandez / Hughes,144 - 176 East 128 St,M,10035,212-876-1825
M033,984209,212170,DOE,P.S. 033 Chelsea Prep,281 9 Ave,M,10001,212-244-6426
M034,991118,203875,DOE,P.S. 034 Franklin D Roosevelt,730 East 12 St,M,10009,212-228-4433
M036,996044,234601,DOE,P.S. 036 Margaret Douglas,123 Morningside Dr,M,10027,212-690-5807
M037,1003514,229670,DOE,River East Elementary,508 East 120 St,M,10035,212-348-2208
M038,999494,226582,DOE,P.S. 38 Roberto Clemente,232 East 103 St,M,10029,212-860-5882
M040,989288,207141,DOE,P.S. 040 Augustus St. - Gaudens,319 East 19 St,M,10003,212-475-5500
M041,984442,207285,DOE,P.S. 041 Greenwich Village,116 West 11 St,M,10011,212-675-2756
M042,986781,200151,DOE,P.S. 042 Benjamin Altman,71 Hester St,M,10002,212-226-8410
M046,1001975,242268,DOE,P.S. 046 Arthur Tappan,2987 Frederick Dgls Blvd,M,10039,212-360-1519
M048,1002580,250136,DOE,P.S. 048 P.O. Michael J Buczek,4360 - 78 Broadway,M,10033,917-521-3800
M051,985591,216656,DOE,P.S. 051 Elias Howe,525 West 44th St,M,10036,212-315-7160
M057,1000443,229798,DOE,James Weldon Johnson,176 East 115 St,M,10029,212-860-5812
M063,988036,203208,DOE,The Star Academy - Ps63,121 East 3 St,M,10009,212-674-3180
M064,989364,203121,DOE,P.S. 064 Robert Simon,600 East 6 St,M,10009,212-673-6510
M072,998767,227582,DOE,The Lexington Academy,131 East 104 St,M,10029,212-860-5831
M076,997726,233142,DOE,P.S. 076 A Philip Randolph,220 West 121 St,M,10027,212-678-2865
M083,1000188,228334,DOE,P.S. 083 Luis Munoz Rivera,219 East 109 St,M,10029,212-860-5847
M084,993059,226926,DOE,P.S. 084 Lillian Weber,32 West 92 St,M,10025,212-799-2534
M087,990406,224094,DOE,P.S. 087 William Sherman,160 West 78 St,M,10024,212-678-2826
M089,980448,200482,DOE,P.S. 89,201 Warren St,M,10282,212-571-5659
M092,999200,236265,DOE,P.S. 092 Mary McLeod Bethune,222 West 134 St,M,10030,212-690-5915
M096,1001519,230774,DOE,P.S. 096 Joseph Lanzetta,216 East 120 St,M,10035,212-860-5851
M098,1007005,255485,DOE,P.S. 098 Shorac Kappock,512 West 212 St,M,10034,212-927-7870
M102,1001261,228920,DOE,P.S. 102 Jacques Cartier,315 East 113 St,M,10029,212-860-5834
M108,998589,228939,DOE,P.S. 108 Assemblyman Angelo Del Toro Educational Complex,1615 Madison Ave,M,10029,212-860-5803
M110,989803,199925,DOE,P.S. 110 Florence Nightingale,285 Delancy St,M,10002,212-674-2690
M111,987176,218312,DOE,P.S. 111 Adolph S Ochs,440 West 53 St,M,10019,212-582-7420
M112,1003557,229497,DOE,P.S. 112 Jose Celso Barbosa,535 East 119 St,M,10035,212-860-5868
M115,1002225,247606,DOE,P.S. 115 Alexander Humboldt,586 West 177 St,M,10033,212-927-9233
M116,990449,210502,DOE,P.S. 116 Mary Lindley Murray,210 East 33 St,M,10016,212-685-4366
M123,999649,238086,DOE,P.S. 123 Mahalia Jackson,301 West 140 St,M,10030,212-342-6200
M124,985508,199564,DOE,P.S. 124 Yung Wing,40 Division St,M,10002,212-966-7237
M125,996483,234615,DOE,P.S. 125 Ralph Bunche,425 West 123 St,M,10027,212-666-6400
M126,985099,198162,DOE,P.S. 126 Jacob August Riis,80 Catherine St,M,10038,212-962-2188
M128,1001154,245745,DOE,P.S. 128 Audubon,560 West 169 St,M,10032,212-927-0607
M129,997573,236146,DOE,P.S. 129 John H Finley,425 West 130 St,M,10027,212-690-5932
M130,984696,201108,DOE,P.S. 130 Hernando De Soto,143 Baxter St,M,10013,212-226-8072
M133,1000983,234251,DOE,P.S. 133 Fred R Moore,2121 5 Ave,M,10037,212-690-5936
M134,988696,199514,DOE,P.S. 134 Henrietta Szold,293 East Broadway,M,10002,212-673-4470
M137,988761,199522,DOE,P.S. 137 John L Bernstein,293 East Broadway,M,10002,646-602-2140
M140,988831,201263,DOE,P.S. 140 Nathan Straus,123 Rdg St,M,10002,212-677-4680
M142,988655,200914,DOE,P.S. 142 Amalia Castro,100 Attorney St,M,10002,212-598-3800
M145,993925,230396,DOE,The Bloomingdale Magnet School For Multimedia Communication,150 West 105 St,M,10025,212-678-2857
M146,1001170,226970,DOE,P.S. 146 Ann M Short,421 East 106 St,M,10029,212-860-5877
M149,998595,231664,DOE,P.S. 149 Sojourner Truth,41 West 117 St,M,10026,646-672-9020
M150,981231,200964,DOE,P.S. 150,334 Greenwich St,M,10013,212-732-4392
M152,1004217,252658,DOE,P.S. 152 Dyckman Valley,93 Nagle Ave,M,10040,212-567-5456
M153,998861,240339,DOE,P.S. 153 Adam Clayton Powell,1750 Amsterdam Ave,M,10031,212-927-8611
M154,998368,234654,DOE,P.S. 154 Harriet Tubman,250 West 127 St,M,10027,212-864-2400
M155,1001872,229830,DOE,P.S. 155 William Paca,319 East 117 St,M,10035,212-860-5885
M158,997867,219948,DOE,P.S. 158 Bayard Taylor,1458 York Ave,M,10075,212-744-6562
M163,992914,228816,DOE,P.S. 163 Alfred E Smith,163 West 97 St,M,10025,212-678-2854
M165,993633,231720,DOE,P.S. 165 Robert E Simon,234 West 109 St,M,10025,212-678-2873
M168,998441,228534,CHARTER,East Harlem Scholars Academy Charter School II Pre - Kindergarten,1573 Madison Ave,M,10029,212-348-2518
M171,997631,227925,DOE,P.S. 171 Patrick Henry,19 East 103 St,M,10029,212-860-5801
M173,1000806,247304,DOE,P.S. 173,306 Ft Washington Ave,M,10033,212-927-7850
M175,1000052,235962,DOE,P.S. 175 Henry H Garnet,175 West 134 St,M,10030,212-283-0426
M180,996478,233557,DOE,P.S. 180 Hugo Newman,370 West 120 St,M,10027,212-678-2849
M184,988196,198439,DOE,P.S. 184m Shuang Wen,327 Cherry St,M,10002,212-602-9700
M185,998288,230122,DOE,P.S. 185 - The Early Childhood Discovery And Design Magnet School,20 West 112 St,M,10026,212-534-7490
M188,990502,201596,DOE,P.S. 188 The Island School,442 East Houston St,M,10002,212-677-5710
M189,1004220,250030,DOE,P.S. 189,2580 Amsterdam Ave,M,10040,212-927-8303
M191,987709,220465,DOE,"The Museum Magnet School For Inquiry, Innovation And Imagination",210 West 61 St,M,10023,212-757-4343
M192,997451,238317,DOE,P.S. 192 Jacob H Schiff,500 West 138 St,M,10031,212-281-8395
M194,1000558,238536,DOE,P.S. 194 Countee Cullen,244 West 144 St,M,10030,212-690-5954
M197,1001532,235595,DOE,P.S. 197 John B Russwurm,2230 5 Ave,M,10037,212-690-5960
M198,998132,225290,DOE,P.S. 198 Isador E Ida Straus,1700 3 Ave,M,10128,212-289-3702
M200,1001827,239609,DOE,P.S. 200 - The James Mccune Smith School,2589 7 Ave,M,10039,212-491-6636
M210,999569,241664,DOE,P.S. / I.S. 210 - Twenty - First Century Academy For Community Leadership,501 - 503 West 152 St,M,10031,212-283-0012
M212,987389,216710,DOE,P.S. 212 Midtown West,328 West 48 St,M,10036,212-247-0208
M217,998580,217620,DOE,P.S. / I.S. 217 Roosevelt Island,645 Main St,M,10044,212-980-0294
M225,995464,218123,DOE,Ella Baker School,317 East 67 St,M,10065,212-717-8809
M242,998487,233036,DOE,P.S. 242 - The Young Diplomats Magnet Academy,134 West 122 St,M,10027,212-678-2908
M267,994290,217558,DOE,"East Side Elementary School, P.S. 267",213 East 63rd St,M,10065,212-888-7848
M281,991859,210480,DOE,The River School,425 East 35th St,M,10016,212-251-6640
M315,990187,204415,DOE,The East Village Community School,610 East 12 St,M,10009,212-982-0682
M325,997417,238334,DOE,P.S. 325,500 West 138 St,M,10031,212-234-1335
M329,998169,230183,CHARTER,Harlem Link Charter School Pre - Kindergarten,20 West 112 St,M,10026,212-289-3249
M340,985552,208488,DOE,Sixth Avenue Elementary School,590 Sixth Ave,M,10011,718-935-3440
M343,982765,199173,DOE,The Peck Slip School,1 Peck Slip,M,10038,212-346-5210
M348,1003333,248666,DOE,Washington Heights Expeditionary Learning School,511 West 182nd St,M,10033,212-781-0524
M351,998666,231764,CHARTER,Success Academy Charter School - Harlem 1 Pre - Kindergarten,34 West 118 St,M,10026,646-277-7170
M361,990267,204367,DOE,The Children's Workshop School,610 East 12 St,M,10009,212-614-9531
M363,988085,203178,DOE,Neighborhood School,121 East 3 St,M,10009,212-387-0195
M364,989435,203081,DOE,Earth School,600 East 6 St,M,10009,212-477-1735
M366,1005984,254644,DOE,Washington Heights Academy,202 Sherman Ave,M,10034,212-304-3320
M375,999640,229213,DOE,Mosaic Preparatory Academy,141 East 111 St,M,10029,212-722-3109
M382,1000576,225463,CHARTER,Dream Charter School,433 East 100 St,M,10029,212-722-0232
M397,982696,198290,DOE,Spruce Street School,12 Spruce St,M,10018,212-266-4800
M497,998390,228427,DOE,Central Park East I,1573 Madison Ave,M,10029,212-860-5821
M513,1001271,245593,DOE,Castle Bridge School,560 West 169 St,M,10032,212-740-4701
M517,997119,235303,DOE,Teachers College Community School,168 Morningside Ave,M,10027,212-316-8080
M964,997653,227966,DOE,Central Park East II,19 East 103 St,M,10029,212-860-5992
MAAY,993688,231494,NYCEEC,Ascension School,220 West 108 St,M,10025,212-222-5161
MABK,998519,222262,NYCEEC,Cassidy's Place,419 East 86th St,M,10028,212-845-3821
MABT,1001502,233529,NYCEEC,"Storefront Academy Harlem, The",70 East 129th St,M,10035,212-427-7900
MACU,995106,234772,NYCEEC,Corpus Christi,535 West 121st St,M,10027,212-662-9344
MADL,1006162,255963,NYCEEC,Good Shepherd School,620 Isham St,M,10034,212-567-5800
MADO,982837,211367,NYCEEC,Guardian Angel,193 10th Ave,M,10011,212-989-8280
MAED,989155,205415,NYCEEC,Immaculate Conception School,419 East 13th St,M,10009,212-475-2590
MAEE,1001948,247113,NYCEEC,Incarnation School,570 West 175th St,M,10033,212-795-1030
MAFQ,1004154,253977,NYCEEC,Our Lady Queen Of Martyrs School,71 Arden St,M,10040,212-567-3190
MAFV,1002207,250051,NYCEEC,Yeshiva Rabbi Samson Raphael Hirsch,85 - 93 Bennett Ave,M,10033,212-568-6200
MAGN,1000920,228073,NYCEEC,St. Ann School,314 East 110th St,M,10029,212-722-1295
MAGR,989603,203419,NYCEEC,St. Brigid School,185 East 7th St,M,10009,212-677-5210
MAGT,1000421,238025,NYCEEC,St. Charles Borromeo,214 West 142nd St,M,10030,212-368-6666
MAGZ,991922,226986,NYCEEC,St. Gregory The Great School,138 West 90th St,M,10024,212-362-5410
MAHP,1000441,230785,NYCEEC,St. Paul School,114 East 118th St,M,10035,212-534-0619
MAHQ,1000946,244493,NYCEEC,St. Rose Of Lima School,517 West 164th St,M,10032,212-927-1619
MALF,1001937,242787,NYCEEC,Prince Hall Colonial Park DCC,159 - 30 Harlem Riv Dr,M,10039,212-281-1444
MAMQ,995962,218726,NYCEEC,Lenox Hill Neighborhood House,331 East 70th St,M,10021,212-218-0406
MAMZ,987731,211724,NYCEEC,Manhattan Nursery School,38 West 32nd St Suite 306,M,10001,212-631-0543
MANG,990780,207539,NYCEEC,Imagine ELC At Vets Kids,423 East 23 St,M,10010,212-951-3435
MANH,997285,226159,NYCEEC,Imagine ELC @ East 97th Street,60 - 62 East 97th St,M,10029,212-410-2077
MANJ,986761,210694,NYCEEC,Ivy League Early Learning Academy,776 Ave Of The Americas,M,10001,212-683-5545
MANK,998331,235703,NYCEEC,"Urban Concepts Of NY - Round The Clock Nursery, Inc.",301 West 130th St,M,10027,212-694-0615
MANM,999464,234496,NYCEEC,West Harlem Earlylearn,121 West 128th St,M,10027,212-665-7586
MANY,1003763,252645,NYCEEC,YM & YWHA Of Washington Heights And Inwood,54 Nagle Ave,M,10040,212-569-6200
MAOM,1000111,238365,NYCEEC,Children's Aid Society Drew Hamilton ECC,2672 Frederick Douglass Blvd,M,10030,212-281-9555
MAON,1000124,229505,NYCEEC,Union Johnson Early Childhood Programs,1829 Lexington Ave,M,10029,212-828-6028
MAOZ,990494,201989,NYCEEC,Educational Alliance - Lillian Wald,34 Ave D,M,10009,646-395-4218
MAPD,1001586,242065,NYCEEC,ESS Morningside,2967 Frederick Douglas Blvd,M,10039,212-281-4142
MAPH,999773,227649,NYCEEC,East Harlem Block Nursery 1,215 East 106th St,M,10029,212-427-2571
MAPL,979573,197802,NYCEEC,Battery Park City Day Nursery,215 South End Ave,M,10280,212-945-0088
MAPM,984993,198569,NYCEEC,Hamilton Madison House Earlylearn Center 2,60 Catherine St,M,10038,212-962-3408
MAPW,999755,227071,NYCEEC,Leggett Memorial,237 East 104th St,M,10029,212-828-6051
MAPY,987367,200459,NYCEEC,Grand St. Settlement Dual Center #1,60 Essex St,M,10002,212-677-6990
MAQA,991269,203061,NYCEEC,Virginia Day Nursery,464 East 10th St,M,10009,212-228-5220
MAQG,984548,214046,NYCEEC,Gramercy School,460 West 34th St 2nd Floor,M,10001,212-420-0510
MAQH,991209,225238,NYCEEC,Goddard Riverside Preschool @ W83rd 2,128 West 83rd St,M,10024,212-877-7780
MAQI,991571,226415,NYCEEC,Child Center Of NY,169 West 87th St,M,10024,212-799-2440
MAQL,992097,225040,NYCEEC,Goddard Riverside DCC @ West 84th St. 3,26 West 84th St,M,10024,212-799-2369
MAQM,1001671,228791,NYCEEC,Dawning Village Too,2211 First Ave,M,10029,212-369-5313
MAQR,1001756,244508,NYCEEC,"Rena Child Care Centers, Inc.",639 Edgecombe Ave,M,10032,212-795-4444
MAQT,998272,228245,NYCEEC,Union Carver Early Childhood Program,1565 Madison Ave,M,10029,212-828-6079
MARB,1001832,238481,NYCEEC,LSSMNY : Early Life Children's Center 11,110 West 146th St,M,10039,646-478-7949
MARD,996361,235041,NYCEEC,Grant DCC,1299 Amsterdam Ave,M,10027,212-666-6000
MARH,1000966,239259,NYCEEC,LSSMNY : Early Life Children's Center 13,218 West 147th St,M,10039,646-360-4093
MARJ,1001612,237905,NYCEEC,Graham Windham DCC,669 Lenox Ave,M,10037,212-491-8501
MASA,1002112,232470,NYCEEC,Addie Mae Collins 3,2322 Third Ave,M,10035,212-831-3144
MASH,1005683,252665,NYCEEC,Friends Of Crown Heights DCC #28,3732 10th Ave,M,10034,212-567-5655
MASJ,999028,231563,NYCEEC,Children's Aid Society Milbank Early Childhood Program,14 - 32 West 118th St,M,10026,212-996-1716
MASK,998287,226796,NYCEEC,East Harlem Center,130 East 101st St,M,10029,212-348-2343
MASL,983806,212366,NYCEEC,Hudson Guild Children's Center I,441 West 26th St,M,10001,212-760-9830
MASN,1001880,231331,NYCEEC,Community Life Center 1,221 East 122 St,M,10035,212-427-6800
MASP,993216,227730,NYCEEC,Goddard Riverside Head Start Center @ W 95th St. 4,70 West 95th St,M,10025,212-873-6865
MASU,986866,198046,NYCEEC,Hamilton Madison House Earlylearn Center 5,253 South St,M,10002,212-962-3408
MASV,1000822,226583,NYCEEC,Scan Laguardia House Nursery,414 - 416 East 105th St,M,10029,212-722-7441
MASX,1000957,231682,NYCEEC,Pequenos Souls DCC,114 East 122nd St,M,10035,212-427-7644
MATA,990621,201149,NYCEEC,Henry Street Settlement Family School,110 - 120 Baruch Dr,M,10002,212-614-0537
MATB,999123,230185,NYCEEC,Children's Aid Society Taft ECC,1724 - 26 Madison Ave,M,10029,212-831-0556
MATI,1001924,234193,NYCEEC,LSSMNY : Early Life Children's Center 12,1951 Park Ave,M,10037,212-933-1815
MATK,989069,203159,NYCEEC,Bank Street Head Start,535 East 5th St,M,10009,212-353-2532
MATL,985424,199410,NYCEEC,"Chinatown DCC, Inc.",35 Division St,M,10002,212-431-3845
MATM,985448,201798,NYCEEC,Chinese Community Concerns Corp.,180 Mott St,M,10012,212-226-5000
MATO,989929,200699,NYCEEC,Dewitt Reformed Church Head Start,280 Rivington St,M,10002,212-254-3070
MATP,998451,240013,NYCEEC,LSSMNY : Early Life Childrens Center 14,510 - 16 West 145th St,M,10031,646-449-0814
MATQ,988477,202038,NYCEEC,Escuela Hispana Montessori 2,180 Suffolk St,M,10002,212-982-6650
MATU,989985,200326,NYCEEC,Grand St. Settlement Head Start Center,294 Delancey St,M,10002,212-777-0656
MAUA,987466,199403,NYCEEC,Education Alliance - East Broadway,197 East Broadway,M,10002,646-395-4218
MAUB,986871,201792,NYCEEC,University Settlement ECC,184 Eldridge St,M,10002,212-453-4584
MAUC,990176,200359,NYCEEC,Grand St. Settlement,300 Delancey St,M,10002,212-228-8240
MAUE,990973,202812,NYCEEC,Cpc Jacob Riis CCC,108 Ave D,M,10009,212-533-9138
MAUH,990893,208696,NYCEEC,Bellevue - Educare Childcare Center,462 First Ave,M,10016,212-679-2393
MAUJ,1000605,225535,NYCEEC,Children's Aid At P.S. 50,433 East 100th St,M,10029,646-627-7448
MAUK,1004166,252638,NYCEEC,Children's Aid Society,93 Nagle Ave,M,10040,212-544-0221
MAUL,980877,200632,NYCEEC,BMCC ECC,199 Chambers St,M,10013,212-220-8251
MAUM,984303,200605,NYCEEC,Chung Pak DCC,"125 Walker St, 3rd Floor",M,10013,212-343-9630
MAUN,999233,223841,NYCEEC,Eisman Day Nursery,1794 First Ave,M,10128,212-876-9200
MAUP,983594,212372,NYCEEC,Hudson Guild Children's Center,459 West 26th St,M,10001,212-760-9830
MAUQ,992832,217190,NYCEEC,Lighthouse CDC,111 East 59th St,M,10022,212-821-9600
MAUR,990161,202261,NYCEEC,Educational Alliance - P.S. 15,333 East 4th St,M,10009,646-395-4218
MAUT,986567,219268,NYCEEC,YWCA - NYC Polly Dodge ELC,538 West 55th St,M,10019,212-757-2047
MAUU,985945,201108,NYCEEC,Garment Industry DCC,115 Chrystie St,M,10002,212-219-2286
MAUW,985811,198204,NYCEEC,Hamilton Madison House Earlylearn Center 4,77 Market St,M,10002,212-962-3408
MAUY,982184,198044,NYCEEC,Hamilton Madison House Earlylearn Center 6,129 Fulton St,M,10038,212-962-3408
MAUZ,994554,231443,NYCEEC,Bloomingdale Family Program 1,125 West 109th St,M,10025,212-663-4067
MAVA,994059,231104,NYCEEC,Bloomingdale Family Program 2,171 West 107th St,M,10025,212-663-4067
MAVB,994915,231007,NYCEEC,Bloomingdale Family Program III,987 Columbus Ave,M,10025,212-663-4067
MAVG,998665,231609,NYCEEC,Harlem Gems @ P.S. 149,41 West 117th St,M,10026,212-876-0633
MAVK,994301,229836,NYCEEC,Children's Aid Society Frederick Douglass Ecp,885 Columbus Ave,M,10025,212-865-6337
MAVM,997234,232224,NYCEEC,Citizens Care DCC 1,131 Saint Nicholas Ave,M,10026,212-666-1683
MAVN,993659,229287,NYCEEC,Open Door CCC,820 Columbus Ave,M,10025,212-749-5572
MAVO,998571,231514,NYCEEC,Harlem Children's Zone Head Start,60 West 117th St,M,10026,212-369-3577
MAVQ,987913,221443,NYCEEC,Mabel Barrett Fitzgerald DCC,243 West 64th St,M,10023,212-874-0860
MAVR,998516,230204,NYCEEC,East Calvary DCC,1 West 112th St,M,10026,212-534-5249
MAVS,997614,228199,NYCEEC,"Boys & Girls Harbor, Inc.",1 East 104th St,M,10029,212-427-2244
MAVX,1000287,227699,NYCEEC,Franklin Plaza,2081 Second Ave,M,10029,212-828-6413
MAVY,999828,226237,NYCEEC,Metro North Childcare Center,304 East 102nd St,M,10029,212-828-6413
MAWA,998948,225543,NYCEEC,Union Washington CCC,1893 2nd Ave,M,10029,212-828-6089
MAWD,1000093,225928,NYCEEC,Addie Mae Collins 2,345 East 101st St,M,10029,212-831-7373
MAWG,1002503,229000,NYCEEC,East Harlem Chs Bilingual Head Start Program,440 East 116th St,M,10029,212-427-9010
MAWH,998789,229562,NYCEEC,East Harlem Chs Bilingual Head Start - 111th,30 East 111th St,M,10029,212-860-7201
MAWI,1000964,228364,NYCEEC,Northside Center Day School,302 - 306 East 111th St,M,10029,646-351-1300
MAWJ,999785,234608,NYCEEC,Harlem Gems North,381 Lenox Ave,M,10027,646-539-5898
MAWM,1001378,232832,NYCEEC,ABC / Echo Park ECDC,1841 Park Ave,M,10035,646-459-6032
MAWT,1001894,238415,NYCEEC,Seventh Avenue Center For Family Services,711 Lenox Ave,M,10039,212-862-0600
MAWW,996309,237962,NYCEEC,Urban Concepts / Round The Clock,3333 Broadway,M,10031,212-234-1870
MAWX,998625,235026,NYCEEC,Utopia Children's Center,236 West 129th St,M,10027,212-663-7376
MAWZ,996169,236889,NYCEEC,Citizens Care DCC 3,3240 Broadway,M,10027,212-690-0742
MAXC,1000508,238706,NYCEEC,ECDO Child Start Center,249 West 144th St,M,10030,212-234-8135
MAXF,1001838,233323,NYCEEC,Addie Mae Collins 1,110 East 129th St,M,10035,212-831-9220
MAXH,1003129,250109,NYCEEC,St. Elizabeth Pre Kindergarten,612 West 187th St,M,10033,212-568-7291
MAXJ,1003176,249962,NYCEEC,Ft. George Head Start Center # 1,1525 Saint Nicholas Ave,M,10033,212-795-9184
MAXM,999621,242578,NYCEEC,Northern Manhattan Head Start,529 West 155 St,M,10032,212-926-8264
MAXO,1000897,242906,NYCEEC,UFBCO,474 West 159th St,M,10032,212-281-1959
MAXP,1001974,248555,NYCEEC,St. Spyridon Parochial School,124 Wadsworth Ave,M,10033,212-795-6870
MAXS,1001577,247337,NYCEEC,Washington Heights DCC,610 - 614 West 175th St,M,10033,212-718-6910
MAXT,1005493,254805,NYCEEC,Nicholas Cardell DCC,84 Vermilyea Ave,M,10034,212-942-6757
MAXV,1002718,247257,NYCEEC,Dominican Women's Development Center,2346 Amsterdam Ave,M,10033,212-994-6060
MAXX,985616,201122,NYCEEC,Victoria Children's Group,230 Grand St 2nd Floor,M,10013,212-625-9228
MAXZ,989041,199494,NYCEEC,Henry Street Settlement Day Care,301 Henry St,M,10002,212-253-1595
MAYH,985826,215163,NYCEEC,Hudson Guild,410 West 40th St,M,10018,212-760-9830
MAYJ,999006,234441,NYCEEC,New York Center For Child Development,159 W 127th St,M,10027,212-752-7575
MAYL,998420,229977,NYCEEC,Sunshine Daycare East Harlem,1330 5th Ave,M,10026,212-444-1177
MAZB,986561,201569,NYCEEC,Evolution Enrichment Center,38 Delancey St,M,10002,212-375-9500
MAZI,994487,231479,NYCEEC,Cathedral Parkway Towers Preschool,125 West 109th St,M,10025,212-749-0291
MAZL,1001557,234624,NYCEEC,East Harlem Block Nursery 2,2112 Madison Ave,M,10037,212-234-3333
MAZN,992338,227020,NYCEEC,Goddard Riverside Day Care 1,114 West 91st St,M,10025,212-873-6865
MAZQ,1005720,252159,NYCEEC,Children's Aid Society's P.S. 5 Early Childhood Program,3703 Tenth Ave,M,10034,212-567-5787
MAZS,988675,200974,NYCEEC,"Educational Alliance, Inc. @ P.S. 142",100 Attorney St,M,10002,646-395-4218
MAZT,1001426,227330,NYCEEC,Dawning Village,2090 First Ave,M,10029,212-369-5313
MAZZ,1001825,245069,NYCEEC,Children's Aid Society At P.S. 8,465 West 167th St,M,10032,212-740-8655
MBAA,991302,203940,NYCEEC,St. Brigid Early Childhood Academy,185 Ave D,M,10009,347-903-8783
MBAG,988525,224085,NYCEEC,Milestones Uws,319 West 74 St,M,10023,917-273-0776
MBAJ,1000937,234910,NYCEEC,Abyssinian Development Corp. 3,25 West 132nd St,M,10037,212-690-2869
MBAU,986966,218169,NYCEEC,Sacred Heart Parochial,456 West 52nt Street,M,10019,212-246-4784
MBBE,997864,226383,NYCEEC,Lexington Children's Center,115 East 98th St,M,10029,212-410-1060
MBBG,999302,232580,NYCEEC,Community Life Center 2,15 Mt Morris Park West,M,10027,212-427-3000
MBBI,1001668,250354,NYCEEC,Manhattan ECC,554 Ft Washington Ave,M,10033,212-740-5157
MBBJ,1003145,249930,NYCEEC,Ft. George Child Center 1,601 W 186 St,M,10033,212-927-2210
MBCM,999822,233055,NYCEEC,Singleton Gems,23 West 124th St,M,10027,646-545-3935
MBFX,1000120,239056,NYCEEC,Urban Concepts / Round The Clock,300 W 145 St,M,10039,212-862-2273
MBGO,984638,208090,NYCEEC,Salvation Army New York Templecorp,132 West 14th St,M,10011,212-337-7468
MBGQ,981192,195283,NYCEEC,CCLC At 4 NY Plaza,4 Newyork Plz Suite 104,M,10004,212-513-7367
MBGR,994825,216537,NYCEEC,Renanim Manhattan,336 East 61st St,M,10065,212-371-7233
MBGS,988190,221100,NYCEEC,Hudson Guild,206 West 64th St,M,10023,212-760-9830
MBGT,991289,225207,NYCEEC,Finger Painted Hands,126 West 83rd St,M,10024,212-595-5200
MBGU,1000579,241793,NYCEEC,Sugar Hill Museum Preschool,400 W 155th St,M,10032,212-862-7155
MBHH,982687,202114,NYCEEC,Center Annex ( Tribeca ECC ),21 St John's Ln,M,10013,212-925-5641
MBHI,992730,229469,NYCEEC,My Little Language School,225 West 99th St,M,10025,646-389-7552
MBHM,979879,196574,NYCEEC,Child Care Partners NY West,20 West St,M,10004,212-797-1110
MBHV,1000043,240250,NYCEEC,Moreau LMSW Children & Family Services PC,764 St Nicholas Ave,M,10031,212-234-1036
MBIW,985093,204263,NYCEEC,University Settlement - Creative Steps,4 Washington Sq Vlg,M,10012,212-982-2273
MBJS,982942,200504,NYCEEC,NY Preschool Tribeca,88 Leonard St,M,10013,718-228-0800
MBJU,987605,221411,NYCEEC,UCP Of NYC Manhattan UPK,80 West End Ave,M,10023,212-686-6700
MBJV,986841,200508,NYCEEC,Victoria Children's Center,323 Grand St,M,10002,212-625-1828
MBKF,1001488,230967,NYCEEC,Sunshine Lc Of 3rd Ave,2205 Third Ave,M,10035,732-927-7080
MBKK,992315,228138,NYCEEC,River Park Nursery School,711 Amsterdam Ave,M,10025,212-663-1205
MBKR,990236,226090,NYCEEC,Play Together NYC Preschool,270 West 84th St Basement,M,10024,917-842-2779
MBKS,989544,202461,NYCEEC,Butterfly CCC,296 East 4th St,M,10009,347-238-9341
MBKU,988577,200191,NYCEEC,Cpc Little Star Of Broome Street,131 Broome St,M,10002,212-673-2680
Q015,1051614,189303,DOE,P.S. 015 Jackie Robinson,121 - 15 Lucas St,Q,11413,718-525-1670
Q017,1005622,219185,DOE,P.S. 017 Henry David Thoreau,28 - 37 29 St,Q,11102,718-278-1220
Q018,1058444,206065,DOE,P.S. 018 Winchester,86 - 35 235 Ct,Q,11427,718-464-4167
Q020,1032964,215709,DOE,P.S. 020 John Bowne,142 - 30 Barclay Ave,Q,11355,718-359-0321
Q021,1034491,221402,DOE,P.S. 021 Edward Hart,147 - 36 26 Ave,Q,11354,718-445-8833
Q022,1036600,216838,DOE,P.S. 022 Thomas Jefferson,153 - 33 Sanford Ave,Q,11355,718-762-4141
Q026,1045769,207725,DOE,P.S. 026 Rufus King,195 - 02 69 Ave,Q,11365,718-464-4505
Q028,1024571,211469,DOE,P.S. 28 - The Thomas Emanuel ECC,109 - 10 47 Ave,Q,11368,718-271-4971
Q029,1027687,222887,DOE,P.S. 029 Queens,125 - 10 23 Ave,Q,11356,718-886-5111
Q031,1048255,215371,DOE,P.S. 031 Bayside,211 - 45 46 Rd,Q,11361,718-423-8288
Q032,1041260,218069,DOE,P.S. 032 State Street,171 - 11 35 Ave,Q,11358,718-463-3747
Q034,1056962,198450,DOE,P.S. 034 John Harvard,104 - 12 Springfield Blvd,Q,11429,718-465-6818
Q035,1048277,199369,DOE,P.S. 035 Nathaniel Woodhull,191 - 02 90 Ave,Q,11423,718-465-6820
Q037,1051188,185690,DOE,Cynthia Jenkins School,179 - 37 137 Ave,Q,11434,718-528-5399
Q040,1042210,192244,DOE,P.S. 040 Samuel Huntington,109 - 20 Un Hall St,Q,11433,718-526-1906
Q042,1041193,155880,DOE,P.S. / M.S. 042 R Vernam,488 Bch 66 St,Q,11692,718-634-7914
Q043,1050510,155650,DOE,P.S. 043,160 Bch 29 St,Q,11691,718-327-5860
Q045,1042896,184207,DOE,P.S. 045 Clarence Witherspoon,126 - 28 150 St,Q,11436,718-529-1885
Q047,1034022,160276,DOE,P.S. 047 Chris Galas,9 Power Rd,Q,11693,718-634-7167
Q048,1040649,192209,DOE,P.S. 048 William Wordsworth,108 - 29 155 St,Q,11433,718-558-6700
Q050,1037795,192571,DOE,P.S. 050 Talfourd Lawn Elementary School,143 - 26 101 Ave,Q,11435,718-526-5336
Q051,1030911,193718,DOE,P.S. 051,87 - 45 117 St,Q,11418,718-850-0738
Q052,1048979,180298,DOE,P.S. 052 Queens,178 - 37 146 Ter,Q,11434,718-528-2238
Q055,1035193,192127,DOE,P.S. 055 Maure,131 - 10 97 Ave,Q,11419,718-849-3845
Q058,1014669,204798,DOE,P.S. 58 - School Of Heroes,72 - 24 Grand Ave,Q,11378,718-533-6712
Q060,1025072,191234,DOE,P.S. 060 Woodhaven,91 - 02 88 Ave,Q,11421,718-441-5046
Q062,1029774,190197,DOE,P S 62 - Chester Park School,97 - 25 108 St,Q,11419,718-286-4460
Q063,1026702,185874,DOE,P.S. 063 Old South,90 - 15 Sutter Ave,Q,11417,718-845-7560
Q066,1026894,193585,DOE,P.S. 066 Jacqueline Kennedy Onassis,85 - 11 102 St,Q,11418,718-849-0184
Q068,1012731,193171,DOE,P.S. 068 Cambridge,59 - 09 Saint Felix Ave,Q,11385,718-821-7246
Q069,1015130,212171,DOE,P.S. 069 Jackson Heights,77 - 02 37 Ave,Q,11372,718-424-7700
Q070,1008043,216842,DOE,P.S. 070 Queens,30 - 45 42 St,Q,11103,718-728-4646
Q071,1010585,198453,DOE,P.S. 071 Forest,62 - 85 Frst Ave,Q,11385,718-821-7772
Q076,1000500,216525,DOE,P.S. 076 William Hallet,36 - 36 10 St,Q,11106,718-361-7464
Q078,996037,210512,DOE,P.S. / I.S. 78q,48 - 09 Ctr Blvd,Q,11109,718-392-5402
Q079,1034692,225779,DOE,P.S. 079 Francis Lewis,147 - 27 15 Dr,Q,11357,718-746-0396
Q080,1048210,184631,DOE,P.S. 080 The Thurgood Marshall Magnet School,171 - 05 137th Ave,Q,11434,718-528-7070
Q081,1008644,195700,DOE,P.S. 81q Jean Paul Richter,559 Cypress Ave,Q,11385,718-821-9800
Q084,1010255,220246,DOE,P.S. 084 Steinway,22 - 45 41 St,Q,11105,718-278-1915
Q085,1007802,220927,DOE,P.S. 085 Judge Charles Vallone,23 - 70 31 St,Q,11105,718-278-3630
Q086,1038647,197715,DOE,P.S. Q086,87 - 41 Parsons Blvd,Q,11432,718-291-6264
Q087,1019861,198537,DOE,P.S. / I.S. 087 Middle Village,67 - 54 80 St,Q,11379,718-326-8243
Q088,1012959,195792,DOE,P.S. 088 Seneca,60 - 85 Catalpa Ave,Q,11385,718-821-8121
Q090,1028785,193155,DOE,P.S. 090 Horace Mann,86 - 50 109 St,Q,11418,718-847-3370
Q091,1016391,195645,DOE,P.S. 091 Richard Arkwright,68 - 10 Central Ave,Q,11385,718-821-6880
Q092,1020556,214742,DOE,P.S. 092 Harry T Stewart Sr.,99 - 01 34 Ave,Q,11368,718-533-1013
Q096,1037470,185366,DOE,P.S. 096,130 - 01 Rockaway Blvd,Q,11420,718-529-2547
Q097,1023094,192283,DOE,P.S. 097 Forest Park,85 - 52 85 St,Q,11421,718-849-4870
Q100,1033717,186944,DOE,P.S. 100 Glen Morris,111 - 11 118 St,Q,11420,718-843-8390
Q101,1027620,200033,DOE,P.S. 101 School In The Gardens,2 Russell Pl,Q,11375,718-268-7231
Q102,1018078,206436,DOE,P.S. 102 Bayview,55 - 24 Van Horn St,Q,11373,718-446-3308
Q104,1049501,160925,DOE,P.S. 104 The Bays Water,26 - 01 Mott Ave,Q,11691,718-327-1910
Q105,1044941,156370,DOE,P.S. 105 The Bay School,420 Bch 51 St,Q,11691,718-474-8615
Q106,1048951,155994,DOE,P.S. 106,180 Bch 35 St,Q,11691,718-327-5828
Q107,1039753,214680,DOE,P.S. 107 Thomas A Dooley,167 - 02 45 Ave,Q,11358,718-762-5995
Q108,1031069,186860,DOE,P.S. 108 Captain Vincent G Fowler,108 - 10 109 Ave,Q,11420,718-558-2700
Q111,1001090,215721,DOE,P.S. 111 Jacob Blackwell,37 - 15 13 St,Q,11101,718-786-2073
Q112,1002486,215081,DOE,P.S. 112 Dutch Kills,25 - 05 37 Ave,Q,11101,718-784-5250
Q115,1064758,210409,DOE,P.S. 115 Glen Oaks,80 - 51 261 St,Q,11004,718-831-4010
Q116,1044713,194644,DOE,P.S. / I.S. 116 William C Hughley,107 - 25 Wren Pl,Q,11433,718-526-4884
Q117,1036048,198074,DOE,P.S. 117 J Keld / Briarwood School,85 - 15 143 St,Q,11435,718-526-4780
Q118,1049303,195657,DOE,P.S. 118 Lorraine Hansberry,190 - 20 109 Rd,Q,11412,718-465-5538
Q120,1031607,210838,DOE,P.S. 120 Queens,58 - 01 136 St,Q,11355,718-359-3390
Q121,1035426,188493,DOE,P.S. 121 Queens,126 - 10 109 Ave,Q,11420,718-738-5126
Q122,1007503,223572,DOE,P.S. 122 Mamie Fay,21 - 21 Ditmars Blvd,Q,11105,718-721-6410
Q123,1040997,186575,DOE,P.S. 123,145 - 01 119 Ave,Q,11436,718-529-4300
Q127,1019884,217981,DOE,P.S. 127 Aerospace Science Magnet,98 - 01 25 Ave,Q,11369,718-446-4700
Q129,1028651,227243,DOE,P.S. 129 Patricia Larkin,128 - 02 7 Ave,Q,11356,718-353-3150
Q130,1044081,216176,DOE,P.S. 130,200 - 01 42 Ave,Q,11361,718-357-6606
Q132,1053691,187867,DOE,P.S. 132 Ralph Bunche,132 - 15 218 St,Q,11413,718-528-5734
Q133,1062501,206100,DOE,P.S. 133 Queens,248 - 05 86 Ave,Q,11426,718-831-4016
Q134,1052208,197256,DOE,P.S. 134 Hollis,203 - 02 109 Ave,Q,11412,718-464-5544
Q135,1051511,201882,DOE,The Bellaire School,207 - 11 89 Ave,Q,11427,718-464-2119
Q136,1052873,193880,DOE,P.S. 136 Roy Wilkins,201 - 15 115 Ave,Q,11412,718-465-2286
Q138,1057841,179723,DOE,P.S. / Ms138 Sunrise,251 - 11 Weller Ave,Q,11422,718-528-9053
Q140,1044969,189684,DOE,P.S. 140 Edward K Ellington,166 - 01 116 Ave,Q,11434,718-657-4760
Q144,1025018,199833,DOE,P.S. 144 Col Jeromus Remsen,93 - 02 69 Ave,Q,11375,718-268-2775
Q146,1030120,179852,DOE,P.S. 146 Howard Beach,98 - 01 159 Ave,Q,11414,718-843-4880
Q147,1056222,193481,DOE,P.S. / M.S. 147 Ronald Mcnair,218 - 01 116 Ave,Q,11411,718-528-2420
Q148,1017847,215510,DOE,P.S. 148 Queens,89 - 02 32 Ave,Q,11369,718-898-8181
Q150,1005476,210979,DOE,P.S. 150 Queens,40 - 01 43 Ave,Q,11104,718-784-2252
Q151,1009600,215302,DOE,P.S. 151 Mary D Carter,50 - 05 31 Ave,Q,11377,718-728-2676
Q152,1011858,213657,DOE,P.S. 152 Gwendoline N Alleyne School,33 - 52 62 St,Q,11377,718-429-3141
Q153,1010888,200281,DOE,P.S. 153 Maspeth Elem,60 - 02 60 Ln,Q,11378,718-821-7850
Q154,1037682,204068,DOE,P.S. 154 Queens,75 - 02 162 St,Q,11366,718-591-1500
Q155,1036906,186866,DOE,P.S. 155,130 - 02 115 Ave,Q,11420,718-529-0767
Q156,1055567,184448,DOE,P.S. 156 Laurelton,229 - 02 137 Ave,Q,11413,718-528-9173
Q159,1044151,219759,DOE,P.S. 159,205 - 01 33 Ave,Q,11361,718-423-8553
Q160,1039710,190041,DOE,P.S. 160 Walter Francis Bishop,109 - 59 Inwood St,Q,11435,718-526-5523
Q161,1033865,190834,DOE,P.S. 161 Arthur Ashe School,101 - 33 124 St,Q,11419,718-441-5493
Q163,1037238,209213,DOE,P.S. 163 Flushing Heights,159 - 01 59 Ave,Q,11365,718-353-2514
Q164,1033174,202135,DOE,P.S. 164 Queens Valley,138 - 01 77 Ave,Q,11367,718-544-1083
Q165,1034688,205168,DOE,P.S. 165 Edith K Bergtraum,70 - 35 150 St,Q,11367,718-263-4004
Q166,1004706,215185,DOE,P.S. 166 Henry Gradstein,33 - 09 35 Ave,Q,11106,718-786-6703
Q169,1045527,224504,DOE,P.S. 169 Bay Terrace,18 - 25 212 St,Q,11360,718-428-6160
Q171,1003909,220192,DOE,P.S. 171 Peter G Van Alst,14 - 14 29 Ave,Q,11102,718-932-0909
Q173,1040985,206840,DOE,P.S. 173 Fresh Meadows,174 - 10 67 Ave,Q,11365,718-358-2243
Q174,1022668,201888,DOE,P.S. 174 William Sidney Mount,65 - 10 Dieterle Cres,Q,11374,718-897-7006
Q175,1025050,205563,DOE,P.S. 175 The Lynn Gross Discovery School,64 - 35 102 St,Q,11374,718-897-8600
Q176,1059157,188949,DOE,P.S. 176 Cambria Heights,120 - 45 235 St,Q,11411,718-525-4057
Q178,1046031,203298,DOE,P.S. / I.S. 178 Holliswood,189 - 10 Radnor Rd,Q,11423,718-464-5763
Q181,1052807,178368,DOE,P.S. 181 Brookfield,148 - 15 230 St,Q,11413,718-528-5807
Q183,1038210,154094,DOE,P.S. 183 Dr. Richard R Green,2 - 45 Bch 79 St,Q,11693,718-634-9459
Q184,1039710,222873,DOE,P.S. 184 Flushing Manor,163 - 15 21 Rd,Q,11357,718-352-7800
Q186,1061373,212506,DOE,P.S. 186 Castlewood,252 - 12 72 Ave,Q,11426,718-831-4021
Q188,1052575,207566,DOE,P.S. 188 Kingsbury,218 - 12 Hartland Ave,Q,11364,718-464-5768
Q191,1064960,206867,DOE,P.S. 191 Mayflower,85 - 15 258 St,Q,11001,718-831-4032
Q193,1036994,227972,DOE,P.S. 193 Alfred J Kennedy,152 - 20 11 Ave,Q,11357,718-767-8810
Q195,1057591,177209,DOE,P.S. 195 William Haberle,253 - 50 149 Ave,Q,11422,718-723-0313
Q196,1029254,202670,DOE,P.S. 196 Grand Central Parkway,71 - 25 113 St,Q,11375,718-263-9770
Q197,1055406,157947,DOE,P.S. 197 The Ocean School,825 Hicksville Rd,Q,11691,718-327-1083
Q199,1004697,208838,DOE,P.S. 199 Maurice A Fitzgerald,39 - 20 48 Ave,Q,11104,718-784-3431
Q200,1038160,205716,DOE,P.S. / M.S. 200 - The Pomonok School & Star Academy,70 - 10 164 St,Q,11365,718-969-7780
Q201,1036049,207643,DOE,P.S. 201 The Discovery School For Inquiry And Research,65 - 11 155 St,Q,11367,718-359-0620
Q203,1050742,213922,DOE,P.S. 203 Oakland Gardens,53 - 11 Springfield Blvd,Q,11364,718-423-8652
Q205,1051729,208208,DOE,P.S. 205 Alexander Graham Bell,75 - 25 Bell Blvd,Q,11364,718-464-5773
Q206,1022823,206785,DOE,P.S. 206 The Horace Harding School,61 - 02 98 St,Q,11374,718-592-0300
Q207,1027497,179092,DOE,P.S. 207 Rockwood Park,159 - 15 88 St,Q,11414,718-848-2700
Q209,1040977,224912,DOE,P.S. 209 Clearview Gardens,16 - 10 Utopia Pkwy,Q,11357,718-352-3939
Q212,1016205,213688,DOE,P.S. 212,34 - 25 82 St,Q,11372,718-898-6973
Q213,1054700,211687,DOE,P.S. 213 The Carl Ullman School,231 - 02 67 Ave,Q,11364,718-423-8747
Q214,1031805,219915,DOE,P.S. 214 Cadwallader Colden,31 - 15 140 St,Q,11354,718-461-4055
Q219,1033062,207501,DOE,P.S. 219 Paul Klapper,144 - 39 Gravett Rd,Q,11367,718-793-2130
Q220,1025269,207631,DOE,P.S. 220 Edward Mandel,62 - 10 108 St,Q,11375,718-592-3030
Q221,1058701,215755,DOE,P.S. 221 The North Hills School,57 - 40 Marathon Pkwy,Q,11362,718-423-8825
Q222,1017503,212705,DOE,P.S. Q222 - Fire Fighter Christopher A Santora School,86 - 15 37 Ave,Q,11372,718-429-2563
Q223,1042668,184951,DOE,P.S. 223 Lyndon B Johnson,125 - 20 Sutphin Blvd,Q,11434,718-322-9012
Q228,1018910,215074,DOE,P.S. 228 Early Childhood Magnet School Of The Arts,32 - 63 93 St,Q,11369,718-899-5799
Q229,1012873,206947,DOE,P.S. 229 Emanuel Kaplan,67 - 25 51 Rd,Q,11377,718-446-2120
Q234,1005540,218753,DOE,P.S. 234,30 - 15 29 St,Q,11102,718-956-2760
Q239,1010857,194024,DOE,P.S. 239,17 - 15 Weirfield St,Q,11385,718-417-2840
Q242,1030751,219785,DOE,P.S. 242 Leonard P Stavisky Early Childhood School,29 - 66 137 St,Q,11354,718-445-2902
Q244,1032411,214241,DOE,The Active Learning Elementary School,137 - 20 Franklin Ave,Q,11355,718-445-5730
Q251,1050999,181758,DOE,P.S. 251 Queens,144 - 51 Arthur St,Q,11413,718-276-2745
Q253,1053949,160637,DOE,P.S. 253,1307 Central Ave,Q,11691,718-327-0895
Q254,1026443,193246,DOE,P.S. 254 - The Rosa Parks School,84 - 40 101 St,Q,11418,718-846-1840
Q266,1059605,211058,DOE,P.S. / I.S. 266,74 - 10 Commonwealth Blvd,Q,11426,718-479-3920
Q270,1057353,185310,DOE,The Gordon Parks School,233 - 15 Merrick Blvd,Q,11422,718-341-8280
Q273,1027416,192016,DOE,P.S. 273,88 - 07 102nd St,Q,11418,718-286-8300
Q290,1013850,204584,DOE,A.C.E. Academy For Scholars At The Geraldine Ferraro Campus,55 - 20 Metropolitan Ave,Q,11385,718-571-6900
Q295,1058685,201984,DOE,P.S. / I.S. 295,222 - 14 Jamaica Ave,Q,11428,718-464-1433
Q303,1027493,203703,DOE,The Academy For Excellence Through The Arts,108 - 55 69 Ave,Q,11375,718-459-1358
Q305,1007824,196826,DOE,Learners And Leaders,378 Seneca Ave,Q,11385,718-366-1061
Q306,1026235,191305,DOE,New York City Academy For Discovery,95 - 16 89th Ave,Q,11421,718-441-2165
Q316,1025871,188263,DOE,Queens Explorer's Elementary,90 - 07 101st Ave,Q,11416,718-558-7088
Q317,1031038,150951,DOE,Waterside Children's Studio School,190 Bch 110 St,Q,11694,718-634-1344
Q333,1043527,155806,DOE,Goldie Maple Academy,3 - 65 Bch 56 St,Q,11692,718-945-3300
Q342,1045782,186986,CHARTER,"Rochdale Early Advantage Charter School, The",122 - 05 Smith St,Q,11434,718-978-0075
Q343,1005703,209569,DOE,The Children's Lab School,45 - 45 42nd St,Q,11104,718-361-3300
Q349,1040216,197455,DOE,P.S. 349,88 - 08 164thstreet,Q,11432,718-935-3608
Q354,1046831,186978,DOE,P.S. 354,126 - 10 Bedell St,Q,11434,718-276-1348
Q360,1051823,195289,DOE,P.S. 360,199 - 10 112 Ave,Q,11412,718-935-3610
Q361,1010261,211774,DOE,P.S. 361,57 - 02 To 57 - 08 39th Ave,Q,11377,718-935-3614
Q362,1051276,157885,DOE,Wave Preparatory Elementary School,535 Briar Pl,Q,11691,718-327-7091
Q499,1033794,208475,DOE,"The Queens College School For Math, Science And Technology",148 - 20 Reeves Ave,Q,11367,718-461-7462
Q705,1016113,212508,CHARTER,"Renaissance Charter School UPK, The",35 - 59 81 St,Q,11372,718-803-0060
QAAB,1030077,201214,NYCEEC,Beth Gavriel / Sha'arei Zion Ohel Bracha,7524 Grand Central Pkwy,Q,11375,718-897-6771
QAAD,1022611,215949,NYCEEC,A Child's Place Too - 108th Street,32 - 20 108th St,Q,11369,718-565-2466
QAAM,1032251,195995,NYCEEC,Bais Yaakov Academy Of Queens ( Metropolitan Ave ),124 - 50 Metropolitan Ave,Q,11415,718-847-5352
QABC,1015221,198536,NYCEEC,Christ The King Community Preschool,6802 Metropolitan Ave,Q,11379,718-417-6770
QABL,1015193,214146,NYCEEC,"Garden School, Inc.",3316 79th St,Q,11372,718-335-6363
QABS,1029268,193838,NYCEEC,Holy Child Jesus School,11102 86th Ave,Q,11418,718-849-3988
QACC,1008949,222490,NYCEEC,Immaculate Conception School,21 - 63 29th St,Q,11105,718-728-1969
QACD,1051423,201407,NYCEEC,Incarnation School,8915 Francis Lewis Blvd,Q,11427,718-465-5066
QACJ,1020000,205666,NYCEEC,Jewish Institute Of Queens,6005 Woodhaven Blvd,Q,11373,718-426-9369
QADN,1030565,180262,NYCEEC,Ave Maria Catholic Academy,158 - 20 101st St,Q,11414,718-848-7440
QADP,1057235,202865,NYCEEC,Our Lady Of Lourdes Catholic Academy,92 - 80 220th St,Q,11428,718-464-1480
QADQ,1025740,199447,NYCEEC,Our Lady Of Mercy Catholic Academy,7025 Kessel St,Q,11375,718-793-2086
QADR,1011398,198614,NYCEEC,Notre Dame Catholic Academy Of Ridgewood,62 - 22 61st St,Q,11385,718-821-2221
QADX,1043737,218535,NYCEEC,Our Lady Of The Blessed Sacrament School,34 - 45 202nd St,Q,11361,718-229-4434
QADZ,1021535,201917,NYCEEC,Our Saviour Lutheran School,6433 Woodhaven Blvd,Q,11374,718-897-4343
QAEG,1009762,222491,NYCEEC,Grace Lutheran School,3120 21st Ave,Q,11105,718-545-1129
QAEP,1057003,193854,NYCEEC,Sacred Heart Catholic Academy,115 - 50 221 St,Q,11411,718-527-0123
QAEQ,1048741,219042,NYCEEC,Sacred Heart School,216 - 01 38th Ave,Q,11361,718-631-4804
QAFC,1034204,151925,NYCEEC,St. Camillus School,185 Bch 99th St,Q,11694,718-634-5260
QAFF,1057487,183258,NYCEEC,St. Clare Catholic Academy,137 - 25 Brookville Blvd,Q,11422,718-528-7174
QAFJ,1024149,189094,NYCEEC,St. Elizabeth School,9401 85th St,Q,11416,718-843-0914
QAFR,1025898,180292,NYCEEC,St. Helen Catholic Academy,83 - 09 157th Ave,Q,11414,718-835-4155
QAFY,1043408,214042,NYCEEC,St. Kevin School,4550 195th St,Q,11358,718-357-8110
QAGC,1029001,189279,NYCEEC,St. Mary Gate Of Heaven,104 - 06 101st Ave,Q,11416,718-846-0689
QAGI,1037158,201181,NYCEEC,St. Nicolas Of Tolentine School,8022 Parsons Blvd,Q,11435,718-380-1900
QAGP,1010185,211092,NYCEEC,St. Sebastian School,39 - 76 58 St,Q,11377,718-928-5997
QAGR,1010927,202441,NYCEEC,St. Stanislaus Kostka School,6117 Grand Ave,Q,11378,718-326-1585
QAGU,1024009,191219,NYCEEC,St. Thomas The Apostle School,8749 87th St,Q,11421,718-847-3904
QAGW,1021854,207553,NYCEEC,Sesame Sprout,96 - 08 57 Ave,Q,11368,718-271-2294
QAHG,1053999,194633,NYCEEC,Stepping Stone Pre & Grade School,114 - 28 Francis Lewis Blvd,Q,11412,718-465-2344
QAHH,1033919,201620,NYCEEC,"Stepping Stone Day School, Inc.",7740 Vleigh Pl,Q,11367,718-591-9093
QAHI,1056691,198832,NYCEEC,Saints Joachim And Anne School,218 - 19 105 Ave,Q,11429,718-465-2230
QAIM,1034332,205260,NYCEEC,Yeshiva Of Central Queens,147 - 37 70 Rd,Q,11367,718-793-8500
QAIR,1030263,197144,NYCEEC,Yeshiva Tifereth Moshe Day Care,8306 Abingdon Rd,Q,11415,718-846-7300
QAJB,1015680,200155,NYCEEC,"Books And Rattles, Inc. Site 2",6308 69th Pl,Q,11379,718-381-7777
QAJR,1032345,217683,NYCEEC,YMCA Of Greater New York - Flushing,13846 Northern Blvd,Q,11354,718-551-9356
QAJX,1059754,206399,NYCEEC,YMCA Of Greater New York - Cross Island,238 - 10 Hillside Ave,Q,11426,718-551-9313
QAKA,1044022,207670,NYCEEC,Little Meadows ECC,67 - 25 188th St,Q,11365,718-454-6460
QAKH,1060902,216694,NYCEEC,Samuel Field YM & YWHA ( Little Neck ),5820 Little Nck Pkwy,Q,11362,718-225-6750
QAKM,1009812,214965,NYCEEC,Mi Nuevo Mundo ( 31 - 05 ),31 - 05 51 St,Q,11377,718-476-3128
QAKQ,1013141,207040,NYCEEC,Denizko DCC,51 - 07 69th St,Q,11377,718-426-0123
QAKT,1021520,212594,NYCEEC,Mi Nuevo Mundo,100 - 05 39th Ave,Q,11368,718-476-3128
QAKV,1033397,214282,NYCEEC,Honeypot Day Care,140 - 22 Beech Ave,Q,11355,718-539-2388
QAKW,1025352,182507,NYCEEC,Kwanis First Step,8212 151st Ave,Q,11414,718-848-0300
QAKY,1033587,214128,NYCEEC,Kissena Cherry Day Care,14026 Cherry Ave,Q,11355,917-952-6727
QAKZ,1059334,207936,NYCEEC,"Bright Beginnings In Queens Village, Inc.",8045 Winchester Blvd,Q,11427,718-264-3860
QALA,1031102,213556,NYCEEC,Rainbow Child Dev Center,13320 Avery Ave,Q,11355,718-321-1610
QALC,1034728,215538,NYCEEC,Little Sweet Angels Preschool,14627 Beech Avenue#1b,Q,11355,718-888-1819
QALD,1057488,219913,NYCEEC,Kiddie Academy Of Little Neck,25220 Northern Boulevard3rd Floor,Q,11362,718-229-2829
QALM,1043792,217155,NYCEEC,Professional Childcare Inc.,3803 Francis Lewis Blvd,Q,11358,718-229-5357
QALO,1039468,195353,NYCEEC,Imagine ELC,1 Jamaica Ctr Plz,Q,11432,718-557-5520
QALP,1046665,199698,NYCEEC,Early Sunrise Preschool,18708 Hillside Ave,Q,11432,718-736-9064
QALQ,1010414,217481,NYCEEC,Elber Islamic School,25 - 42 49th St,Q,11103,917-362-1130
QALW,1015239,207610,NYCEEC,Peek - A - Boo! Learning Center,75 - 02 51st Ave,Q,11373,718-899-1532
QAMB,1015411,213723,NYCEEC,Jackson Heights Learning Center Annex,7910 34 Ave Suite 1x,Q,11372,917-382-5150
QAMJ,1027563,186624,NYCEEC,Little Dolphin,10701 Crossbay Blvd,Q,11417,718-641-7754
QAMK,997043,210874,NYCEEC,Lolly's ECC,5 - 44 47 Ave,Q,11101,516-852-6339
QAMN,1030274,194385,NYCEEC,"Richmond Hill Day Care, Inc.",11524 Myrtle Ave,Q,11418,718-441-8191
QAMO,1012517,194119,NYCEEC,Greater Ridgewood,5903 Summerfield St,Q,11385,718-456-5437
QAMS,1006262,220364,NYCEEC,Kid Krazy,2519 27 St,Q,11102,718-204-0646
QAMT,1052560,157261,NYCEEC,Ralph Hirschkorn CCC,310 Bch 20th St,Q,11691,718-327-1141
QAMU,1048162,179040,NYCEEC,Saratoga Early Childhood Education Center,17515 Rockaway Blvd,Q,11434,718-244-0670
QAMV,1021867,216706,NYCEEC,SCO Family Of Services Jerome Hardeman Ece,29 - 49 Gillmore St,Q,11369,718-779-1660
QANH,1042850,184315,NYCEEC,Quick Start DCC Inc.,126 - 22 150th St,Q,11436,718-659-6928
QANJ,1037792,198993,NYCEEC,North Side School - Parsons ( Half - Day ),84 - 60 Parsons Blvd,Q,11432,718-229-5050
QANR,1023600,215376,NYCEEC,Malcolm X Day Care,11112 Northern Blvd,Q,11368,718-651-7880
QANS,1058114,201386,NYCEEC,"A To Z Center Too, Inc.",220 - 24 Jamaica Ave,Q,11428,718-740-8400
QANT,1010890,210856,NYCEEC,Child Center Of NY 1,6002 Roosevelt Ave,Q,11377,718-943-2800
QANU,1018566,206123,NYCEEC,Happy Dragon Of New York,8602 57th Ave,Q,11373,718-397-5733
QANV,1023141,207444,NYCEEC,Happy Dragon Of USA Inc.,9825 Horace Harding Expy,Q,11368,718-271-5637
QANZ,1040910,155872,NYCEEC,Battalion Christian Academy,454 Bch 67 St,Q,11692,718-634-7172
QAOC,1044395,188580,NYCEEC,Afro American Parents,117 - 02 Guy Brewer Blvd,Q,11434,347-676-5077
QAOO,1024841,206519,NYCEEC,Forest Park - Beth Jacob,10235 63rd Rd,Q,11375,718-896-4444
QAOQ,1052952,161672,NYCEEC,Rockaway CCC,1466 Bch Channel Dr,Q,11691,718-327-1384
QAOW,1041882,187064,NYCEEC,All My Children Day Care 6,11716 Sutphin Blvd,Q,11434,718-322-2030
QAPB,1043382,192083,NYCEEC,All My Children Day Care 4,11015 164th Pl,Q,11433,718-526-5911
QAPD,1019247,202210,NYCEEC,NY League Forest Hills West,6325 Dry Hbr Rd,Q,11379,718-639-9750
QAPK,1037526,192496,NYCEEC,Concerned Parents Of Jamaica ELC,143 - 04 101st Ave,Q,11435,718-658-4091
QAPL,1030936,197073,NYCEEC,Sholom Day Care 1,8204 Lefferts Blvd,Q,11418,718-850-2934
QAPM,1041433,195926,NYCEEC,Charles R Drew ELC 3,16515 Archer Ave,Q,11433,718-523-7600
QAPP,1050411,191374,NYCEEC,Be Above Site 16,189 - 26 Linden Blvd,Q,11412,718-978-0400
QAPS,1049800,184577,NYCEEC,Be Above 22 ( New World Education Center ),13737 Farmers Blvd,Q,11434,718-528-8751
QAPU,1056311,195743,NYCEEC,Xcel Tiny Tots Inc.,113 - 15 Springfield Blvd,Q,11429,718-740-2557
QAPW,1002192,214313,NYCEEC,Queensbridge ECDC,38 - 11 27th St,Q,11101,718-722-6026
QAQC,1028325,177403,NYCEEC,Howard Beach Judea Center,16205 90th St,Q,11414,718-848-1111
QARC,1043060,154568,NYCEEC,Lucille Rose DCC,148 Bch 59th St,Q,11692,718-634-0331
QARE,1009287,214406,NYCEEC,PAL Woodside Early Learn Center,5037 Broadway,Q,11377,718-278-3616
QARG,1043654,190194,NYCEEC,South Jamaica Center For Children And Parents Inc. Center 1,11402 Guy R Brewer Blvd,Q,11434,718-526-2500
QARK,1030561,195499,NYCEEC,Sholom Day Care 2,8437 118th St,Q,11418,718-850-2934
QARN,1023236,204754,NYCEEC,All My Children Day Care 8,97 - 30 Queens Blvd,Q,11374,718-786-1166
QARO,1042016,187099,NYCEEC,Committee For Early Childhood Development Head Start 2,11721 Sutphin Blvd,Q,11434,718-848-0276
QARP,1044519,189050,NYCEEC,Myrtle P Jarmon ECEC,11655 Guy R Brewer Blvd,Q,11434,718-528-0922
QARQ,1045461,203314,NYCEEC,All My Children,83 - 10 188 St,Q,11423,718-576-6812
QARX,1017123,194776,NYCEEC,Redeemer Lutheran School,6926 Cooper Ave,Q,11385,718-821-6670
QASB,1022636,212934,NYCEEC,Mi Nuevo Mundo,104 - 19 39th Ave,Q,11368,718-476-3128
QASC,1037102,221173,NYCEEC,St. Mel School,15424 26th Ave,Q,11354,718-539-8211
QASD,1047947,216381,NYCEEC,Immanuel Genius,"213 - 03 Northern Blvd, 3fl",Q,11361,718-819-0190
QASE,1036286,190784,NYCEEC,"Talented Little Children III / TLC Spirit, LLC",104 - 40 134th St,Q,11419,718-658-4384
QASF,1034924,199998,NYCEEC,Ira's Parkway Day Care,14120 Grand Central Pkwy,Q,11435,718-739-6500
QASG,1033674,204304,NYCEEC,Positive Beginnings II,71 - 25 Main St,Q,11367,718-261-0211
QASH,1041702,207852,NYCEEC,Jewish Institute Of Queens,64 - 41 Utopia Pkwy,Q,11365,718-480-0100
QASI,1046683,199706,NYCEEC,"Early Sunrise Preschool And Kindergarten, Inc.",187 - 10 Hillside Ave,Q,11432,718-736-9064
QASJ,1037801,198967,NYCEEC,Northside School,84 - 60 Parsons Blvd,Q,11432,718-298-6161
QASK,1001433,216147,NYCEEC,Jackson Children's Services,3602 14th St,Q,11106,718-779-8800
QASL,1039977,196237,NYCEEC,Bessie & Nora's Place,90 - 05 161st St,Q,11432,718-739-0884
QASM,1001907,220726,NYCEEC,Ces Childcare,2 - 08 Astoria Blvd,Q,11102,917-832-6506
QASN,1036465,153570,NYCEEC,Early Steps Family Center,216 Bch 87th St,Q,11693,718-888-2301
QASO,1023433,191028,NYCEEC,St. Luke's Evangelical Lutheran Church,87 - 34 85th St,Q,11421,718-296-6683
QASP,1017390,209062,NYCEEC,Qing Sheng Wang GFDC,83 - 32 Cornish Ave,Q,11373,718-651-3372
QASR,1020594,216770,NYCEEC,"A Child's Place Too, Inc.",100 - 10 Astoria Blvd,Q,11369,646-302-8379
QAST,1012501,208731,NYCEEC,"ABC Preschool & Kindergarten Center, Corp.",66 - 20 Laurel Hl Blvd,Q,11377,718-672-2424
QASU,1022787,214732,NYCEEC,Child Center Of NY 2,3410 108th St,Q,11368,347-287-0175
QASV,1015231,211446,NYCEEC,Bwy Preschool,7714 Roosevelt Ave,Q,11372,718-205-4855
QASW,1019464,212789,NYCEEC,"Children's Big Apple, Inc.",3703 94th St,Q,11372,718-565-5311
QASX,1019264,211355,NYCEEC,"Children's Big Apple, Inc.",4126 Case St,Q,11376,718-565-5311
QASY,1011175,198534,NYCEEC,Gryc Little Stars @ Notre Dame,6281 60th Pl,Q,11385,718-456-5437
QATA,1009900,196752,NYCEEC,Jc's Daywatch Pre - K,20 St Johns Rd,Q,11385,718-381-3777
QATB,1023253,208338,NYCEEC,Johnson's Academy LLC,9904 57th Ave,Q,11368,718-592-7289
QATC,1017265,210883,NYCEEC,"Little Friends School Elmhurst, Inc.",8503 Britton Ave,Q,11373,718-458-5415
QATD,1007014,210182,NYCEEC,Little Friends School Sunnyside,43 - 42 47 St,Q,11104,718-786-4644
QATE,1049436,187492,NYCEEC,Center Of Excellence Springfield Gardens Preschool,127 - 08 Merrick Blvd,Q,11434,718-276-8200
QATH,1014147,205387,NYCEEC,Maspeth Town Hall Preschool,5337 72nd St,Q,11378,718-335-6049
QATJ,1023293,209237,NYCEEC,Smiles GFDC Inc.,53 - 14 102 St,Q,11368,917-943-3501
QATK,1017379,209073,NYCEEC,Ping Sheng Ye Group Family Day Care,8332 Cornish Ave,Q,11373,917-853-4865
QATL,1014059,209714,NYCEEC,Rainbow Christian Preschool,7201 43rd Ave,Q,11377,718-335-3361
QATM,1016236,210336,NYCEEC,Star America Preschool,"80 - 07 Broadway, 2 / F",Q,11373,718-396-9739
QATO,1003018,210744,NYCEEC,Long Island City YMCA,3223 Queens Blvd,Q,11101,212-912-2576
QATQ,1030465,215487,NYCEEC,Better Community Life DCC 2,13316 Roosevelt Ave,Q,11354,718-463-0403
QATS,1021997,214102,NYCEEC,Therese Cervini ECDC Site I,3533 104th St,Q,11368,718-478-2169
QATT,1035902,217337,NYCEEC,Preschool R Us,150 - 15 41st Ave,Q,11354,718-888-1958
QATU,1032797,213598,NYCEEC,Evbo Inc. D / B / A Jack & Jill Nursery School,4323 Colden St,Q,11355,718-762-1218
QATV,1034317,214730,NYCEEC,Happy Dragon Children's Learning Center Site 2,14330 Cherry Ave,Q,11355,718-445-8382
QATX,1038625,212577,NYCEEC,Immanuel Creative,16315 Oak Ave,Q,11358,718-460-9991
QATY,1041195,215505,NYCEEC,International Nursery School,171 - 39 Northern Blvd,Q,11358,718-353-0932
QATZ,1034672,205384,NYCEEC,"Judi's Nursery, Inc.",15005 70th Rd,Q,11367,718-520-1324
QAUA,1030841,216418,NYCEEC,Kon Wah Day School,13527 38th Ave 2nd Floor,Q,11354,718-353-4388
QAUB,1036680,204574,NYCEEC,"New Milestone, Inc.",15813 72nd Ave,Q,11365,718-380-1978
QAUC,1036415,227204,NYCEEC,Pee Wee Folks,1245 Clintonville St,Q,11357,718-746-6107
QAUD,1036136,227743,NYCEEC,Precious Moments,1102 Clintonville St,Q,11357,718-767-6655
QAUE,1030800,219622,NYCEEC,"Ready, Set, Grow Child Center, LLC",13616 31st Rd,Q,11354,718-888-7871
QAUG,1033498,218874,NYCEEC,Sharon Nursery,14515 34th Ave,Q,11354,718-539-8467
QAUH,1035326,220479,NYCEEC,"Corner School, The",15003 Bayside Ave,Q,11354,718-445-2811
QAUJ,1030417,216965,NYCEEC,Martin L King Jr. Mem DCC,3606 Prince St,Q,11354,718-886-3165
QAUK,1045927,222814,NYCEEC,Chabad ELC,21212 26th Ave,Q,11360,718-279-1457
QAUL,1053391,219671,NYCEEC,Community Church Of Douglaston,3950 Douglaston Pkwy,Q,11363,718-767-1961
QAUM,1044604,211822,NYCEEC,Home Sweet Home Children's School,19617 53 Ave,Q,11365,718-357-9738
QAUN,1041220,206562,NYCEEC,Jack & Jill II,6805 Fresh Mdw Ln,Q,11365,718-939-8687
QAUO,1047310,218308,NYCEEC,Noah's Ark Progressive Learning Center,3820 Bell Blvd,Q,11361,718-279-4251
QAUQ,1027207,223592,NYCEEC,YAI / NYL Clearview School Annex,12307 22 Ave,Q,11356,718-352-0104
QAUS,1047142,219122,NYCEEC,"Lutheran Schools Of Flushing And Bayside, The",3601 Bell Blvd,Q,11361,718-225-5502
QAUT,1039699,205916,NYCEEC,All My Children Day Care 2,16907 Jewel Ave,Q,11365,718-454-5600
QAUW,1041245,184720,NYCEEC,Alpha Kappa Alpha Epsilon Pi Omega DCC,14406 Rockaway Blvd,Q,11420,718-322-6242
QAVB,1031332,189727,NYCEEC,"Bev's Kiddie Daycare, Inc.",10145 113th St,Q,11419,718-850-3083
QAVC,1046424,156441,NYCEEC,Blanche Community Progress Dcc#2,4402 Bch Channel Dr,Q,11691,718-471-7881
QAVD,1047279,156339,NYCEEC,Community And Family Head Start,4105 Bch Channel Dr,Q,11691,718-471-7970
QAVE,1032071,192519,NYCEEC,De Anna Learning Center,9140 120th St,Q,11418,718-847-1310
QAVF,1031686,190450,NYCEEC,Cuomo First Step,11515 101st Ave,Q,11419,718-441-5333
QAVG,1032285,190674,NYCEEC,Russo First Step,11801 101st Ave,Q,11419,718-805-7117
QAVH,1037479,153642,NYCEEC,Hammel CCC,82 - 10 Rockaway Bch Blvd,Q,11693,718-474-3162
QAVI,1008019,143772,NYCEEC,Little Tots Red Wagon,20428 Rockaway Pt Blvd,Q,11697,718-945-1484
QAVJ,1047995,178209,NYCEEC,Jfkidsport,Jfk Airport Building 350,Q,11430,718-553-5437
QAVO,1040835,185019,NYCEEC,Omega Psi Phi Fraternity,12310 143rd St,Q,11436,718-322-9671
QAVP,1052893,156945,NYCEEC,On Our Way Learning Center,264 Bch 19 St,Q,11691,718-868-2961
QAVS,1029911,193883,NYCEEC,St. John's Lutheran Church,8620 114th St,Q,11418,718-441-3611
QAVU,1049845,190120,NYCEEC,"St. Albans Montessori DCC, Inc.",118 - 49 Montauk St,Q,11412,718-341-5945
QAVV,1023528,187386,NYCEEC,Up The Ladder,8011 101st Ave,Q,11416,718-843-4913
QAVW,1021796,148140,NYCEEC,West End Temple Nursery School,14702 Newport Ave,Q,11694,718-318-0030
QAVY,1029688,189977,NYCEEC,Nayda Day Care,9734 108th St,Q,11419,718-805-8893
QAVZ,1029694,189963,NYCEEC,Nayda Day Care II,9736 108th St,Q,11419,718-805-8893
QAWA,1032308,194686,NYCEEC,A To Z Learning Center,123 - 21 Jamaica Ave,Q,11418,718-805-4400
QAWC,1044665,188289,NYCEEC,Paccor Kids,11817 Guy R Brewer Blvd,Q,11434,718-525-9620
QAWE,1035784,197542,NYCEEC,Ira's Parkway Daycare & Preschool Inc.,139 - 76 85 Dr,Q,11435,917-807-2683
QAWG,1039416,198013,NYCEEC,Bright Beginnings Pre - School,8625 162nd St,Q,11432,718-297-6767
QAWH,1026604,204822,NYCEEC,Central Queens YM & YWHA,67 - 09 108th St,Q,11375,718-268-5011
QAWK,1029567,197371,NYCEEC,Sholom Sholom Inc.,11666 Park Ln South,Q,11415,718-850-2934
QAWM,1021810,204581,NYCEEC,Rego Park Day School,6344 Wetherole St,Q,11374,718-897-0693
QAWO,1023153,206307,NYCEEC,ICCD,98 - 02 62nd Dr,Q,11374,718-263-1587
QAWQ,1026956,204028,NYCEEC,Forest Hills CCC,108 - 05 68th Rd,Q,11375,718-263-5730
QAWS,1035688,190884,NYCEEC,It's My Turn,131 - 15 Liberty Ave,Q,11419,347-385-0824
QAWT,1041167,189650,NYCEEC,Afro - American Parents Educational Center Site 2,11206 Sutphin Blvd,Q,11435,718-322-9080
QAWU,1037203,194623,NYCEEC,"Sunshine School, LLC",9110 146th St,Q,11435,718-468-9000
QAWW,1037832,197999,NYCEEC,"Pickwick School, Inc.",15115 85th Dr,Q,11432,718-526-1340
QAWX,1038730,201187,NYCEEC,Apple Tree Nursery School,8225 164th St,Q,11432,718-374-0002
QAWY,1045800,186939,NYCEEC,CSC Montessori Center,165 - 27 Baisley Blvd,Q,11434,728-276-9538
QAWZ,1027345,203477,NYCEEC,All My Children Day Care ( 69th Ave ),10822 69th Ave,Q,11375,718-658-1563
QAXA,1039803,196665,NYCEEC,Colin Newll ECDC,161 - 06 89 Ave,Q,11432,718-722-6236
QAXC,1042639,200485,NYCEEC,All My Children Day Care ( Mayfield ),17544 Mayfield Rd,Q,11432,718-658-1563
QAXD,1052014,196609,NYCEEC,"Blanche Community Progress DCC, Inc.",10960 202nd St,Q,11412,718-479-1800
QAXF,1048844,199116,NYCEEC,Committee For Early Childhood Development,193 - 04 Jamaica Ave,Q,11423,718-464-2422
QAXI,1048668,182065,NYCEEC,Queens ECC,14502 Farmers Blvd,Q,11434,212-616-1851
QAXK,1038694,201346,NYCEEC,Kids Circle Daycare,164 - 04 Goethals Ave,Q,11432,718-380-1280
QAXL,1053224,183130,NYCEEC,Laurelton Day Care,14119 224th St,Q,11413,718-712-1860
QAXN,1051671,192003,NYCEEC,Montessori Progressive,19503 Linden Blvd,Q,11412,718-723-3967
QAXQ,1043333,197890,NYCEEC,Our Saviour Lutheran,90 - 04 175 Th St,Q,11432,718-739-7452
QAXV,1055738,202583,NYCEEC,Redeemer Lutheran Church And Nursery School,9210 217th St,Q,11428,718-465-3252
QAYB,1053511,197278,NYCEEC,Charles R Drew ELC 1,10945 207th St,Q,11429,718-740-2400
QAYD,1040547,195093,NYCEEC,"South Jamaica Center For Children And Parents, Inc.",94 - 43 160th St,Q,11433,718-523-6455
QAYE,1049910,190389,NYCEEC,Quick Start DCC,118 - 46 Riverton St,Q,11412,718-978-0800
QAYG,1005693,217526,NYCEEC,All Children's Child Care ( 31st Ave ),32 - 04 31st Ave ( Cellar ),Q,11106,718-777-2011
QAYH,1002858,216153,NYCEEC,All Children's Child Care ( 24th St. ),3501 24th St,Q,11106,718-707-0501
QAYI,1009936,216204,NYCEEC,Brite Adventure Center ( 30th St. ),4922 30th Ave,Q,11377,718-777-6664
QAYJ,1010067,210253,NYCEEC,Brite Adventure Center ( 58th St. ),4131 58th St,Q,11377,718-274-4769
QAYK,1011041,213285,NYCEEC,Christ Evangelical Lutheran Church,3357 58th St,Q,11377,718-205-1425
QAYL,1016029,213057,NYCEEC,82nd Street Academics,8110 35th Ave,Q,11372,718-457-0429
QAYN,1017376,215709,NYCEEC,Jackson Children's Services,3136 88th St,Q,11369,718-779-8800
QAYP,1008100,224198,NYCEEC,Kid Krazy @ 21st Avenue,2125 21 Ave,Q,11105,718-545-5728
QAYT,1003153,217260,NYCEEC,Queensview Nursery School & Kindergarten,2136 33rd Rd,Q,11106,718-728-4164
QAYU,1009194,211347,NYCEEC,Rainbowland Nursery School,3960 54th St,Q,11377,718-899-7590
QAYV,1014792,214233,NYCEEC,Rainbowland Nursery School,3311 77th St,Q,11372,718-803-1728
QAYW,1011680,220497,NYCEEC,St. Francis Of Assisi School,2118 46th St,Q,11105,718-726-9405
QAYX,1008746,217246,NYCEEC,St. Joseph School,28 - 46 44th St,Q,11103,718-728-0724
QAYZ,1017149,216191,NYCEEC,Atonement Pre - School,3061 87 St,Q,11369,718-639-6074
QAZC,999430,214286,NYCEEC,PAL Western Queens,1026 41st Ave,Q,11101,718-784-2092
QAZD,1003385,221166,NYCEEC,St. Margaret Mary ECDC,9 - 06 27 Ave,Q,11102,718-722-6236
QAZI,1039724,154631,NYCEEC,Sheldon R Weaver CCC,72 - 05 Bch Channel Dr,Q,11692,718-327-4078
QAZV,1032033,216864,NYCEEC,Macedonia CDC,3722 Un St,Q,11354,718-939-6060
QAZW,1002286,210576,NYCEEC,La Guardia Community College Pre - School,3110 Thomson Ave,Q,11101,718-482-5295
QBAA,1042858,218059,NYCEEC,"Sunshine Daycare Center, Inc.","34 - 57a Francis Lewis Blvd, #2a",Q,11358,718-353-1800
QBAB,1057456,182294,NYCEEC,"Mona Prep Day Care, Inc.",24115 North Conduit Ave,Q,11422,718-525-8555
QBAC,1059516,191077,NYCEEC,Cambria Center For The Gifted Child,233 - 10 Linden Blvd,Q,11411,718-341-1991
QBAF,1045832,223897,NYCEEC,Samuel Field YM & YWHA ( Bayside ),212 - 00 23rd Ave,Q,11360,718-423-6111
QBAJ,1040140,218148,NYCEEC,Community Nursery School Coth,167 - 07 35th Ave,Q,11358,718-539-0732
QBBC,1041051,224549,NYCEEC,Irene Kouba,1650 Utopia Pkwy,Q,11357,718-229-5050
QBBE,1057476,183228,NYCEEC,Our Kids Place Country Day,137 - 25 Brookville Blvd,Q,11422,718-276-3722
QBBF,1056050,218111,NYCEEC,Divine Wisdom Catholic Academy Douglaston,45 - 11 245th St,Q,11363,718-631-3153
QBBG,1042288,219298,NYCEEC,Han - I Preschool,19818 32nd Rd - 1st Floor,Q,11358,718-358-3377
QBBH,1031169,213849,NYCEEC,"New Milestone, Inc.",13254 Pople Ave,Q,11355,718-539-2068
QBBL,1012431,211196,NYCEEC,"ABC Kiddieland, Inc.",6521a Roosevelt Ave,Q,11377,718-651-3551
QBBM,1010059,220976,NYCEEC,Mushroom House Day Care LLC,38 - 00 Ditmars Blvd,Q,11105,917-500-5022
QBBN,1013148,199305,NYCEEC,Noah's Ark Progressive Learning Center,6248 Mt Olivet Cres,Q,11379,347-335-0044
QBBP,1055977,185904,NYCEEC,The Laugh And Learn Place,228 - 23 Merrick Blvd,Q,11413,718-525-6194
QBBQ,1032104,215791,NYCEEC,Most Holy Redeemer Catholic Academy,136 - 58 41st Ave,Q,11355,718-961-0246
QBBR,1050263,219672,NYCEEC,ICCD,35 - 55 223rd St,Q,11361,718-428-5370
QBBU,1056269,196216,NYCEEC,"Nurturing Center, Inc., The",112 - 18 Springfield Blvd,Q,11429,718-527-5932
QBCC,1047824,185923,NYCEEC,"Rochdale Village Nursery School, Inc.",17030 130th Ave,Q,11434,718-723-2224
QBCD,1022657,212941,NYCEEC,Mi Nuevo Mundo,10421 39th Ave,Q,11368,718-476-3128
QBCQ,1049352,201227,NYCEEC,Haup UPK Program,197 - 25 Hillside Ave,Q,11423,718-527-3776
QBCS,1023224,210957,NYCEEC,"Funday Daycare Center, Inc.",47 - 05 104th St,Q,11368,718-460-8552
QBCT,1036786,229053,NYCEEC,Kiddie Academy Of Whitestone,7 - 05 152nd St,Q,11357,718-747-5555
QBCW,1035674,190876,NYCEEC,It's My Turn,131 - 13 Liberty Ave,Q,11419,718-845-4973
QBDA,1039492,197912,NYCEEC,Highland Academics,162 - 10 Highland Ave,Q,11432,718-457-0429
QBDB,1019540,206629,NYCEEC,"Queens Pointe Talent, Inc.",90 - 02 Queens Blvd,Q,11373,917-913-1787
QBDC,1020006,214786,NYCEEC,SCO Corona Early Childhood Education Center,33 - 27 97th St,Q,11368,718-779-1660
QBDD,1005480,218188,NYCEEC,Hellenic Orthodox Community Of Astoria St. Demetrios,30 - 11 30 Dr,Q,11102,718-728-1754
QBDI,1039753,154669,NYCEEC,"Bethel Mission Station Church, Inc.",72 - 05 Bch Channel Dr,Q,11692,718-474-8618
QBDO,1054853,158335,NYCEEC,Bnos Bais Yaakov Of Far Rockaway,613 Bch 9 St,Q,11691,718-337-6000
QBEC,1017677,205408,NYCEEC,Emilia's Kids,8403 57 Ave,Q,11373,718-899-9060
QBEF,1016300,202133,NYCEEC,"Learning Tree, The",7415 Juniper Blvd North Room 2,Q,11379,718-899-2020
QBEG,1019684,207726,NYCEEC,Magic Years Preschool And Nursery,"90 - 20 55th Ave, 1 / F",Q,11373,718-271-1850
QBEH,1021497,212583,NYCEEC,Mi Nuevo Mundo Corp.,10003 39th Ave,Q,11368,718-476-3128
QBEJ,1032025,214252,NYCEEC,Queens Herald Community Corp.,"42 - 35 Main St, 2nd Floor",Q,11355,646-535-7245
QBEK,1013635,195824,NYCEEC,YMCA Of Greater NY - Ridgewood Y,6902 64th St,Q,11385,212-912-2185
QBEO,1060350,218772,NYCEEC,ABC ELC,54 - 25 Little Nck Pkwy,Q,11362,718-225-8044
QBEQ,1051240,208998,NYCEEC,Appletree DCC,7320 Bell Blvd,Q,11364,718-264-1588
QBGC,1020769,215986,NYCEEC,Sunflower Kidz Day Care,10017 32nd Ave,Q,11369,347-709-7793
QBGD,1041495,192554,NYCEEC,Afro - American #4,10817 159th St,Q,11433,347-676-5077
QBGH,1035290,198279,NYCEEC,Renanim Day Care,14129 84th Dr,Q,11435,718-206-4400
QBGI,1039421,202706,NYCEEC,Tiny Footsteps,167 - 01 Un Tpke,Q,11366,718-969-5500
QBGJ,1049009,199312,NYCEEC,Committee For Early Childhood Development DCC,193 - 25 Jamaica Ave,Q,11423,718-264-6572
QBGK,1043827,216250,NYCEEC,Kon Gen International Preschool,196 - 25 42nd Ave,Q,11358,718-281-2338
QBGL,1018284,207840,NYCEEC,"Star Paradise, Inc.",8655 Broadway 2nd Floor,Q,11373,718-255-1899
QBGM,1053266,156934,NYCEEC,Yeshiva Darchei Torah,257 Bch 17 St,Q,11691,718-868-2300
QBGO,1004833,210719,NYCEEC,Sunnyside Community Services,43 - 31 39th St Sunnyside,Q,11104,718-684-6173
QBGP,1019778,211459,NYCEEC,Moving Up Children Center,4069 94 St,Q,11373,718-271-5637
QBGR,1009845,215010,NYCEEC,Mi Nuevo Mundo,5102 31st Ave,Q,11377,718-476-3128
QBGS,1051811,211680,NYCEEC,Ivy League Early Learning Academy,6158 Springfield Blvd,Q,11364,718-352-8972
QBGU,1017631,198864,NYCEEC,Positive Beginnings Preschool,72 - 52 Metropolitan Ave,Q,11379,718-326-0055
QBGV,1046551,207200,NYCEEC,Apple Tree DCC ( 197th St. ),7312 197 St,Q,11366,718-217-6666
QBGW,1002318,216340,NYCEEC,Catholic Charities At Ravenswood ( Andrew Landi ),2120 35th Ave,Q,11106,718-806-1598
QBHB,1038310,202825,NYCEEC,Rainbow Child Dev Center II,77 - 40 164 St,Q,11366,718-969-1900
QBHK,1041264,197375,NYCEEC,Rising Stars Islamic School ( Lcna ),166 - 26 89 Ave,Q,11432,646-243-5895
QBHL,1007683,218021,NYCEEC,My Little Footprints Daycare Corp.,28 - 34 38th St,Q,11103,718-626-2201
QBHM,1057467,220236,NYCEEC,Immanuel Genius,253 - 01 Northern Blvd,Q,11362,718-877-3001
QBHN,1057371,220244,NYCEEC,Leading Kids Preschool,44 - 07 Little Nck Pkwy,Q,11363,718-229-6400
QBHO,1031005,219884,NYCEEC,Holy Mountain,29 - 49 137th St,Q,11354,718-359-6080
QBHP,1030492,214882,NYCEEC,Happy Maryann Day School,132 - 18 41st Ave,Q,11355,718-886-8266
QBHQ,1034184,202942,NYCEEC,Ohr Osher And Yaffa 75,75 - 21 Main St,Q,11367,347-233-2087
QBHR,1017773,213636,NYCEEC,Kathy's Day Care,34 - 47 88th St,Q,11372,347-761-8678
QBHS,1040117,191442,NYCEEC,Bright Kids Day Care,108 - 42 Sutphin Blvd,Q,11435,718-262-0909
QBHV,1022670,192347,NYCEEC,Queens Library UPK - Woodhaven,85 - 41 Frst Pkwy,Q,11421,718-849-1069
QBHW,1001882,216441,NYCEEC,Ravenswood,35 - 32 21st St,Q,11106,718-990-0882
QBHX,1005677,217499,NYCEEC,Adventureland Child Care,32 - 04 31st Ave ( 2nd Fl ),Q,11106,718-777-2011
QBHY,1038359,183174,NYCEEC,Aim High Leadership Academy,131 - 44 134th St,Q,11420,917-288-8290
QBIB,1034094,191358,NYCEEC,Learning Ladder Center,125 - 19 101 Ave,Q,11419,718-480-6444
QBIC,1056446,192525,NYCEEC,Cambria Heights Christian Academy,220 - 12 Linden Blvd,Q,11411,718-712-7034
QBIE,1023229,210958,NYCEEC,Cpc Corona Queens UPK,47 - 05 104th St,Q,11368,718-358-7602
QBIG,1033092,218920,NYCEEC,Kiddie Academy Of Flushing,33 - 25 Parsons Blvd,Q,11354,718-888-9499
QBIH,1021542,212600,NYCEEC,Mi Nuevo Mundo,100 - 09 39 Ave,Q,11368,718-476-3128
QBII,1044044,199244,NYCEEC,Academy Of Excellence Bell Park 7,178 - 36 Wexford Ter,Q,11432,718-523-4400
QBIS,1030247,200767,NYCEEC,Baby Steps Daycare Center II,112 - 18 76 Rd,Q,11375,718-451-6094
QBIX,1053182,192390,NYCEEC,"Sunshine Learning Center, Inc.",201 02 - 04 Linden Blvd,Q,11412,718-525-2154
QBIY,1053231,187082,NYCEEC,Kidz World ECC,217 - 21 Merrick Blvd,Q,11413,718-276-7649
QBIZ,1035574,208916,NYCEEC,Preschool R Us II,59 - 25 Kissena Blvd,Q,11354,718-888-9878
QBJC,1016638,209435,NYCEEC,Maroos Preschool,4502 82nd St,Q,11373,646-358-9577
QBJE,1048621,214862,NYCEEC,Morning Star Preschool,47 - 24 Bell Blvd,Q,11361,718-229-0206
QBJH,1043790,155611,NYCEEC,Bethel Mission Station Church Loving DCC,338 Bch 56 St,Q,11692,718-474-8618
QBJJ,1024660,192800,NYCEEC,North Side School,85 - 27 91st St,Q,11421,718-229-5050
QBJN,1037125,202173,NYCEEC,Al - Mamoor School,78 - 31 Parsons Blvd,Q,11366,718-739-0902
QBJO,1004603,220607,NYCEEC,Al Madinah School,1824 Astoria Blvd,Q,11102,718-222-4986
QBJP,1006791,210523,NYCEEC,Magic Beans,43 - 12 46th St,Q,11104,718-786-8091
QBJQ,1015094,214364,NYCEEC,Garden School,78 - 02 Northern Blvd,Q,11372,718-335-6363
QBJR,1017472,218835,NYCEEC,Grace Daycare Center,89 - 00 23rd Ave,Q,11369,718-803-0345
QBJV,1030833,213831,NYCEEC,Khwoa Bhoa Day School,132 - 25 Pople Ave,Q,11355,718-353-3628
QBJX,1049349,212625,NYCEEC,Divine Wisdom Catholic Academy,56 - 10 214th St,Q,11364,718-631-3153
QBKE,1031241,197128,NYCEEC,Sholom Sholom Inc.,84 - 15 Beverly Rd,Q,11415,718-850-2934
QBLD,1012555,211207,NYCEEC,ABC Kiddieland DCC,67 - 05 Roosevelt Ave,Q,11377,718-651-3551
QBLF,1005526,219560,NYCEEC,Discovery Lane DCC,27 - 17 27 St,Q,11102,347-652-7739
QBLI,1036812,219159,NYCEEC,I Bear Daycare Center,33 - 15 154th St,Q,11354,718-939-3870
QBLK,1037758,207852,NYCEEC,Kids Advocate DCC Inc.,61 - 54 162 St,Q,11365,914-426-7423
QBLM,1039981,204761,NYCEEC,Keren Ohr Daycare,170 - 16 73rd Ave,Q,11366,917-667-0795
QBLR,1016058,199581,NYCEEC,Play And Learn DCC,66 - 06 70th St,Q,11379,646-872-9241
QBLV,1057036,219559,NYCEEC,Rainbow - Little Neck,250 - 21 Northern Blvd,Q,11362,718-321-1610
QBLY,1035444,205550,NYCEEC,Ivy Day School,70 - 44 Kissena Blvd,Q,11367,718-880-1888
QBMC,1030667,198880,NYCEEC,"Beth Gavriel DCC, Inc.",119 - 03 80th Rd,Q,11415,917-416-4416
QBME,1013879,194589,NYCEEC,Happily Ever After,62 - 02 Myrtle Ave,Q,11385,347-529-6718
QBMF,1035224,216150,NYCEEC,The Little Learning Center,147 - 32 Sanford Ave,Q,11355,347-732-4307
QBMJ,1045591,191007,NYCEEC,Allen Christian School,114 - 32 Merrick Blvd,Q,11434,718-657-2500
QBMK,1026265,202723,NYCEEC,Ivy Day School,104 - 70 Queens Blvd,Q,11375,718-880-1888
QBML,1038512,185045,NYCEEC,Al - Ihsan Academy,134 - 02 Rockaway Blvd,Q,11420,718-322-3154
QBMP,1006353,211014,NYCEEC,Sunnyside Friends,41 - 32 44 St,Q,11104,718-786-4644
QBMQ,1041320,216210,NYCEEC,Eunyoung Chang Corp.,40 - 27 172 St,Q,11358,212-960-3613
QBMZ,1048779,216598,NYCEEC,The Learning Experience,215 - 15 Northern Blvd,Q,11361,917-634-6755
QBNF,1037579,185149,NYCEEC,Al - Ihsan Academy 3,130 - 20 Rockaway Blvd,Q,11420,718-322-3154
QBNI,1040917,190154,NYCEEC,D'little Star Day Care,111 - 08 Sutphin Blvd,Q,11435,352-812-6661
QBNJ,1024024,206281,NYCEEC,Fairytale Daycare Pre School Center,99 - 13 63rd,Q,11374,718-275-0204
QBNM,1036203,190994,NYCEEC,Talented Little Children III,104 - 18 134th St,Q,11419,718-658-4384
QBNN,1006450,220310,NYCEEC,New Milestone,27 - 18 Hoyt Ave South,Q,11102,718-380-1978
R001,916394,124757,DOE,P.S. 001 Tottenville,58 Smt St,R,10307,718-984-0960
R003,925407,129019,DOE,P.S. 003 The Margaret Gioiosa School,80 South Goff Ave,R,10309,718-984-1021
R004,929927,140491,DOE,P.S. 004 Maurice Wollin,200 Nedra Ln,R,10312,718-984-1197
R006,920131,125360,DOE,P.S. 006 Corporal Allan F Kivlehan School,555 Page Ave,R,10307,718-697-3760
R008,941939,138820,DOE,P.S. 008 Shirlee Solomon,112 Lindenwood Rd,R,10308,718-356-2800
R009,958999,158749,DOE,Naples Street Elementary School,1055 Targee St,R,10304,718-876-4610
R011,957047,154511,DOE,P.S. 011 Thomas Dongan School,50 Jefferson St,R,10304,718-979-1030
R013,965019,162646,DOE,P.S. 013 M L Lindemeyer,191 Vermont Ave,R,10305,718-447-1462
R016,962221,172351,DOE,P.S. 016 John J Driscoll,80 Monroe Ave,R,10301,718-447-0124
R018,951731,171264,DOE,P.S. 018 John G Whittier,221 Broadway,R,10310,718-442-0216
R019,948970,169185,DOE,P.S. 019 The Curtis School,780 Post Ave,R,10310,718-442-3860
R022,942320,167050,DOE,P.S. 022 Graniteville,1860 Frst Ave,R,10303,718-442-2219
R023,947379,147315,DOE,P.S. 023 Richmondtown,30 Natick St,R,10306,718-351-1155
R026,931420,154880,DOE,P.S. 026 The Carteret School,4108 Victory Blvd,R,10314,718-698-1530
R029,951976,162938,DOE,P.S. 029 Bardwell,1581 Victory Blvd,R,10314,718-556-4400
R030,947331,164417,DOE,P.S. 030 Westerleigh,200 Wardwell Ave,R,10314,718-442-0462
R031,960545,173121,DOE,P.S. 031 William T Davis,55 Layton Ave,R,10301,718-273-3500
R032,941122,142722,DOE,P.S. 032 The Gifford School,32 Elverton Ave,R,10308,718-984-1688
R036,933540,137305,DOE,P.S. 036 J C Drumgoole,255 Ionia Ave,R,10312,718-984-1422
R038,956627,148713,DOE,P.S. 038 George Cromwell,421 Lincoln Ave,R,10306,718-351-1225
R039,964769,157094,DOE,P.S. 039 Francis J Murphy Jr.,71 Sand Ln,R,10305,718-447-4543
R041,953966,148375,DOE,P.S. 041 New Dorp,216 Clawson St,R,10306,718-351-6777
R042,937134,140519,DOE,P.S. 042 Eltingville,380 Genesee Ave,R,10312,718-984-3800
R044,940714,169414,DOE,P.S. 044 Thomas C Brown,80 Maple Pkwy,R,10303,718-442-0433
R045,954439,168242,DOE,P.S. 045 John Tyler,58 Lawrence Ave,R,10310,718-442-6123
R046,961867,155715,DOE,P.S. 046 Albert V Maniscalco,41 Reid Ave,R,10305,718-987-5155
R048,959003,158808,DOE,P.S. 048 William C Wilcox,1050 Targee St,R,10304,718-447-8323
R050,949548,143884,DOE,P.S. 050 Frank Hankinson,200 Adelaide Ave,R,10306,718-987-0396
R052,959604,151523,DOE,P.S. 052 John C Thompson,450 Buel Ave,R,10305,718-351-5454
R053,946179,140518,DOE,P.S. 053 Bay Terrace,330 Durant Ave,R,10308,718-987-8020
R054,946017,158979,DOE,P.S. 054 Charles W Leng,1060 Willowbrook Rd,R,10314,718-698-0600
R055,938779,134762,DOE,P.S. 055 Henry M Boehm,54 Osborne St,R,10312,718-356-2211
R056,924769,136810,DOE,P.S. 056 The Louis Desario School,250 Kramer Ave,R,10309,718-605-1189
R057,961094,161971,DOE,P.S. 057 Hubert H Humphrey,140 Palma Dr,R,10304,718-447-1191
R058,939621,151816,DOE,Space Shuttle Columbia School,77 Marsh Ave,R,10314,718-761-2155
R059,961097,175203,DOE,The Harbor View School,300 Richmond Ter,R,10301,718-390-2190
R060,939247,161684,DOE,P.S. 060 Alice Austen,55 Merrill Ave,R,10314,718-761-3325
R062,923599,136615,DOE,P.S. 62,644 Bloomingdale Rd,R,10309,718-935-3615
R065,962491,170181,DOE,P.S. 065 The Academy Of Innovative Learning,98 Grant St,R,10301,718-981-5034
R069,940576,154792,DOE,P.S. 069 Daniel D Tompkins,144 Keating Pl,R,10314,718-698-6661
R078,962270,165980,DOE,P.S. 078,100 Tompkins Ave,R,10304,718-442-3094
R080,955015,160989,DOE,The Michael J Petrides School,715 Ocean Ter,R,10301,718-815-0186
R861,938504,165375,DOE,Staten Island School Of Civic Leadership,280 Regis Dr,R,10314,718-697-5250
RAAA,960125,156718,NYCEEC,Academy Of St. Dorothy,1305 Hylan Blvd,R,10305,718-351-0939
RAAH,944496,147906,NYCEEC,Community Resources Preschool,3651 Richmond Rd,R,10306,718-568-3105
RABA,916683,124975,NYCEEC,Our Lady Help Of Christians,23 Smt St,R,10307,718-984-1360
RABC,949450,169902,NYCEEC,Our Lady Of Mount Carmel St. Benedicta,285 Clove Rd,R,10310,718-981-5131
RABD,951537,149149,NYCEEC,Our Lady Queen Of Peace School,22 Steele Ave,R,10306,718-351-0370
RABJ,952594,170134,NYCEEC,Sacred Heart School,301 North Burgher Ave,R,10310,718-442-0347
RABL,957287,154579,NYCEEC,St. Ann School,125 Cromwell Ave,R,10304,718-351-4343
RABM,951491,144636,NYCEEC,St. Charles School,200 Penn Ave,R,10306,718-987-0200
RABN,954083,151298,NYCEEC,St. Christopher School,15 Lisbon Pl,R,10306,718-351-0902
RABP,950541,161851,NYCEEC,St. John's Ev Preschool,663 Mnr Rd,R,10314,718-761-1858
RABZ,945580,147858,NYCEEC,St. Patrick's,3560 Richmond Rd,R,10306,718-979-8815
RACC,957124,172947,NYCEEC,St. Peter - St. Paul School,129 Clinton Ave,R,10301,718-447-1796
RACE,947871,159613,NYCEEC,St. Rita School,30 Wellbrook Ave,R,10314,718-761-2504
RACH,951680,162699,NYCEEC,St. Teresa Of The Infant Jesus,1632 Victory Blvd,R,10314,718-448-9650
RACL,934083,144461,NYCEEC,The Gingerbread Learning Center,80 Woodrow Rd,R,10312,718-356-0008
RACN,946604,170403,NYCEEC,"United Cerebral Palsy Of New York City, Inc.",281 Prt Richmond Ave,R,10302,718-442-6006
RACS,951709,171544,NYCEEC,Children's Aid Society Richmond ELC,159 Broadway,R,10310,917-426-0300
RACT,959544,170967,NYCEEC,Staten Island Mental Health Society III,10 Kingsley Pl,R,10301,718-816-5168
RACX,959591,169066,NYCEEC,Jewish Community Center Of Staten Island,485 Victory Blvd,R,10301,718-475-5286
RADB,939950,169336,NYCEEC,Little Lamb Preschool,2 Gridley Ave,R,10303,718-448-7774
RADK,941848,161075,NYCEEC,Bumblebees - R - Us,2734 Victory Blvd,R,10314,718-494-4448
RADL,961326,151792,NYCEEC,Busy Beach Day Care Inc.,777 Seaview Ave Building 11,R,10305,718-667-2861
RADM,944628,168585,NYCEEC,CAS SI Family Services Center,465 Villa Ave,R,10302,718-273-5305
RADN,961424,166260,NYCEEC,Foch,195 Gordon St,R,10304,917-567-3545
RADP,951161,162865,NYCEEC,Castleton Hill Moravian Preschool,1657 Victory Blvd,R,10314,718-442-5350
RADW,951485,147754,NYCEEC,Staten Island Pre - School,145 Ross Ave,R,10306,718-667-9235
RAEG,956771,151285,NYCEEC,Islander's Kids,219 Jefferson Ave,R,10306,718-979-5331
RAEH,944593,137912,NYCEEC,Smiles Around Us,3854 Hylan Blvd,R,10308,718-475-5234
RAEM,965357,158486,NYCEEC,Sisters Of St. John The Baptist Inc.,57 Cleveland Pl,R,10305,718-447-4150
RAEN,938237,166739,NYCEEC,Rose Group Family Day Care I,104 Birch Rd,R,10303,718-913-0327
RAEW,942018,169003,NYCEEC,"4 Angels Day Care, Inc.",245 Simonson Ave,R,10303,718-876-6498
RAEX,963114,156273,NYCEEC,Holy Rosary School,100 Jerome Ave,R,10305,718-447-6209
RAEY,943439,168670,NYCEEC,St. Adalbert's School,355 Morningstar Rd,R,10303,718-442-2020
RAFF,939029,158816,NYCEEC,Big Birds Playhouse Corp.,1859 Richmond Ave,R,10314,718-982-0550
RAFG,923662,136212,NYCEEC,Friends Preschool,610 Bloomingdale Rd,R,10309,718-984-5194
RAFH,962076,167037,NYCEEC,"Castle Day Care II, Inc.",211 Canal St,R,10304,718-448-5439
RAFI,950820,170438,NYCEEC,"Castle Day Care, Inc.",1141 Castleton Ave,R,10310,718-447-3140
RAFJ,949445,169948,NYCEEC,Child Study Center Of New York,285 Clove Rd,R,10310,718-442-8588
RAFK,955191,174203,NYCEEC,Children's Harbor Montessori School,1000 Richmond Ter,R,10301,718-442-6112
RAFL,939144,155283,NYCEEC,The Foresight School,2221 Richmond Ave,R,10314,718-761-6060
RAFN,926370,136598,NYCEEC,"High Hopes Of Staten Island, Inc.",1298 Woodrow Rad,R,10309,718-317-8143
RAFO,949163,155993,NYCEEC,Jewish Community Center Of Staten Island,1466 Mnr Rd,R,10314,718-475-5225
RAFP,933255,145404,NYCEEC,Jewish Community Center Of Staten Island,1297 Arthur Kill Rd,R,10312,718-475-5224
RAFR,915791,124835,NYCEEC,Mini World Preschool,7516 Amboy Rd,R,10307,718-948-9535
RAFS,922449,124996,NYCEEC,Mission Of The Immaculate Virgin,6581 Hylan Blvd,R,10309,718-317-2849
RAFU,931566,133453,NYCEEC,Stepping Stones Preschool,5394 Amboy Rd,R,10312,718-948-4878
RAFV,924006,131587,NYCEEC,Small World Pre - School,144 Bloomingdale Rd,R,10309,718-356-7795
RAFW,942688,140612,NYCEEC,South Shore Toddler Academy,11 Sampson Ave,R,10308,718-356-3563
RAFX,942106,145983,NYCEEC,The Tanglewood Montessori,15 Tanglewood Dr,R,10308,718-967-2424
RAFY,942732,153780,NYCEEC,Children's Playhouse,85 Monahan Ave,R,10314,718-761-0129
RAFZ,941705,160839,NYCEEC,College Of Staten Island - The Children's Center,2800 Victory Blvd,R,10314,718-982-3190
RAGA,958599,151075,NYCEEC,"Wonder Years Preschool, The",381 Seaver Ave,R,10305,718-987-7596
RAGC,956626,169491,NYCEEC,Yeled V'Yalda Silver Lake I Head Start,10 Gregg Pl,R,10301,718-815-4488
RAGD,962609,163785,NYCEEC,Yeled V'Yalda / Silver Lake Head Start II,20 Park Hl Cir,R,10304,718-720-0090
RAGF,952576,167108,NYCEEC,SI YMCA Nursery - North,651 Broadway,R,10310,718-981-4933
RAGG,938945,136981,NYCEEC,SI YMCA Nursery - South,3939 Richmond Ave,R,10312,718-227-3200
RAGH,941737,151066,NYCEEC,Richmond Hill Children's Center,"501 Richmond Hl Rd,",R,10314,718-494-7422
RAGJ,939248,169988,NYCEEC,Staten Island Mental Health Society Head Start,166 Lockman Ave,R,10303,718-494-0400
RAGK,960552,164739,NYCEEC,Staten Island Head Start,16 Osgood Ave,R,10304,718-420-6138
RAGM,956236,153374,NYCEEC,Staten Island Head Start,44 Dongan Hls Ave,R,10306,718-987-7755
RAGR,942445,163281,NYCEEC,Rabbi Jacob Joseph School,400 Caswell Ave,R,10314,718-982-8745
RAHA,950549,158918,NYCEEC,Lemon Tree,341 Elvin St,R,10314,718-370-2292
RAHC,947411,142999,NYCEEC,Cbi Academy Preschool,45 Twombly Ave,R,10306,718-987-6200
RAHD,942848,161708,NYCEEC,J & J Academy,55 Wyona Ave,R,10314,718-698-0280
RAHW,939629,133423,NYCEEC,Staten Island Children's Academy,50 Osage Ln,R,10312,718-227-2500
RAHZ,954712,148235,NYCEEC,"Hylan Day Care, Inc.",2346 Hylan Blvd,R,10306,718-351-2705
RAIJ,953757,167799,NYCEEC,Hugs & Kiddies,140 Harvest Ave,R,10310,718-273-6141
RAIM,919601,137585,NYCEEC,Prodigy Preschool / Staten Island Skating Pavilion,3080 Arthur Kill Rd,R,10309,718-948-4800
RAIT,939290,159658,NYCEEC,Ivy League Early Learning Academy,1779 Richmond Ave,R,10314,718-982-0202
RAIX,949099,168060,NYCEEC,Blessed Sacrament Early Childhood Academy,840 Delafield Ave,R,10310,718-442-3090
RAJA,928119,131962,NYCEEC,Alphabet Ac,65 Foster Rd,R,10309,917-846-8289
X001,1006649,237683,DOE,P.S. 001 Courtlandt School,335 East 152 St,X,10451,718-292-9191
X003,1014171,249042,DOE,P.S. 3 Raul Julia Micro Society,2100 Lafontaine Ave,X,10457,718-584-1899
X004,1012480,245915,DOE,P.S. / M.S. 004 Crotona Park West,1701 Fulton Ave,X,10457,718-583-6655
X005,1009538,235709,DOE,P.S. 5 Port Morris,564 Jackson Ave,X,10455,718-292-2683
X006,1016803,245588,DOE,P.S. 006 West Farms,1000 East Tremont Ave,X,10460,718-542-7676
X009,1012258,251425,DOE,P.S. 9 Ryer Avenue Elementary School,230 East 183 St,X,10458,718-584-3291
X016,1024477,268049,DOE,P.S. 016 Wakefield,4550 Carpenter Ave,X,10470,718-324-1262
X018,1005598,236750,DOE,P.S. 018 John Peter Zenger,502 Morris Ave,X,10451,718-292-2868
X020,1017702,256118,DOE,P.S. 20 Pogeorge J Werdan III,3050 Webster Ave,X,10467,718-515-9370
X023,1013356,250167,DOE,P.S. 023 The New Children's School,2151 Washington Ave,X,10457,718-584-3992
X025,1010315,235403,DOE,P.S. 025 Bilingual School,811 East 149 St,X,10455,718-292-2995
X028,1010903,248358,DOE,P.S. 028 Mount Hope,1861 Anthony Ave,X,10457,718-583-6444
X029,1007217,238546,DOE,P.S. / M.S. 029 Melrose School,758 Courtlandt Ave,X,10451,718-292-3785
X030,1007030,234117,DOE,P.S. 030 Wilton,510 East 141 St,X,10454,718-292-8817
X031,1005923,239014,DOE,P.S. / M.S. 031 The William Lloyd Garrison,250 East 156 St,X,10451,718-292-4397
X032,1015772,249682,DOE,P.S. 032 Belmont,690 East 183 St,X,10458,718-584-3645
X033,1011575,253227,DOE,P.S. 033 Timothy Dwight,2424 Jerome Ave,X,10468,718-584-3926
X036,1025718,241505,DOE,P.S. 036 Unionport,1070 Castle Hl Ave,X,10472,718-822-5345
X042,1011063,244800,DOE,P.S. 042 Claremont,1537 Washington Ave,X,10457,718-583-7366
X043,1006012,233079,DOE,P.S. 043 Jonas Bronck,165 Brown Pl,X,10454,718-292-4502
X044,1014390,246221,DOE,P.S. 044 David C Farragut,1825 Prospect Ave,X,10457,718-583-2360
X048,1015563,235913,DOE,P.S. 048 Joseph R Drake,1290 Spofford Ave,X,10474,718-589-4312
X049,1005573,234479,DOE,P.S. 049 Willis Avenue,383 East 139 St,X,10454,718-292-4623
X051,1015560,249327,DOE,P.S. 051 Bronx New School,695 East 182nd St,X,10457,718-733-0347
X053,1008689,242660,DOE,P.S. 053 Basheer Quisim,360 East 168 St,X,10456,718-681-7276
X054,1015291,254403,DOE,P.S. / I.S. 54,2703 Webster Ave,X,10458,718-584-4203
X055,1010528,243936,DOE,P.S. 055 Benjamin Franklin,450 Saint Paul's Pl,X,10456,718-681-6227
X057,1014956,248449,DOE,P.S. 057 Crescent,2111 Crotona Ave,X,10457,718-367-9446
X058,1012243,247576,DOE,P.S. 058,459 East 176 St,X,10457,718-583-6866
X059,1013708,250098,DOE,P.S. 059 The Community School Of Technology,2185 Bathgate Ave,X,10457,718-584-4730
X061,1013990,244011,DOE,P.S. 061 Francisco Oller,1550 Crotona Park East,X,10460,718-542-7230
X062,1011862,235824,DOE,P.S. 062 Inocensio Casanova,660 Fox St,X,10455,718-585-1617
X063,1011338,242084,DOE,P.S. 063 Author's Academy,1260 Franklin Ave,X,10456,718-589-3058
X065,1008419,233518,DOE,P.S. 065 Mother Hale Academy,677 East 141 St,X,10454,718-292-4628
X066,1015564,242160,DOE,P.S. 066 School Of Higher Expectations,1001 Jennings St,X,10460,718-319-2820
X067,1016179,246729,DOE,P.S. 067 Mohegan School,2024 Mohegan Ave,X,10460,718-823-4101
X068,1028857,264112,DOE,P.S. 068 Bronx,4011 Monticello Ave,X,10466,718-324-2854
X069,1022824,236911,DOE,P.S. 069 Journey Prep School,560 Thieriot Ave,X,10473,718-378-4736
X072,1034609,239156,DOE,P.S. 072 Dr. William Dorney,2951 Dewey Ave,X,10465,718-822-5311
X073,1004578,242650,DOE,P.S. 073 Bronx,1020 Anderson Ave,X,10452,718-681-6776
X075,1014930,238891,DOE,P.S. 75 School Of Research And Discovery,984 Faile St,X,10459,718-860-1630
X077,1018597,257169,DOE,Bedford Park Elementary School,3177 Webster Ave,X,10467,718-696-6400
X078,1025542,259409,DOE,P.S. 078 Anne Hutchinson,1400 Needham Ave,X,10469,718-652-1244
X085,1013385,252272,DOE,P.S. 085 Great Expectations,2400 Marion Ave,X,10458,718-584-5275
X086,1012385,256185,DOE,P.S. 086 Kingsbridge Heights,2756 Reservoir Ave,X,10468,718-584-5585
X089,1023177,253641,DOE,P.S. 089 Bronx,980 Mace Ave,X,10469,718-653-0835
X092,1014827,247638,DOE,P.S. 092 Bronx,700 East 179 St,X,10457,718-731-7900
X093,1018192,238772,DOE,P.S. 093 Albert G Oliver,1535 Story Ave,X,10473,718-430-1700
X095,1014241,260978,DOE,P.S. 095 Sheila Mencher,3961 Hillman Ave,X,10463,718-796-9200
X097,1026633,253773,DOE,P.S. 097 Bronx,1375 Mace Ave,X,10469,718-655-4446
X100,1022227,238734,DOE,P.S. 100 Isaac Clason,800 Taylor Ave,X,10473,718-842-1461
X106,1024405,244366,DOE,P.S. 106 Parkchester,2120 St Raymond's Ave,X,10462,718-892-1006
X107,1020624,237574,DOE,P.S. 107,1695 Seward Ave,X,10473,718-860-8760
X108,1024921,250658,DOE,P.S. 108 Philip J Abinanti,1166 Neill Ave,X,10461,718-863-9829
X109,1006730,249524,DOE,P.S. 109 Sedgwick,1771 Popham Ave,X,10453,718-583-8878
X110,1011681,243548,DOE,P.S. 110 Theodore Schoenfeld,580 Crotona Park South,X,10456,718-861-0759
X111,1028527,261585,DOE,P.S. 111 Seton Falls,3740 Baychester Ave,X,10466,718-881-2418
X112,1027392,261662,DOE,P.S. 112 Bronxwood,1925 Schieffelin Ave,X,10466,718-654-6377
X119,1023835,241166,DOE,P.S. 119,1075 Pugsley Ave,X,10472,718-822-5198
X121,1025564,255179,DOE,P.S. 121 Throop,2750 Throop Ave,X,10469,718-654-2055
X126,1004071,243876,DOE,P.S. 126 Dr. Marjorie H Dunbar,175 West 166 St,X,10452,718-681-6120
X130,1011364,237190,DOE,P.S. 130 Abram Stevens Hewitt,750 Prospect Ave,X,10455,718-665-0962
X134,1013453,242175,DOE,P.S. 134 George F Bristow,1330 Bristow St,X,10459,718-328-3351
X138,1024925,238936,DOE,P.S. 138 Samuel Randall,2060 Lafayette Ave,X,10473,718-822-5325
X140,1009799,239257,DOE,P.S. X140 The Eagle School,916 Eagle Ave,X,10456,718-585-1205
X146,1010312,239854,DOE,P.S. 146 Edward Collins,968 Cauldwell Ave,X,10456,718-378-9664
X150,1013471,240248,DOE,P.S. 150 Charles James Fox,920 East 167 St,X,10459,718-328-7729
X152,1017374,239493,DOE,P.S. 152 Evergreen,1007 Evergreen Ave,X,10472,718-589-4560
X153,1030375,257393,DOE,P.S. 153 Helen Keller,650 Baychester Ave,X,10475,718-904-5550
X154,1004724,233748,DOE,P.S. 154 Jonathan D Hyatt,333 East 135 St,X,10454,718-292-4742
X157,1009479,237756,DOE,P.S. 157 Grove Hill,757 Cauldwell Ave,X,10456,718-292-5255
X160,1032914,254226,DOE,P.S. 160 Walt Disney,4140 Hutchinson Riv Pkway E,X,10475,718-379-5951
X161,1010460,236117,DOE,P.S. 161 Ponce De Leon,628 Tinton Ave,X,10455,718-292-5478
X163,1012253,249624,DOE,P.S. 163 Arthur A Schomburg,2075 Webster Ave,X,10457,718-584-3045
X169,1028633,260367,DOE,Baychester Academy,3500 Edson Ave,X,10466,718-325-1138
X179,1006356,234188,DOE,P.S. 179,468 East 140 St,X,10454,718-292-2237
X182,1023906,237445,DOE,P.S. 182,601 Stickball Blvd,X,10473,718-828-6607
X189,1031010,261120,DOE,Cornerstone Academy For Social Action,3441 Steenwick Ave,X,10475,718-794-6160
X195,1018150,242047,DOE,P.S. 195,1250 Ward Ave,X,10472,718-861-4461
X196,1018171,241915,DOE,P.S. 196,1250 Ward Ave,X,10472,718-328-7187
X199,1006248,246572,DOE,P.S. 199x - The Shakespeare School,1449 Shakespeare Ave,X,10452,718-681-7172
X204,1007729,248989,DOE,P.S. 204 Morris Heights,1780 Dr Martin Luther King Jr Blvd,X,10453,718-960-9520
X207,1010158,259254,DOE,P.S. 207,3030 Godwin Ter,X,10463,718-796-9645
X209,1012625,251425,DOE,P.S. 209,313 East 183rd St,X,10458,718-364-0085
X211,1014648,246656,DOE,P.S. 211,1919 Prospect Ave,X,10457,718-901-0436
X212,1011879,241173,DOE,P.S. 212,1180 Tinton Ave,X,10456,718-842-2331
X214,1017453,245076,DOE,P.S. 214,1970 West Farms Rd,X,10460,718-589-6728
X226,1007450,251055,DOE,P.S. 226,1950 Sedgwick Ave,X,10453,718-583-5560
X236,1009214,248586,DOE,P.S. 236 Langston Hughes,1871 Walton Ave,X,10453,718-299-6128
X274,1006186,250085,DOE,The New American Academy At Roberto Clemente State Park,275 Harlem Riv Park Brg,X,10453,718-901-9703
X277,1008130,235625,DOE,P.S. 277,519 St Anns Ave,X,10455,718-292-3594
X300,1015509,247488,DOE,The School Of Science And Applied Learning,2050 Prospect Ave,X,10457,718-584-6310
X304,1031482,240663,DOE,P.S. 304 Early Childhood School,2750 Lafayette Ave,X,10465,718-822-5307
X307,1011441,255954,DOE,Luisa Pineiro Fuentes School Of Science And Discovery,124 Eames Pl,X,10468,718-601-2632
X310,1010444,257205,DOE,P.S. 310 Marble Hill,260 W Kingsbridge Rd,X,10463,718-796-9434
X314,1015477,243237,DOE,Fairmont Neighborhood School,1550 Vyse Ave,X,10460,718-860-5210
X333,1012291,238054,DOE,P.S. 333 - The Museum School,888 Rev J A Polite Ave,X,10459,718-860-3313
X335,1012294,238107,DOE,The Academy Of The Arts,888 Rev J A Polite Ave,X,10459,718-860-3401
X340,1012674,255963,DOE,P.S. 340,25 West 195 St,X,10468,718-220-1830
X357,1021967,250517,DOE,Young Voices Academy Of The Bronx,800 Lydig Ave,X,10462,718-794-4080
X359,1005524,239082,DOE,Concourse Village Elementary School,750 Concourse Vlg West,X,10451,718-402-7503
X360,1011283,257987,DOE,P.S. 360,2880 Kingsbridge Ter,X,10463,718-548-1511
X369,1006464,234126,DOE,Young Leaders Elementary School,468 East 140 St,X,10454,718-292-7391
X386,1010935,250846,DOE,School For Environmental Citizenship,125 East 181 St,X,10453,718-563-3292
X392,1034611,240528,DOE,Bronx Delta School,650 Hollywood Ave,X,10465,718-935-3621
X394,1006134,233057,CHARTER,Little Haven @ Mott Haven Academy Charter School,170 Brown Pl,X,10454,718-292-7015
X396,1008316,250639,DOE,P.S. 396,1930 Andrews Ave,X,10453,718-294-0862
X443,1006991,242302,DOE,The Family School,1116 Sheridan Ave,X,10456,718-538-3266
X449,1007083,241086,DOE,Grant Avenue Elementary School,250 East 164 St,X,10456,718-681-6288
X458,1015449,243177,DOE,Samara Community School,1550 Vyse Ave,X,10460,718-935-3448
X463,1011856,241080,DOE,Urban Scholars Community School,1180 Tinton Ave,X,10456,718-842-8133
X487,1007430,236124,CHARTER,Girls And Boys Preparatory Charter School Of The Bronx,441 East 148 St,X,10455,212-346-6000
X491,1008343,233547,CHARTER,Academic Leadership Charter School,677 East 141 St,X,10454,718-585-4215
X531,1021279,244639,DOE,Archer Elementary School,1827 Archer St,X,10460,718-828-3791
X536,1021269,244708,DOE,P.S. 536,1827 Archer St,X,10460,718-931-4270
X554,1005958,233986,CHARTER,NYC Montessori Charter School,423 East 138th St,X,10454,347-226-9094
X555,1007400,246313,DOE,Mount Eden Children's Academy,1501 Jerome Ave,X,10452,718-294-8155
X567,1024930,244813,DOE,Linden Tree Elementary School,1560 Purdy St,X,10462,718-239-7401
X691,1021292,244573,DOE,Bronx Little School,1827 Archer St,X,10460,718-792-2650
X718,1028544,261528,CHARTER,Bronx Charter School For Better Learning,3740 Baychester Ave,X,10466,718-655-6660
XAAA,1025187,258436,NYCEEC,Harry H Gordon School Annex ( NYL ),1180 East 214 St,X,10469,718-838-5993
XAAC,1012816,242679,NYCEEC,Puerto Rican Family Institute Bronx Head Start,1423 Prospect Ave,X,10459,718-991-5590
XAAF,1026276,243570,NYCEEC,Howard Haber ELC,2300 Westchester Ave,X,10462,718-409-1450
XAAH,1014084,261453,NYCEEC,Amalgamated Nursery School,3980 Orloff Ave,X,10463,718-543-8688
XAAS,1021459,240553,NYCEEC,Bronxdale Nursery,1065 Bch Ave,X,10472,718-991-8315
XAAX,1007665,244411,NYCEEC,Christ The King School,1345 Grand Concourse,X,10452,718-538-5959
XABI,1031819,248959,NYCEEC,Shining Stars UPK,3573 Bruckner Blvd,X,10461,718-823-2393
XABK,1022814,236982,NYCEEC,Holy Cross School,1846 Randall Ave,X,10473,718-842-4492
XABL,1025519,241386,NYCEEC,Holy Family School,2169 Blackrock Ave,X,10472,718-863-7280
XABM,1027856,255340,NYCEEC,Holy Rosary School,1500 Arnow Ave,X,10469,718-652-1838
XABT,1021927,258568,NYCEEC,Immaculate Conception School,760 East Gun Hl Rd,X,10467,718-547-3346
XACE,1030814,263142,NYCEEC,Nativity Of Our Blessed Lady,3893 Dyre Ave,X,10466,718-324-2188
XACF,1026190,259986,NYCEEC,New Covenant Christian School,1497 Needham Ave,X,10469,718-519-8884
XACJ,1032045,247331,NYCEEC,Our Lady If The Assumption School,1617 Parkview Ave,X,10461,718-829-1706
XACK,1024361,262183,NYCEEC,Our Lady Of Grace School,3981 Bronxwood Ave,X,10466,718-547-9918
XACM,1014990,252015,NYCEEC,Our Lady Of Mount Carmel,2465 Bathgate Ave,X,10458,718-295-6080
XACR,1022122,260407,NYCEEC,Regent School,719 East 216 St,X,10467,718-653-2900
XACX,1006885,240691,NYCEEC,St. Angela Merici School,266 East 163rd St,X,10451,718-293-3365
XACY,1017830,260531,NYCEEC,St. Ann - Our Lady Of Mount Carmel Annex,3511 Bainbridge Ave,X,10467,718-655-3449
XADH,1018077,258240,NYCEEC,St. Brendan School,268 East 207th St,X,10467,718-653-2292
XADJ,1023890,249407,NYCEEC,St. Clare Of Assisi School,1911 Hone Ave,X,10461,718-892-4080
XADL,1036143,236729,NYCEEC,St. Francis De Chantal School,2962 Harding Ave,X,10465,718-892-5359
XADN,1027113,266168,NYCEEC,St. Francis Of Assisi School,4300 Baychester Ave,X,10466,718-994-4650
XADO,1025058,248405,NYCEEC,St. Francis Xavier School,1711 Haight Ave,X,10461,718-863-0531
XADQ,1024186,243295,NYCEEC,St. Helena School,2050 Benedict Ave,X,10462,718-892-3234
XADT,1014501,240707,NYCEEC,St. John Chrysostom School,1144 Hoe Ave,X,10459,718-328-7226
XADV,1010258,260215,NYCEEC,St. John School,3143 Kingsbridge Ave,X,10463,718-548-0255
XADW,1012864,248084,NYCEEC,St. Joseph School,1946 Bathgate Ave,X,10457,718-583-9432
XADY,1022436,253681,NYCEEC,St. Lucy School,830 Mace Ave,X,10467,718-882-2203
XADZ,1007753,233114,NYCEEC,St. Luke School,608 East 139th St,X,10454,718-585-0380
XAEB,1011055,270141,NYCEEC,St. Margaret Of Cortona,452 West 260th St,X,10471,718-549-8580
XAEF,1022009,262865,NYCEEC,St. Mary School,3956 Carpenter Ave,X,10466,718-547-0500
XAEH,1015416,257686,NYCEEC,St. Philip Neri School,3031 Grand Concourse,X,10468,718-365-8806
XAEL,1024568,246118,NYCEEC,St. Raymond Elementary,2380 East Tremont Ave,X,10462,718-597-3232
XAEN,1012174,250892,NYCEEC,St. Simon Stock Elementary School,2195 Valentine Ave,X,10457,718-367-0453
XAEO,1030340,248745,NYCEEC,St. Theresa,2872 Sttheresa Ave,X,10461,718-792-3688
XAEP,1016092,245540,NYCEEC,St. Thomas Aquinas School,1909 Daly Ave,X,10460,718-893-7600
XAEW,1022274,257708,NYCEEC,"Learning Tree, The",801 Bartholdi St,X,10467,718-944-0960
XAFA,1029987,251601,NYCEEC,UCP / Nyc's Bronx Children's Program,1770 Stillwell Ave,X,10469,718-652-9790
XAFB,1035029,245985,NYCEEC,"Villa Maria Academy, Inc.",3335 Country Clb Rd,X,10465,718-824-3260
XAFG,1026812,257106,NYCEEC,Little Stars III,1420 Burke Ave,X,10469,347-947-3171
XAFK,1017104,247006,NYCEEC,Phipps Neighborhoods Daly Avenue ECEC,921 East 180 St,X,10460,718-364-2496
XAFL,1030446,259204,NYCEEC,"Garvey School, The",950 Baychester Ave,X,10475,781-320-3902
XAFP,1006786,232909,NYCEEC,East Side House,201 Saint Anns Ave,X,10454,718-665-5250
XAFZ,1010287,249017,NYCEEC,New Covenant Christian School,1925 Grand Concourse,X,10453,718-299-5250
XAGC,1008211,246880,NYCEEC,Highbridge Advisory Council ECC #1,1594 Townsend Ave,X,10452,718-299-3917
XAGF,1015054,236102,NYCEEC,Manida ( Center #1 ),711 Manida St,X,10474,718-542-7590
XAGX,1024951,241571,NYCEEC,LSSMNY : Early Life Children's Center 6,2125 Watson Ave,X,10472,718-943-0580
XAHA,1010267,241697,NYCEEC,Ready Set Learn,3480 Third Ave,X,10456,718-484-8777
XAHB,1008297,248215,NYCEEC,Grow With Us ( Susan E Wagner ),1732 Davidson Ave,X,10453,718-299-6892
XAHD,1003706,243050,NYCEEC,Mid Bronx CCRP ECC 4,1020 Smt Ave,X,10452,917-962-9384
XAHF,1026551,236861,NYCEEC,Dr. Katharine Dodge Brownell School,450 Castle Hl Ave,X,10473,914-375-8652
XAHH,1013008,248709,NYCEEC,Trabajamos Community Head Start,1997 Bathgate Ave,X,10457,917-259-7081
XAHL,1017010,240188,NYCEEC,East Bronx DCC,1113 Colgate Ave,X,10472,718-617-2900
XAHM,1012413,267701,NYCEEC,Northeast Bronx DCC ( Susan Wagner ),5401 Post Rd,X,10471,718-601-5401
XAHO,1011201,242786,NYCEEC,1332 Fulton Ave DCC,1332 Fulton Ave,X,10456,718-378-1330
XAHR,1009806,235709,NYCEEC,Concord Head Start / Early Learn Center,560 Concord Ave,X,10455,718-292-8564
XAHS,1023980,254689,NYCEEC,"Little Stars Too, Inc.",1083 Allerton Ave,X,10469,718-515-8800
XAHW,1007717,235292,NYCEEC,Betances ECC ( NYCHA ),528 East 146th St,X,10455,718-665-1100
XAIB,1033307,238199,NYCEEC,Throggs Neck Early Learn Center,461 Swinton Ave,X,10465,718-882-0172
XAIC,1012130,238249,NYCEEC,LSSMNY : Early Life Children's Center 2,888 Westchester Ave,X,10459,718-292-7015
XAID,1010712,250788,NYCEEC,LSSMNY : Early Life Children's Center 1,80 East 181 St,X,10453,347-297-2900
XAIE,1005142,245938,NYCEEC,Mid Bronx CCRP ECC 3,1360 Ogden Ave,X,10452,917-962-9384
XAIF,1008628,248837,NYCEEC,Be Above 52,1810 Davidson Ave,X,10453,718-466-7519
XAIM,1005135,246172,NYCEEC,Highbridge Advisory Council ECC #3,1399 Ogden Ave,X,10452,718-293-9196
XAIN,1004754,244325,NYCEEC,Highbridge Advisory Council DCC ( Nelson Avenue ),1181 Nelson Ave,X,10452,718-681-5216
XAIQ,1008089,239884,NYCEEC,Richard H Mangum ELC,383 E 162nd St,X,10451,718-590-0673
XAJB,1013411,251627,NYCEEC,"Concourse House, HDFC",2348 Webster Ave,X,10458,917-801-2515
XAJD,1014570,242931,NYCEEC,Bronx ECC,1515 Southern Blvd,X,10460,718-764-2409
XAJF,1014127,242267,NYCEEC,Brightside Academy - Louis Nine,1336 Louis Nine Blvd,X,10459,718-991-2119
XAJG,1014083,240232,NYCEEC,Brightside Academy - Southern,1093 Southern Blvd,X,10459,718-842-2252
XAJJ,1011451,249405,NYCEEC,Sharon Baptist - Center II,279 East Burnside Ave,X,10457,718-299-6500
XAJK,1009167,238132,NYCEEC,Brightside Academy - St. Ann's,780 St Anns Ave,X,10456,718-585-1472
XAJR,1034871,244741,NYCEEC,"Providence Rest Child DCC, Inc.",3310 Campbell Dr,X,10465,718-823-3588
XAJT,1013492,246478,NYCEEC,East Tremont Child Care And Development Center,1811 Crotona Ave,X,10457,718-731-4166
XAJU,1014768,246818,NYCEEC,Children's Aid At P.S. 211,1919 Prospect Ave,X,10457,347-821-4222
XAKA,1012885,239768,NYCEEC,Intervale ( Center #2 ),1054 Intervale Ave,X,10459,718-542-1161
XAKB,1022610,241011,NYCEEC,Watson Avenue ECC,1880 Watson Ave,X,10472,718-828-9400
XAKD,1019956,241613,NYCEEC,Sound Dale Center For Ece,1211 Croes Ave,X,10472,718-378-3533
XAKE,1017906,243401,NYCEEC,Bronx River Early Learn Center,1555 East 174th St,X,10472,718-842-6582
XAKF,1029809,246901,NYCEEC,Stepping Stone Day School,2826 Westchester Ave,X,10461,718-554-2025
XAKH,1010601,246201,NYCEEC,Labor Bathgate Community CCC,1638 Anthony Ave,X,10457,718-583-3850
XAKJ,1028603,263806,NYCEEC,Wake - Eden Christian Academy,2074 Strang Ave,X,10466,718-325-8056
XAKO,1006992,236189,NYCEEC,Episcopal Social Services Head Start ( Paul's House ),500 Bergen Ave,X,10455,718-401-5133
XAKQ,1014332,245620,NYCEEC,Help III,785 Crotona Park North,X,10460,718-583-1511
XAKR,1012083,236777,NYCEEC,Prospect ECC,730 Kelly St,X,10455,718-617-6100
XAKX,1010022,236827,NYCEEC,Anna Lefkowitz DCC,690 Westchester Ave,X,10455,718-292-8682
XAKZ,1014939,251939,NYCEEC,Harry H Gordon School ( NYL ),2465 Bathgate Ave,X,10458,718-367-5917
XALA,1026167,246560,NYCEEC,Westchester Tremont DCC,2547 East Tremont Ave,X,10461,718-824-7390
XALB,1006644,244022,NYCEEC,WHEDco Early Childhood Discovery Center,50 East 168th St,X,10452,718-839-1156
XALE,1013027,237140,NYCEEC,Np Ready Set Learn,830 Fox St,X,10459,718-484-8210
XALJ,1011744,257263,NYCEEC,"St. Jemuel Group Family Day Care, Inc.",2836 Webb Ave,X,10468,718-601-9753
XALQ,1010864,238710,NYCEEC,Blondell Joyner DCC,901 Tinton Ave,X,10456,718-665-7791
XALR,1009508,239708,NYCEEC,Five Star DCC,3261 Third Ave,X,10456,718-292-4774
XALV,1009731,260248,NYCEEC,Kingsbridge Heights Community Center,295 West 231st St,X,10463,718-690-9466
XALW,1009672,240510,NYCEEC,Sharon Baptist - Center I,507 East 165th St,X,10456,718-585-5876
XALY,1007183,249635,NYCEEC,LSSMNY : Early Life Children's Center 4,200 West Tremont Ave,X,10453,917-962-4344
XALZ,1008365,246524,NYCEEC,Mid Bronx Sr. Citizen Center,100 East Mt Eden Ave,X,10452,718-684-4790
XAMA,1022761,262392,NYCEEC,Brightside Academy - White Plains #2,3942 White Plns Rd,X,10466,718-653-4043
XAMB,1009274,251887,NYCEEC,Trabajamos Community Head Start,2167 University Ave,X,10453,917-962-9720
XAMI,1010244,244483,NYCEEC,Aleene Logan Day Care,1450 Webster Ave,X,10456,718-538-7135
XAML,1034238,239286,NYCEEC,Just 4 Kids Tremont,3881 East Tremont,X,10465,917-217-1781
XAMQ,1013642,260882,NYCEEC,Mosholu Montefiore - Van Cortlandt,3880 Sedgwick Ave,X,10463,718-543-0231
XAMR,1008327,239560,NYCEEC,Iola Jordan Day Care,421 East 161st St,X,10451,718-402-4166
XAMT,1006041,235409,NYCEEC,East Side House,375 East 143rd St,X,10454,718-292-5335
XAMV,1005446,236393,NYCEEC,Children's Pride,414 Morris Ave,X,10451,718-401-4242
XAMW,1004851,234005,NYCEEC,East Side House,200 Alexander Ave,X,10454,718-993-3692
XAMZ,1006695,237487,NYCEEC,Philip H Michaels CDC,629 Courtlandt Ave,X,10451,718-665-9410
XANA,1006976,234773,NYCEEC,South Bronx Head Start I,490 East 143rd St,X,10454,718-292-7250
XANC,1008222,239041,NYCEEC,"Salvation Army, Bronx Citadel",425 E 159th St,X,10451,718-742-2346
XANI,1034629,237946,NYCEEC,Ivy League Early Learning Academy,4022 East Tremont Ave,X,10465,718-239-5275
XANJ,1024332,234371,NYCEEC,"Just 4 Kids Soundview Center, Inc.",214 - 216 Soundview Ave,X,10473,917-995-8041
XANK,1025921,239130,NYCEEC,Just 4 Kids Kiddie Kollege,781 Castle Hl Ave,X,10473,917-995-8041
XANN,1010834,239321,NYCEEC,Gwendolyn Bland Dc,749 East 163rd St,X,10456,718-991-1050
XANT,1009415,242608,NYCEEC,Louis A Fickling CDC,1240 Webster Ave,X,10456,718-538-7135
XANU,1009073,244994,NYCEEC,Help II,285 East 171st St,X,10457,718-498-4002
XANV,1003919,244672,NYCEEC,Highbridge Advisory Council Doris East Stone Day Care,1165 University Ave,X,10452,718-681-5888
XANW,1004909,241051,NYCEEC,Highbridge Advisory Council Head Start,880 Riv Ave,X,10452,718-992-1321
XANX,1006652,239509,NYCEEC,Highbridge Advisory Council Marshall England ELC,800 Concourse Vlg East,X,10451,718-742-2369
XANZ,1009205,248531,NYCEEC,Walton ( Center #5 ),1871 Walton Ave,X,10453,718-542-1161
XAOA,1010673,247693,NYCEEC,Promesa Multi - Cultural DCC II,300 East 175th St,X,10457,347-649-3267
XAOB,1006301,247653,NYCEEC,South Bronx Head Start II,141 Featherbed Ln,X,10452,718-292-7250
XAOC,1010280,244553,NYCEEC,South Bronx III,1458 Webster Ave,X,10456,718-538-4112
XAOD,1006701,242570,NYCEEC,Bronxworks,1130 Grand Concourse,X,10456,718-508-3054
XAOF,1011650,245000,NYCEEC,Tremont Monterey DCC II,1600 Bathgate Ave,X,10457,718-466-6700
XAOI,1012697,247994,NYCEEC,Sharon Baptist - Center IV,1925 Bathgate Ave,X,10457,718-466-1604
XAOK,1006412,248497,NYCEEC,Seventh Avenue Center For Family Services,1646 Montgomery Ave,X,10453,718-901-0140
XAOL,1010252,253344,NYCEEC,St. Nicholas Of Tolentine Head Start,2331 University Ave,X,10468,718-364-7608
XAOM,1016011,250310,NYCEEC,Belmont CDC Center,2340 Cambreleng Ave,X,10458,718-584-1576
XAON,1013286,261771,NYCEEC,Brenda's Playschool,3930 Bailey Ave,X,10463,718-796-5048
XAOR,1012039,254055,NYCEEC,Kingsbridge Montessori School,2500 Jerome Ave,X,10468,718-561-8111
XAOS,1011806,269258,NYCEEC,Riverdale Montessori School,5705 Mosholu Ave,X,10471,718-543-4884
XAOT,1011744,259002,NYCEEC,Kingsbridge Heights Community Center,3101 Kingsbridge Ter,X,10463,718-884-0700
XAOU,1009996,258430,NYCEEC,Marble Hill Nursery School,5470 Broadway,X,10463,718-562-7055
XAOV,1010084,250789,NYCEEC,Marc Academy And Family Center,2105 Jerome Ave,X,10453,718-562-3410
XAOW,1017452,260836,NYCEEC,Mosholu Montefiore Community Center - Northside Annex,3512 Dekalb Ave,X,10467,718-405-0020
XAOX,1017203,260454,NYCEEC,CDC Of Mosholu Montefiore CC,3450 Dekalb Ave,X,10467,718-882-4000
XAPA,1010824,268413,NYCEEC,"Riverdale Neighborhood House, Inc.",5521 Mosholu Ave,X,10471,718-549-8100
XAPB,1009462,265716,NYCEEC,Riverdale Presbyterian Church And Nursery School,4765 Henry Hudson Pkwy West,X,10471,718-548-8260
XAPC,1008351,264156,NYCEEC,Riverdale Temple Nursery School,4545 Independence Ave,X,10471,718-796-0335
XAPD,1009650,269077,NYCEEC,Riverdale Y Early Childhood Program,5625 Arlington Ave,X,10471,347-913-4445
XAPE,1009812,259691,NYCEEC,Spuyten Duyvil Preschool,3041 Kingsbridge Ave,X,10463,718-549-1525
XAPH,1013188,251996,NYCEEC,Round The Clock Nursery,2380 Marion Ave,X,10458,718-329-6023
XAPI,1010129,253401,NYCEEC,St. Dominics Torch,2340 Andrews Ave,X,10468,718-365-7238
XAPK,1013186,249763,NYCEEC,Salvation Army Tremont,2121 Washington Ave,X,10457,212-337-7254
XAPN,1012506,253623,NYCEEC,1199 Future Of America Learning Center,2500 Creston Ave,X,10468,718-562-2915
XAPP,1022819,251399,NYCEEC,Bronx House 1,990 Pelham Pkwy South,X,10461,718-792-1800
XAPQ,1021784,252051,NYCEEC,Bronx House 2,2222 Wallace Ave,X,10467,718-792-1800
XAPT,1027284,264123,NYCEEC,"Little Stars School, Inc.",4063 Edson Ave,X,10466,718-994-0604
XAPU,1023021,263428,NYCEEC,North Bronx Ncnw CDC,4035 White Plns Rd,X,10466,718-231-7100
XAPV,1026559,263889,NYCEEC,Rainbow Rhymes Learning Center,4041 Bruner Ave,X,10466,718-882-2388
XAPW,1024391,261850,NYCEEC,United Educare Preschool,3950 Bronxwood Ave,X,10466,718-882-4706
XAPX,1021942,261246,NYCEEC,Williamsbridge Naacp Early Childhood Education Center,670 East 219th St,X,10467,718-798-1262
XAPY,1027010,262121,NYCEEC,Susan Wagner Day Care,1140 East 229th St,X,10466,718-547-1735
XAPZ,1020376,244553,NYCEEC,St. Anthony I,1750 Mansion St,X,10460,718-823-7202
XAQA,1014345,244075,NYCEEC,Tremont Crotona,1600 Crotona Park East,X,10460,718-378-5600
XAQK,1025045,258216,NYCEEC,Saints Philip & James School,1160 East 213th St,X,10469,718-882-4576
XAQL,1024860,265557,NYCEEC,Corry Academy,4321 Barnes Ave,X,10466,718-994-4650
XAQS,1006704,261059,NYCEEC,Happy Days @ Riverdale,2975 Independence Ave,X,10463,718-601-1300
XAQY,1021233,258503,NYCEEC,Susan Wagner Victory,3440 White Plns Rd,X,10467,718-655-5500
XAQZ,1006307,242701,NYCEEC,Mid Bronx CCRP ECC 1,1125 Grand Concourse,X,10452,718-590-7042
XARA,1004188,237336,NYCEEC,"HCC Children's Center, Inc.",475 Grand Concourse,X,10451,718-518-4209
XARC,1012465,245969,NYCEEC,Fulton ( Center #4 ),1717 Fulton Ave,X,10457,718-542-1161
XARD,1012610,247677,NYCEEC,Bronx ELC,1887 Bathgate Ave,X,10457,718-466-3915
XARG,1017576,256812,NYCEEC,Monsignor Boyle,3044 Hull Ave,X,10467,718-405-7824
XARH,1026113,237777,NYCEEC,Leake And Watts Head Start,2165 Randall Ave,X,10473,718-904-1689
XARI,1013778,258009,NYCEEC,Lehman College Childcare Center,250 Bedford Park Blvd West,X,10468,718-960-8746
XARJ,1025506,245112,NYCEEC,Santa Maria School,1651 Zerega Ave,X,10462,718-863-5047
XARK,1005170,244756,NYCEEC,Sacred Heart Head Start,95 West 168th St,X,10452,718-293-2006
XARM,1011807,236731,NYCEEC,Trabajamos Community Head Start,940 East 156th St,X,10455,718-893-2865
XARN,1009670,248955,NYCEEC,Trabajamos Community Head Start,1905 Morris Ave,X,10453,718-294-4333
XARO,1016172,249507,NYCEEC,Trabajamos Community Head Start,2260 Crotona Ave,X,10457,718-933-5560
XARP,1029305,240511,NYCEEC,Just 4 Kids Monsignor Scanlan,955 Hutchinson Riv Pkwy,X,10465,917-217-1781
XARQ,1030787,256520,NYCEEC,Learning Ladder DCC,"100 Aldrich St, Bldg 15a",X,10475,718-618-0782
XARR,1030173,246870,NYCEEC,"Kiderific Nursery School, Inc.",1621 Pilgrim Ave,X,10461,718-518-7170
XARS,1010105,241705,NYCEEC,3467 Ready Set Learn,3467 Third Ave,X,10456,718-665-1234
XART,1006379,237157,NYCEEC,Brightside Academy,331 East 150th St,X,10451,718-292-0812
XARV,1013339,247756,NYCEEC,Bronx DCC Inc.,559 East Tremont Ave,X,10457,718-240-9300
XARW,1013920,243972,NYCEEC,CS 61 Early Childhood,1550 Crotona Park East,X,10460,718-764-2409
XASA,1012155,250830,NYCEEC,St. Dominics Torch,2195 Valentine Ave,X,10457,347-270-9219
XASB,1011106,241389,NYCEEC,New Covenant Christian School,1179 Boston Rd,X,10456,718-328-6072
XASC,1022548,236873,NYCEEC,Seabury CCC,575 Soundview Ave,X,10473,718-991-1500
XASE,1010913,243946,NYCEEC,Ft. George Universal Pre - K,489 St Paul's Pl,X,10456,212-795-9184
XASH,1010162,253394,NYCEEC,Tolentine Zeiser Community Life Center,2340 Andrews Ave,X,10468,718-933-6935
XASI,1032645,253902,NYCEEC,"Garvey School, The",4120 Hutchinson Riv Pkwy,X,10475,718-320-3902
XASN,1010085,253313,NYCEEC,Lion Of Judah Christian Academy ( Lojca ),2336 Andrews Ave,X,10468,718-772-3238
XASO,1020647,258378,NYCEEC,Mind - Builders Creative Arts Center,3415 Olinville Ave,X,10467,718-652-6256
XAST,1020897,237399,NYCEEC,Ciditty Kiddie Pre - K,1700 Seward Ave,X,10473,718-924-5758
XASV,1017415,257712,NYCEEC,"Bright Star Day Care At Rochambeau, Inc.",3130 Rochambeau Ave,X,10467,718-864-8922
XASW,1008603,250307,NYCEEC,Holy Spirit Head Start,1960 University Ave,X,10453,718-402-0081
XASX,1021464,267963,NYCEEC,St. Barnabas School,413 East 241st St,X,10470,718-324-1088
XASY,1042492,250627,NYCEEC,Holy Rosary Early Childhood At St. Mary Star Of The Sea,580 Minnieford Ave,X,10464,718-652-1838
XATC,1011231,242773,NYCEEC,United Bronx Parents,1332 Fulton Ave,X,10456,917-259-7443
XATD,1007708,251676,NYCEEC,Bronx Community College ECC,2010 Sedgwick,X,10468,718-289-5461
XATE,1023358,263832,NYCEEC,Susan Wagner Day School,4102 White Plns Rd,X,10466,718-547-0501
XATH,1023859,249455,NYCEEC,St. Clare Of Assisi Early Childhood Academy,1925 Hone Ave,X,10461,718-892-4080
XATI,1006478,235518,NYCEEC,Sunshine Day Care,416 Willis Ave,X,10454,718-989-9804
XATO,1010413,236667,NYCEEC,St. Anselm School,685 Tinton Ave,X,10455,718-993-9464
XATQ,1010104,244599,NYCEEC,Brightside Academy - Webster,1465 Webster Ave,X,10456,718-681-3040
XATR,1020885,255652,NYCEEC,Brightside Academy - White Plains #1,2901 White Plns Rd,X,10467,718-653-3714
XAUP,1015588,249231,NYCEEC,St. Martin Of Tours Head Start,695 East 182 St,X,10457,718-402-0081
XAUZ,1006112,248011,NYCEEC,Bronxworks,1472 Montgomery Ave,X,10453,646-393-4000
XAVD,1019408,258821,NYCEEC,Tender Tots Decatur,3322 Decatur Ave,X,10467,718-324-1052
XAVJ,1013728,242459,NYCEEC,Little Scholars Early Development Center,850 Jennings St,X,10459,718-887-2928
XAVS,1008588,261603,NYCEEC,Bedrock Preschool,3220 Arlington Ave,X,10463,718-884-0020
XAVW,1026635,256646,NYCEEC,"Unity Neighborhood Center, Inc.",1339 E Gun Hl Rd,X,10469,718-994-8400
XAVX,1026449,245595,NYCEEC,Sunshine Daycare Of Westchester Village,1564 St Peters Ave,X,10461,718-989-9801
XAVZ,1015525,244655,NYCEEC,Brightside Academy - Southern 2,1778 Southern Blvd,X,10460,718-589-5900
XAWG,1025115,266504,NYCEEC,"All Seasons Day Care, LLC",1701 Nereid Ave,X,10466,212-929-0839
XAWK,1017589,256795,NYCEEC,Monsignor Boyle Head Start,3044 Hull Ave,X,10467,718-402-0081
XAWL,1018593,241617,NYCEEC,"Bright Star Stratford, Inc.",1217 Stratford Ave,X,10472,718-842-9361
XAWP,1022416,253151,NYCEEC,St. Lucy Early Childhood Academy,2401 Bronxwood Ave,X,10469,718-882-2203
XAWQ,1012154,245564,NYCEEC,Phipps Neighborhoods - Roscoe C Brown ECEC,3968 Third Ave,X,10457,917-522-6002
XAWX,1007579,240281,NYCEEC,Fabiana Day Cay Academy Universal Pre K,937 Teller Ave,X,10451,718-588-4545
XAWZ,1012891,238741,NYCEEC,Brightside Academy - Intervale,960 Intervale Ave,X,10459,718-991-5465
XAXA,1010033,258463,NYCEEC,Reach One To Teach One,5480 Broadway,X,10463,718-220-8406
XAYB,1011075,254557,NYCEEC,Lil Inventors - University Avenue,75 West 190th St,X,10468,718-295-2740
XAYC,1021081,257366,NYCEEC,"All Seasons A & C Day Care, LLC",700 Rosewood St,X,10467,718-231-7200
XAYD,1025898,261241,NYCEEC,Laconia Daycare Center & Infant Care Inc.,3950 Laconia Ave,X,10466,212-929-0839
XAYE,1008405,248418,NYCEEC,Little Scholars Early Development Center,1770 Davidson Ave,X,10453,718-887-2928
XAYK,1018924,245353,NYCEEC,Phipps Houses Lebanon West Farms,1175 East Tremont Ave,X,10460,212-243-9090
XAYP,1006715,233209,NYCEEC,Tender Tot's East 137th Street,531 East 137th St,X,10454,732-987-5252
XAYQ,1020078,252376,NYCEEC,"Bronx Park East Preparatory, Inc.",2270 Bronx Park East,X,10467,718-882-3261
XAYV,1006054,248879,NYCEEC,Promesa Head Start,1650 Undercliff Ave,X,10453,212-410-7707
XAZB,1025490,245095,NYCEEC,Santa Maria Early Childhood Academy,1659 Zerega Ave,X,10462,718-823-3636
XAZD,1009045,233984,NYCEEC,A House On Beekman Preschool,390 Jackson Ave,X,10454,972-841-8120
XAZM,1011551,251153,NYCEEC,Arcadia Children's Daycare,2195 Grand Concourse,X,10453,718-561-8062
XAZX,1023916,249355,NYCEEC,St. Clare Of Assisi Early Childhood Academy,1925 Hone Ave,X,10461,718-892-4080
Z010,990313,163782,DOE,Pre - K Center At 2202 60th Street,2202 60th St,K,11204,212-637-8000
Z011,983570,167431,DOE,Pre - K Center At 1258 65th Street,1258 65th St,K,11219,718-234-4519
Z012,993784,168763,DOE,Pre - K Center At 1139 Coney Island Avenue,1139 Coney Is Ave,K,11230,718-724-1730
Z013,989239,169329,DOE,Pre - K Center At 1668 46th Street,1668 46th St,K,11204,212-637-8000
Z014,995767,154989,DOE,Pre - K Center At 1215 Avenue X,1215 Ave X,K,11235,718-368-8660
Z015,979937,196397,DOE,Pre - K Center At 2 - 26 Washington St.,2 - 26 Washington St,M,10004,212-637-8000
Z016,1015126,208814,DOE,Pre - K Center At 46 - 16 76th Street,46 - 16 76th St,Q,11373,212-637-8000
Z017,1042225,196805,DOE,Pre - K Center At 168 - 42 Jamaica Avenue,168 - 42 Jamaica Ave,Q,11432,212-637-8000
Z018,1039192,196355,DOE,Pre - K Center At 89 - 14 Parsons Blvd,89 - 14 Parsons Blvd,Q,11432,718-557-8760
Z019,1034164,195085,DOE,Pre - K Center At 132 - 10 Jamaica Avenue,132 - 10 Jamaica Ave,Q,11418,212-637-8000
Z020,1057653,199787,DOE,Pre - K Center At 100 - 01 Springfield Boulevard,100 - 01 Springfield Blvd,Q,11429,212-637-8000
Z021,1019209,219164,DOE,Pre - K Center At 96 - 10 23rd Avenue,96 - 10 23rd Ave,Q,11369,212-637-8000
Z022,1018342,209976,DOE,Pre - K Center At 44 - 15 Judge Street,44 - 15 Judge St,Q,11373,212-637-8000
Z023,1016453,194886,DOE,Pre - K Center At 68 - 20 Myrtle Avenue,68 - 20 Myrtle Ave,Q,11385,212-637-8000
Z024,1032134,197821,DOE,Pre - K Center At 83 - 30 Kew Gardens Road,83 - 30 Kew Gdns Rd,Q,11415,212-637-8000
Z025,944667,167010,DOE,Pre - K Center At 1625 Forest Avenue,1625 Frst Ave,R,10302,212-637-8000
Z026,934417,159841,DOE,Pre - K Center At 1 Teleport Drive,1 Teleport Dr,R,10314,212-637-8000
Z027,962771,173642,DOE,Pre - K Center At 120 Stuyvesant Place,120 Stuyvesant Pl,R,10301,212-637-8000
Z028,1004715,232921,DOE,Pre - K Center At 80 Bruckner Boulevard,80 Bruckner Blvd,X,10454,212-637-8000
Z029,1010311,235124,DOE,Pre - K Center At 535 Union Avenue,535 Un Ave,X,10455,212-637-8000
Z031,991927,210500,DOE,Pre - K Center At P.S. 281 The River School,425 East 35th St,M,10016,212-637-8000
Z032,985452,216762,DOE,Pre - K Center At P.S. 051 Elias Howe,525 West 44 St,M,10036,212-637-8000
Z033,985555,208518,DOE,Pre - K Center At Ps340 Sixth Avenue Elementary School,590 Sixth Ave,M,10011,212-637-8000
Z034,983653,197502,DOE,Pre - K Center At P.S. 343 The Peck Slip School,1 Peck Slip,M,10038,212-637-8000
Z037,1022042,250529,DOE,Pre - K Center At P.S. 357 Young Voices Academy Of The Bronx,800 Lydig Ave,X,10462,212-637-8000
Z038,1021544,246676,DOE,Pre - K Center At 1684 White Plains Road,1684 White Plns Rd,X,10462,212-637-8000
Z039,1024604,267771,DOE,Pre - K Center At 4520 Matilda Avenue,4520 Matilda Ave,X,10470,212-637-8000
Z040,981861,176320,DOE,Pre - K Center At P.S. 516 Sunset Park Avenues ES,4222 4th Ave,K,11232,212-637-8000
Z041,991647,175280,DOE,Pre - K Center At 701 Caton Avenue,701 Caton Ave,K,11218,212-637-8000
Z042,987635,183726,DOE,Pre - K Center At P.S. 118 The Maurice Sendak School,211 8th St,K,11215,212-637-8000
Z044,983772,164622,DOE,Pre - K Center At 7301 15th Avenue,7301 15th Ave,K,11228,212-637-8000
Z046,1019851,198603,DOE,Pre - K Center At P.S. 087 Middle Village,67 - 54 80 St,Q,11379,212-637-8000
Z047,1007637,196957,DOE,Pre - K Center At 360 Seneca Avenue,360 Seneca Ave,Q,11385,212-637-8000
Z051,1042285,192115,DOE,Pre - K Center At P.S. 040 Samuel Huntington,109 - 20 Un Hall St,Q,11433,212-637-8000
Z055,1005664,219240,DOE,Pre - K Center At P.S. 017 Henry David Thoreau,28 - 37 29 St,Q,11102,212-637-8000
Z056,1008066,216884,DOE,Pre - K Center At P.S. 070 Queens,30 - 45 42 St,Q,11103,212-637-8000
Z058,996612,211498,DOE,Pre - K Center At 46 - 08 5th Street,46 - 08 5th St,Q,11101,212-637-8000
Z059,1019717,216831,DOE,Pre - K Center At P.S. 329 East Elmhurst Community School,26 - 25 97th St,Q,11369,212-637-8000
Z060,959004,158872,DOE,Pre - K Center At P.S. 9 Naples Street Elementary School,1055 Targee St,R,10304,212-637-8000
Z063,999074,164551,DOE,Pre - K Center At 1340 East 29th Street,1340 East 29th St,K,11232,212-637-8000
Z064,1000492,170333,DOE,Pre - K Center At 3610 Glenwood Road,3610 Glenwood Rd,K,11218,212-637-8000
Z065,982673,199218,DOE,Pre - K Center At 52 Chambers Street,52 Chambers St,M,10007,212-637-8000
Z066,1005417,246614,DOE,Pre - K Center At 1434 Ogden Avenue,1434 Ogden Ave,X,10452,212-637-8000
Z067,981193,163156,DOE,Pre - K Center At 1355 84th Street,1355 84th St,K,11228,718-621-8510
Z070,1005951,215719,NYCEEC,Pre - K Center At 3252 37th Street,3252 37 St,Q,11103,929-424-4760
Z072,977144,165850,DOE,Pre - K Center At 8501 5th Avenue,8501 5th Ave,K,11209,718-439-2960
Z073,979897,167343,NYCEEC,Pre - K Center At 7415 Ft. Hamilton Parkway,7415 Ft Hamilton Pkwy,K,11228,718-333-5745
Z074,978001,174150,DOE,Pre - K Center At 140 58th Street,140 58th St,K,11220,718-439-2200
Z075,981971,161531,DOE,Pre - K Center At 21 Bay 11th Street,21 Bay 11th St,K,11214,212-637-8000
Z076,984606,180147,DOE,Pre - K Center At 173 - 177 25th Street,173 - 177 25th St,K,11232,718-686-2282
Z077,993033,155357,NYCEEC,Pre - K Center At 385 Avenue W,385 Ave W,K,11223,347-492-6782
Z078,1016352,195636,DOE,Pre - K Center At P.S. 091 Richard Arkwright,68 - 10 Central Ave,Q,11385,212-637-8000
Z079,1021281,210921,DOE,Pre - K Center At P.S. 315,43 - 18 97th Pl,Q,11101,212-637-8000
Z080,1005977,207767,DOE,Pre - K Center At 50 - 15 44th Street,50 - 15 44th St,Q,11104,212-637-8000
Z081,1005705,209529,DOE,Pre - K Center At P.S. 343 The Children's Lab School,45 - 45 42 St,Q,11104,212-637-8000
Z084,1042504,185076,DOE,Pre - K Center At P.S. 223 Lyndon B Johnson,125 - 20 Sutphin Blvd,Q,11434,212-637-8000
Z085,1000473,216462,DOE,Pre - K Center At P.S. 076 William Hallet,36 - 36 10 St,Q,11106,212-637-8000
Z087,1013841,253070,NYCEEC,Pre - K Center At 2512 Marion Avenue,2512 Marion Ave,X,10458,917-473-7623
Z088,1010827,203395,NYCEEC,Pre - K Center At 56 - 01 61st Street,56 - 01 61 St,Q,11378,929-424-4620
